<?xml version="1.0" encoding="UTF-8"?>
<gpx version="1.1" creator="Japonya Bisiklet Turu" xmlns="http://www.topografix.com/GPX/1/1">
<wpt lat="34.984600" lon="135.772600"><name>RBRJ Kyoto (teslim)</name></wpt>
<wpt lat="34.990500" lon="135.770000"><name>Kamo Nehri</name></wpt>
<wpt lat="35.003700" lon="135.778500"><name>Yasaka Tapınağı</name></wpt>
<wpt lat="35.016000" lon="135.782300"><name>Heian Jingū</name></wpt>
<wpt lat="35.019800" lon="135.741500"><name>Guesthouse Makuya</name></wpt>
<trk><name>Gün 2 · Kyoto kültür turu</name><trkseg>
<trkpt lat="34.984750" lon="135.772616"><ele>40</ele></trkpt>
<trkpt lat="34.985495" lon="135.772831"><ele>40</ele></trkpt>
<trkpt lat="34.985528" lon="135.771947"><ele>38</ele></trkpt>
<trkpt lat="34.985483" lon="135.771125"><ele>36</ele></trkpt>
<trkpt lat="34.985340" lon="135.770092"><ele>34</ele></trkpt>
<trkpt lat="34.985722" lon="135.769523"><ele>33</ele></trkpt>
<trkpt lat="34.986317" lon="135.769403"><ele>33</ele></trkpt>
<trkpt lat="34.986814" lon="135.769718"><ele>32</ele></trkpt>
<trkpt lat="34.987738" lon="135.769692"><ele>33</ele></trkpt>
<trkpt lat="34.988296" lon="135.769651"><ele>34</ele></trkpt>
<trkpt lat="34.989151" lon="135.769588"><ele>35</ele></trkpt>
<trkpt lat="34.989298" lon="135.770314"><ele>35</ele></trkpt>
<trkpt lat="34.989998" lon="135.770364"><ele>36</ele></trkpt>
<trkpt lat="34.990701" lon="135.770287"><ele>37</ele></trkpt>
<trkpt lat="34.991406" lon="135.770187"><ele>37</ele></trkpt>
<trkpt lat="34.992367" lon="135.770400"><ele>38</ele></trkpt>
<trkpt lat="34.993040" lon="135.770594"><ele>38</ele></trkpt>
<trkpt lat="34.992901" lon="135.771502"><ele>38</ele></trkpt>
<trkpt lat="34.993549" lon="135.771612"><ele>38</ele></trkpt>
<trkpt lat="34.994444" lon="135.771715"><ele>39</ele></trkpt>
<trkpt lat="34.995026" lon="135.771762"><ele>39</ele></trkpt>
<trkpt lat="34.995694" lon="135.771818"><ele>39</ele></trkpt>
<trkpt lat="34.996974" lon="135.771950"><ele>39</ele></trkpt>
<trkpt lat="34.997800" lon="135.772030"><ele>39</ele></trkpt>
<trkpt lat="34.998475" lon="135.772075"><ele>39</ele></trkpt>
<trkpt lat="34.999126" lon="135.772136"><ele>39</ele></trkpt>
<trkpt lat="34.999751" lon="135.772234"><ele>39</ele></trkpt>
<trkpt lat="35.000442" lon="135.772403"><ele>39</ele></trkpt>
<trkpt lat="35.001035" lon="135.772530"><ele>40</ele></trkpt>
<trkpt lat="35.001769" lon="135.772678"><ele>40</ele></trkpt>
<trkpt lat="35.001631" lon="135.773428"><ele>41</ele></trkpt>
<trkpt lat="35.001526" lon="135.774205"><ele>41</ele></trkpt>
<trkpt lat="35.001745" lon="135.774667"><ele>42</ele></trkpt>
<trkpt lat="35.002448" lon="135.774821"><ele>42</ele></trkpt>
<trkpt lat="35.003082" lon="135.774960"><ele>43</ele></trkpt>
<trkpt lat="35.002998" lon="135.775824"><ele>45</ele></trkpt>
<trkpt lat="35.002787" lon="135.776574"><ele>47</ele></trkpt>
<trkpt lat="35.002713" lon="135.777215"><ele>50</ele></trkpt>
<trkpt lat="35.002721" lon="135.778085"><ele>52</ele></trkpt>
<trkpt lat="35.003036" lon="135.778504"><ele>54</ele></trkpt>
<trkpt lat="35.003562" lon="135.778380"><ele>55</ele></trkpt>
<trkpt lat="35.003781" lon="135.778765"><ele>56</ele></trkpt>
<trkpt lat="35.003736" lon="135.778879"><ele>57</ele></trkpt>
<trkpt lat="35.003349" lon="135.779174"><ele>58</ele></trkpt>
<trkpt lat="35.003497" lon="135.780513"><ele>58</ele></trkpt>
<trkpt lat="35.004104" lon="135.780641"><ele>59</ele></trkpt>
<trkpt lat="35.004587" lon="135.781048"><ele>60</ele></trkpt>
<trkpt lat="35.005098" lon="135.781463"><ele>60</ele></trkpt>
<trkpt lat="35.006249" lon="135.781965"><ele>60</ele></trkpt>
<trkpt lat="35.006809" lon="135.782449"><ele>60</ele></trkpt>
<trkpt lat="35.007387" lon="135.782665"><ele>58</ele></trkpt>
<trkpt lat="35.008194" lon="135.782705"><ele>57</ele></trkpt>
<trkpt lat="35.008574" lon="135.783123"><ele>57</ele></trkpt>
<trkpt lat="35.008541" lon="135.784030"><ele>56</ele></trkpt>
<trkpt lat="35.008749" lon="135.784697"><ele>55</ele></trkpt>
<trkpt lat="35.009407" lon="135.784901"><ele>54</ele></trkpt>
<trkpt lat="35.010001" lon="135.784810"><ele>53</ele></trkpt>
<trkpt lat="35.010828" lon="135.784778"><ele>50</ele></trkpt>
<trkpt lat="35.011785" lon="135.784751"><ele>49</ele></trkpt>
<trkpt lat="35.012356" lon="135.784729"><ele>49</ele></trkpt>
<trkpt lat="35.013461" lon="135.784703"><ele>50</ele></trkpt>
<trkpt lat="35.014902" lon="135.784692"><ele>51</ele></trkpt>
<trkpt lat="35.015011" lon="135.783722"><ele>52</ele></trkpt>
<trkpt lat="35.014994" lon="135.782501"><ele>53</ele></trkpt>
<trkpt lat="35.015214" lon="135.782144"><ele>53</ele></trkpt>
<trkpt lat="35.015390" lon="135.782079"><ele>54</ele></trkpt>
<trkpt lat="35.015658" lon="135.781894"><ele>54</ele></trkpt>
<trkpt lat="35.016031" lon="135.782046"><ele>54</ele></trkpt>
<trkpt lat="35.016009" lon="135.782057"><ele>54</ele></trkpt>
<trkpt lat="35.015658" lon="135.782004"><ele>54</ele></trkpt>
<trkpt lat="35.015390" lon="135.782079"><ele>54</ele></trkpt>
<trkpt lat="35.015270" lon="135.782192"><ele>53</ele></trkpt>
<trkpt lat="35.015040" lon="135.782498"><ele>52</ele></trkpt>
<trkpt lat="35.014981" lon="135.781646"><ele>51</ele></trkpt>
<trkpt lat="35.014966" lon="135.780591"><ele>50</ele></trkpt>
<trkpt lat="35.014962" lon="135.779908"><ele>49</ele></trkpt>
<trkpt lat="35.013761" lon="135.779904"><ele>49</ele></trkpt>
<trkpt lat="35.013659" lon="135.779331"><ele>48</ele></trkpt>
<trkpt lat="35.013669" lon="135.778654"><ele>48</ele></trkpt>
<trkpt lat="35.013680" lon="135.777493"><ele>48</ele></trkpt>
<trkpt lat="35.013643" lon="135.776419"><ele>48</ele></trkpt>
<trkpt lat="35.013650" lon="135.775747"><ele>47</ele></trkpt>
<trkpt lat="35.013658" lon="135.774979"><ele>47</ele></trkpt>
<trkpt lat="35.013667" lon="135.774140"><ele>47</ele></trkpt>
<trkpt lat="35.013640" lon="135.773427"><ele>46</ele></trkpt>
<trkpt lat="35.013247" lon="135.772605"><ele>46</ele></trkpt>
<trkpt lat="35.013199" lon="135.771188"><ele>46</ele></trkpt>
<trkpt lat="35.013190" lon="135.770428"><ele>46</ele></trkpt>
<trkpt lat="35.013213" lon="135.769206"><ele>47</ele></trkpt>
<trkpt lat="35.013228" lon="135.768446"><ele>48</ele></trkpt>
<trkpt lat="35.013249" lon="135.767380"><ele>48</ele></trkpt>
<trkpt lat="35.013647" lon="135.766476"><ele>48</ele></trkpt>
<trkpt lat="35.013643" lon="135.765804"><ele>48</ele></trkpt>
<trkpt lat="35.013656" lon="135.764985"><ele>48</ele></trkpt>
<trkpt lat="35.013659" lon="135.764255"><ele>48</ele></trkpt>
<trkpt lat="35.013658" lon="135.763140"><ele>48</ele></trkpt>
<trkpt lat="35.013659" lon="135.762397"><ele>48</ele></trkpt>
<trkpt lat="35.013664" lon="135.761618"><ele>49</ele></trkpt>
<trkpt lat="35.013668" lon="135.760942"><ele>49</ele></trkpt>
<trkpt lat="35.013669" lon="135.760221"><ele>50</ele></trkpt>
<trkpt lat="35.013652" lon="135.759521"><ele>50</ele></trkpt>
<trkpt lat="35.013654" lon="135.758819"><ele>49</ele></trkpt>
<trkpt lat="35.013642" lon="135.758063"><ele>48</ele></trkpt>
<trkpt lat="35.013614" lon="135.757266"><ele>47</ele></trkpt>
<trkpt lat="35.013590" lon="135.756563"><ele>46</ele></trkpt>
<trkpt lat="35.013585" lon="135.755874"><ele>46</ele></trkpt>
<trkpt lat="35.013602" lon="135.755126"><ele>46</ele></trkpt>
<trkpt lat="35.014225" lon="135.755018"><ele>46</ele></trkpt>
<trkpt lat="35.014878" lon="135.755020"><ele>46</ele></trkpt>
<trkpt lat="35.016207" lon="135.755019"><ele>47</ele></trkpt>
<trkpt lat="35.017298" lon="135.755008"><ele>48</ele></trkpt>
<trkpt lat="35.018654" lon="135.755004"><ele>49</ele></trkpt>
<trkpt lat="35.019809" lon="135.754996"><ele>49</ele></trkpt>
<trkpt lat="35.019973" lon="135.754225"><ele>49</ele></trkpt>
<trkpt lat="35.019978" lon="135.753458"><ele>49</ele></trkpt>
<trkpt lat="35.019982" lon="135.752751"><ele>48</ele></trkpt>
<trkpt lat="35.019985" lon="135.752052"><ele>48</ele></trkpt>
<trkpt lat="35.019968" lon="135.751207"><ele>48</ele></trkpt>
<trkpt lat="35.019997" lon="135.749840"><ele>48</ele></trkpt>
<trkpt lat="35.020008" lon="135.749059"><ele>49</ele></trkpt>
<trkpt lat="35.020033" lon="135.747749"><ele>49</ele></trkpt>
<trkpt lat="35.020043" lon="135.747022"><ele>50</ele></trkpt>
<trkpt lat="35.020070" lon="135.746107"><ele>50</ele></trkpt>
<trkpt lat="35.020088" lon="135.744811"><ele>51</ele></trkpt>
<trkpt lat="35.020106" lon="135.743789"><ele>51</ele></trkpt>
<trkpt lat="35.020127" lon="135.743079"><ele>51</ele></trkpt>
<trkpt lat="35.020174" lon="135.741581"><ele>52</ele></trkpt>
<trkpt lat="35.019796" lon="135.741554"><ele>52</ele></trkpt>
</trkseg></trk>
</gpx>
