<?xml version="1.0" encoding="UTF-8"?>
<gpx version="1.1" creator="Japonya Bisiklet Turu" xmlns="http://www.topografix.com/GPX/1/1">
<wpt lat="35.005000" lon="135.781000"><name>Chion-in Wajun Kaikan</name></wpt>
<wpt lat="35.030100" lon="135.769600"><name>Demachi Futaba</name></wpt>
<wpt lat="35.039100" lon="135.772700"><name>Shimogamo</name></wpt>
<wpt lat="35.043700" lon="135.746000"><name>Daitoku-ji</name></wpt>
<wpt lat="35.039400" lon="135.729200"><name>Kinkaku-ji</name></wpt>
<wpt lat="35.034500" lon="135.718200"><name>Ryōan-ji</name></wpt>
<wpt lat="35.031200" lon="135.735100"><name>Kitano Tenmangū</name></wpt>
<wpt lat="35.029600" lon="135.751100"><name>Nishijin</name></wpt>
<wpt lat="35.005000" lon="135.781000"><name>Chion-in Wajun Kaikan</name></wpt>
<trk><name>Gün 3 · Kuzey Kyoto</name><trkseg>
<trkpt lat="35.004948" lon="135.780987"><ele>60</ele></trkpt>
<trkpt lat="35.005098" lon="135.781463"><ele>60</ele></trkpt>
<trkpt lat="35.006249" lon="135.781965"><ele>60</ele></trkpt>
<trkpt lat="35.006809" lon="135.782449"><ele>60</ele></trkpt>
<trkpt lat="35.007387" lon="135.782665"><ele>58</ele></trkpt>
<trkpt lat="35.008194" lon="135.782705"><ele>55</ele></trkpt>
<trkpt lat="35.008894" lon="135.782757"><ele>52</ele></trkpt>
<trkpt lat="35.009843" lon="135.782778"><ele>50</ele></trkpt>
<trkpt lat="35.010942" lon="135.782756"><ele>49</ele></trkpt>
<trkpt lat="35.011716" lon="135.782744"><ele>49</ele></trkpt>
<trkpt lat="35.012313" lon="135.782703"><ele>49</ele></trkpt>
<trkpt lat="35.013021" lon="135.782647"><ele>50</ele></trkpt>
<trkpt lat="35.013648" lon="135.782595"><ele>51</ele></trkpt>
<trkpt lat="35.013652" lon="135.781860"><ele>51</ele></trkpt>
<trkpt lat="35.013655" lon="135.781193"><ele>51</ele></trkpt>
<trkpt lat="35.013658" lon="135.780410"><ele>50</ele></trkpt>
<trkpt lat="35.013661" lon="135.779567"><ele>49</ele></trkpt>
<trkpt lat="35.013668" lon="135.778852"><ele>48</ele></trkpt>
<trkpt lat="35.013680" lon="135.777493"><ele>48</ele></trkpt>
<trkpt lat="35.014313" lon="135.777497"><ele>48</ele></trkpt>
<trkpt lat="35.015398" lon="135.777520"><ele>49</ele></trkpt>
<trkpt lat="35.016392" lon="135.777568"><ele>50</ele></trkpt>
<trkpt lat="35.016960" lon="135.777620"><ele>51</ele></trkpt>
<trkpt lat="35.017725" lon="135.777680"><ele>52</ele></trkpt>
<trkpt lat="35.018522" lon="135.777722"><ele>51</ele></trkpt>
<trkpt lat="35.018530" lon="135.776680"><ele>51</ele></trkpt>
<trkpt lat="35.018547" lon="135.775850"><ele>50</ele></trkpt>
<trkpt lat="35.019638" lon="135.775830"><ele>50</ele></trkpt>
<trkpt lat="35.020210" lon="135.775849"><ele>50</ele></trkpt>
<trkpt lat="35.020869" lon="135.775872"><ele>50</ele></trkpt>
<trkpt lat="35.021805" lon="135.775905"><ele>51</ele></trkpt>
<trkpt lat="35.022756" lon="135.775915"><ele>52</ele></trkpt>
<trkpt lat="35.023824" lon="135.775927"><ele>52</ele></trkpt>
<trkpt lat="35.024601" lon="135.776131"><ele>53</ele></trkpt>
<trkpt lat="35.025163" lon="135.776326"><ele>53</ele></trkpt>
<trkpt lat="35.025718" lon="135.776526"><ele>53</ele></trkpt>
<trkpt lat="35.026506" lon="135.776374"><ele>53</ele></trkpt>
<trkpt lat="35.027125" lon="135.775869"><ele>53</ele></trkpt>
<trkpt lat="35.027813" lon="135.775772"><ele>54</ele></trkpt>
<trkpt lat="35.028515" lon="135.775616"><ele>54</ele></trkpt>
<trkpt lat="35.029162" lon="135.775623"><ele>55</ele></trkpt>
<trkpt lat="35.029901" lon="135.775649"><ele>55</ele></trkpt>
<trkpt lat="35.030010" lon="135.774895"><ele>55</ele></trkpt>
<trkpt lat="35.030325" lon="135.773977"><ele>54</ele></trkpt>
<trkpt lat="35.030301" lon="135.773105"><ele>54</ele></trkpt>
<trkpt lat="35.030539" lon="135.771979"><ele>54</ele></trkpt>
<trkpt lat="35.030288" lon="135.770688"><ele>55</ele></trkpt>
<trkpt lat="35.030124" lon="135.769954"><ele>55</ele></trkpt>
<trkpt lat="35.030280" lon="135.769684"><ele>56</ele></trkpt>
<trkpt lat="35.031380" lon="135.769618"><ele>57</ele></trkpt>
<trkpt lat="35.032319" lon="135.770399"><ele>57</ele></trkpt>
<trkpt lat="35.033799" lon="135.770720"><ele>58</ele></trkpt>
<trkpt lat="35.034407" lon="135.770880"><ele>59</ele></trkpt>
<trkpt lat="35.035162" lon="135.771095"><ele>60</ele></trkpt>
<trkpt lat="35.036151" lon="135.771016"><ele>61</ele></trkpt>
<trkpt lat="35.036701" lon="135.770974"><ele>62</ele></trkpt>
<trkpt lat="35.036780" lon="135.771659"><ele>62</ele></trkpt>
<trkpt lat="35.037168" lon="135.772124"><ele>63</ele></trkpt>
<trkpt lat="35.037736" lon="135.772235"><ele>63</ele></trkpt>
<trkpt lat="35.038475" lon="135.772044"><ele>64</ele></trkpt>
<trkpt lat="35.038899" lon="135.772233"><ele>64</ele></trkpt>
<trkpt lat="35.038981" lon="135.772690"><ele>64</ele></trkpt>
<trkpt lat="35.038899" lon="135.772233"><ele>64</ele></trkpt>
<trkpt lat="35.039000" lon="135.771462"><ele>63</ele></trkpt>
<trkpt lat="35.039252" lon="135.771036"><ele>62</ele></trkpt>
<trkpt lat="35.039326" lon="135.770069"><ele>62</ele></trkpt>
<trkpt lat="35.039211" lon="135.769250"><ele>62</ele></trkpt>
<trkpt lat="35.038975" lon="135.768469"><ele>61</ele></trkpt>
<trkpt lat="35.038769" lon="135.767817"><ele>61</ele></trkpt>
<trkpt lat="35.038458" lon="135.766796"><ele>62</ele></trkpt>
<trkpt lat="35.038227" lon="135.765951"><ele>62</ele></trkpt>
<trkpt lat="35.038053" lon="135.765133"><ele>63</ele></trkpt>
<trkpt lat="35.037956" lon="135.764414"><ele>64</ele></trkpt>
<trkpt lat="35.037918" lon="135.762864"><ele>65</ele></trkpt>
<trkpt lat="35.037895" lon="135.761881"><ele>65</ele></trkpt>
<trkpt lat="35.037867" lon="135.761024"><ele>66</ele></trkpt>
<trkpt lat="35.037804" lon="135.759714"><ele>66</ele></trkpt>
<trkpt lat="35.037782" lon="135.759007"><ele>66</ele></trkpt>
<trkpt lat="35.037764" lon="135.758335"><ele>66</ele></trkpt>
<trkpt lat="35.037751" lon="135.757503"><ele>67</ele></trkpt>
<trkpt lat="35.037724" lon="135.755668"><ele>67</ele></trkpt>
<trkpt lat="35.037813" lon="135.754637"><ele>68</ele></trkpt>
<trkpt lat="35.037934" lon="135.753828"><ele>68</ele></trkpt>
<trkpt lat="35.038034" lon="135.753114"><ele>69</ele></trkpt>
<trkpt lat="35.038083" lon="135.752050"><ele>69</ele></trkpt>
<trkpt lat="35.038078" lon="135.751350"><ele>69</ele></trkpt>
<trkpt lat="35.038029" lon="135.750670"><ele>69</ele></trkpt>
<trkpt lat="35.038517" lon="135.750345"><ele>69</ele></trkpt>
<trkpt lat="35.038925" lon="135.749764"><ele>69</ele></trkpt>
<trkpt lat="35.039627" lon="135.749375"><ele>70</ele></trkpt>
<trkpt lat="35.039924" lon="135.748307"><ele>71</ele></trkpt>
<trkpt lat="35.040037" lon="135.747603"><ele>72</ele></trkpt>
<trkpt lat="35.040588" lon="135.747545"><ele>73</ele></trkpt>
<trkpt lat="35.041368" lon="135.747462"><ele>75</ele></trkpt>
<trkpt lat="35.042330" lon="135.747274"><ele>77</ele></trkpt>
<trkpt lat="35.042420" lon="135.746737"><ele>78</ele></trkpt>
<trkpt lat="35.042406" lon="135.746036"><ele>80</ele></trkpt>
<trkpt lat="35.043179" lon="135.745877"><ele>81</ele></trkpt>
<trkpt lat="35.043624" lon="135.745827"><ele>83</ele></trkpt>
<trkpt lat="35.043579" lon="135.745065"><ele>84</ele></trkpt>
<trkpt lat="35.043637" lon="135.744178"><ele>86</ele></trkpt>
<trkpt lat="35.043577" lon="135.742396"><ele>90</ele></trkpt>
<trkpt lat="35.043528" lon="135.740996"><ele>93</ele></trkpt>
<trkpt lat="35.043499" lon="135.740336"><ele>96</ele></trkpt>
<trkpt lat="35.043476" lon="135.739527"><ele>99</ele></trkpt>
<trkpt lat="35.043426" lon="135.738774"><ele>101</ele></trkpt>
<trkpt lat="35.043015" lon="135.738544"><ele>101</ele></trkpt>
<trkpt lat="35.042917" lon="135.737303"><ele>100</ele></trkpt>
<trkpt lat="35.042843" lon="135.736400"><ele>98</ele></trkpt>
<trkpt lat="35.042393" lon="135.735922"><ele>97</ele></trkpt>
<trkpt lat="35.041719" lon="135.735933"><ele>95</ele></trkpt>
<trkpt lat="35.042020" lon="135.735405"><ele>94</ele></trkpt>
<trkpt lat="35.042117" lon="135.734675"><ele>95</ele></trkpt>
<trkpt lat="35.042197" lon="135.733998"><ele>98</ele></trkpt>
<trkpt lat="35.042348" lon="135.732943"><ele>100</ele></trkpt>
<trkpt lat="35.041998" lon="135.732222"><ele>102</ele></trkpt>
<trkpt lat="35.041398" lon="135.732025"><ele>102</ele></trkpt>
<trkpt lat="35.040720" lon="135.731905"><ele>101</ele></trkpt>
<trkpt lat="35.040087" lon="135.731882"><ele>100</ele></trkpt>
<trkpt lat="35.039397" lon="135.731899"><ele>98</ele></trkpt>
<trkpt lat="35.039188" lon="135.731157"><ele>98</ele></trkpt>
<trkpt lat="35.039106" lon="135.730423"><ele>98</ele></trkpt>
<trkpt lat="35.039105" lon="135.729713"><ele>99</ele></trkpt>
<trkpt lat="35.039109" lon="135.729674"><ele>99</ele></trkpt>
<trkpt lat="35.039077" lon="135.730337"><ele>98</ele></trkpt>
<trkpt lat="35.039188" lon="135.731157"><ele>97</ele></trkpt>
<trkpt lat="35.039250" lon="135.731833"><ele>94</ele></trkpt>
<trkpt lat="35.038647" lon="135.731674"><ele>92</ele></trkpt>
<trkpt lat="35.037338" lon="135.731377"><ele>90</ele></trkpt>
<trkpt lat="35.036632" lon="135.731285"><ele>87</ele></trkpt>
<trkpt lat="35.035980" lon="135.731311"><ele>85</ele></trkpt>
<trkpt lat="35.035117" lon="135.731384"><ele>84</ele></trkpt>
<trkpt lat="35.035080" lon="135.730464"><ele>83</ele></trkpt>
<trkpt lat="35.035087" lon="135.729504"><ele>82</ele></trkpt>
<trkpt lat="35.035081" lon="135.728741"><ele>81</ele></trkpt>
<trkpt lat="35.034874" lon="135.727968"><ele>81</ele></trkpt>
<trkpt lat="35.034760" lon="135.727045"><ele>81</ele></trkpt>
<trkpt lat="35.034874" lon="135.726377"><ele>83</ele></trkpt>
<trkpt lat="35.034778" lon="135.725762"><ele>86</ele></trkpt>
<trkpt lat="35.034725" lon="135.725011"><ele>90</ele></trkpt>
<trkpt lat="35.034481" lon="135.724322"><ele>93</ele></trkpt>
<trkpt lat="35.033767" lon="135.723224"><ele>95</ele></trkpt>
<trkpt lat="35.033478" lon="135.722587"><ele>94</ele></trkpt>
<trkpt lat="35.033312" lon="135.721793"><ele>92</ele></trkpt>
<trkpt lat="35.033008" lon="135.720970"><ele>91</ele></trkpt>
<trkpt lat="35.032962" lon="135.720263"><ele>92</ele></trkpt>
<trkpt lat="35.033392" lon="135.719838"><ele>95</ele></trkpt>
<trkpt lat="35.033928" lon="135.719346"><ele>98</ele></trkpt>
<trkpt lat="35.034450" lon="135.719056"><ele>101</ele></trkpt>
<trkpt lat="35.034396" lon="135.718491"><ele>103</ele></trkpt>
<trkpt lat="35.034429" lon="135.718782"><ele>102</ele></trkpt>
<trkpt lat="35.034070" lon="135.719168"><ele>99</ele></trkpt>
<trkpt lat="35.033633" lon="135.719627"><ele>96</ele></trkpt>
<trkpt lat="35.033348" lon="135.720132"><ele>93</ele></trkpt>
<trkpt lat="35.032897" lon="135.720549"><ele>89</ele></trkpt>
<trkpt lat="35.033165" lon="135.721359"><ele>86</ele></trkpt>
<trkpt lat="35.032281" lon="135.721471"><ele>83</ele></trkpt>
<trkpt lat="35.032067" lon="135.721909"><ele>81</ele></trkpt>
<trkpt lat="35.031911" lon="135.722744"><ele>79</ele></trkpt>
<trkpt lat="35.031971" lon="135.723400"><ele>78</ele></trkpt>
<trkpt lat="35.031966" lon="135.724763"><ele>77</ele></trkpt>
<trkpt lat="35.031220" lon="135.724725"><ele>75</ele></trkpt>
<trkpt lat="35.031236" lon="135.726198"><ele>74</ele></trkpt>
<trkpt lat="35.031197" lon="135.726950"><ele>72</ele></trkpt>
<trkpt lat="35.031089" lon="135.727683"><ele>71</ele></trkpt>
<trkpt lat="35.031951" lon="135.727829"><ele>71</ele></trkpt>
<trkpt lat="35.031867" lon="135.728799"><ele>72</ele></trkpt>
<trkpt lat="35.031780" lon="135.729661"><ele>73</ele></trkpt>
<trkpt lat="35.031759" lon="135.730446"><ele>73</ele></trkpt>
<trkpt lat="35.031753" lon="135.731106"><ele>74</ele></trkpt>
<trkpt lat="35.031668" lon="135.732346"><ele>75</ele></trkpt>
<trkpt lat="35.031716" lon="135.733252"><ele>76</ele></trkpt>
<trkpt lat="35.032528" lon="135.733411"><ele>76</ele></trkpt>
<trkpt lat="35.032479" lon="135.734238"><ele>76</ele></trkpt>
<trkpt lat="35.032367" lon="135.735089"><ele>76</ele></trkpt>
<trkpt lat="35.032360" lon="135.735796"><ele>75</ele></trkpt>
<trkpt lat="35.031720" lon="135.735858"><ele>75</ele></trkpt>
<trkpt lat="35.031242" lon="135.735968"><ele>75</ele></trkpt>
<trkpt lat="35.031326" lon="135.735341"><ele>75</ele></trkpt>
<trkpt lat="35.031148" lon="135.735305"><ele>74</ele></trkpt>
<trkpt lat="35.031332" lon="135.735753"><ele>74</ele></trkpt>
<trkpt lat="35.031085" lon="135.736406"><ele>74</ele></trkpt>
<trkpt lat="35.031067" lon="135.737114"><ele>73</ele></trkpt>
<trkpt lat="35.031010" lon="135.737836"><ele>73</ele></trkpt>
<trkpt lat="35.030965" lon="135.738739"><ele>72</ele></trkpt>
<trkpt lat="35.030910" lon="135.739736"><ele>72</ele></trkpt>
<trkpt lat="35.030866" lon="135.740472"><ele>71</ele></trkpt>
<trkpt lat="35.030925" lon="135.741860"><ele>71</ele></trkpt>
<trkpt lat="35.031041" lon="135.743110"><ele>70</ele></trkpt>
<trkpt lat="35.031056" lon="135.743859"><ele>69</ele></trkpt>
<trkpt lat="35.031066" lon="135.744600"><ele>68</ele></trkpt>
<trkpt lat="35.031043" lon="135.745478"><ele>68</ele></trkpt>
<trkpt lat="35.031036" lon="135.746169"><ele>67</ele></trkpt>
<trkpt lat="35.031066" lon="135.747079"><ele>66</ele></trkpt>
<trkpt lat="35.029897" lon="135.747094"><ele>65</ele></trkpt>
<trkpt lat="35.029711" lon="135.748746"><ele>65</ele></trkpt>
<trkpt lat="35.029692" lon="135.749985"><ele>64</ele></trkpt>
<trkpt lat="35.029670" lon="135.751079"><ele>63</ele></trkpt>
<trkpt lat="35.029597" lon="135.751652"><ele>62</ele></trkpt>
<trkpt lat="35.028675" lon="135.751768"><ele>61</ele></trkpt>
<trkpt lat="35.028441" lon="135.752187"><ele>60</ele></trkpt>
<trkpt lat="35.028529" lon="135.753155"><ele>58</ele></trkpt>
<trkpt lat="35.027954" lon="135.753473"><ele>57</ele></trkpt>
<trkpt lat="35.027133" lon="135.753493"><ele>56</ele></trkpt>
<trkpt lat="35.026306" lon="135.753505"><ele>55</ele></trkpt>
<trkpt lat="35.025657" lon="135.753508"><ele>54</ele></trkpt>
<trkpt lat="35.025035" lon="135.753510"><ele>53</ele></trkpt>
<trkpt lat="35.023799" lon="135.753509"><ele>52</ele></trkpt>
<trkpt lat="35.023231" lon="135.753508"><ele>51</ele></trkpt>
<trkpt lat="35.022618" lon="135.753507"><ele>51</ele></trkpt>
<trkpt lat="35.021230" lon="135.753485"><ele>50</ele></trkpt>
<trkpt lat="35.020581" lon="135.753474"><ele>49</ele></trkpt>
<trkpt lat="35.020024" lon="135.753463"><ele>48</ele></trkpt>
<trkpt lat="35.018683" lon="135.753420"><ele>48</ele></trkpt>
<trkpt lat="35.017432" lon="135.753412"><ele>47</ele></trkpt>
<trkpt lat="35.016489" lon="135.753408"><ele>46</ele></trkpt>
<trkpt lat="35.014870" lon="135.753418"><ele>46</ele></trkpt>
<trkpt lat="35.013622" lon="135.753422"><ele>46</ele></trkpt>
<trkpt lat="35.013617" lon="135.754208"><ele>45</ele></trkpt>
<trkpt lat="35.013606" lon="135.755016"><ele>46</ele></trkpt>
<trkpt lat="35.013589" lon="135.755794"><ele>46</ele></trkpt>
<trkpt lat="35.013590" lon="135.756563"><ele>46</ele></trkpt>
<trkpt lat="35.013614" lon="135.757266"><ele>47</ele></trkpt>
<trkpt lat="35.013642" lon="135.758063"><ele>48</ele></trkpt>
<trkpt lat="35.013654" lon="135.758819"><ele>49</ele></trkpt>
<trkpt lat="35.013652" lon="135.759521"><ele>50</ele></trkpt>
<trkpt lat="35.013669" lon="135.760221"><ele>50</ele></trkpt>
<trkpt lat="35.013668" lon="135.760942"><ele>49</ele></trkpt>
<trkpt lat="35.013664" lon="135.761618"><ele>49</ele></trkpt>
<trkpt lat="35.013659" lon="135.762397"><ele>48</ele></trkpt>
<trkpt lat="35.013658" lon="135.763140"><ele>48</ele></trkpt>
<trkpt lat="35.013661" lon="135.763805"><ele>48</ele></trkpt>
<trkpt lat="35.013656" lon="135.764985"><ele>48</ele></trkpt>
<trkpt lat="35.013643" lon="135.765804"><ele>48</ele></trkpt>
<trkpt lat="35.013647" lon="135.766476"><ele>48</ele></trkpt>
<trkpt lat="35.013644" lon="135.767231"><ele>48</ele></trkpt>
<trkpt lat="35.013237" lon="135.767932"><ele>48</ele></trkpt>
<trkpt lat="35.013222" lon="135.768768"><ele>47</ele></trkpt>
<trkpt lat="35.013194" lon="135.770208"><ele>46</ele></trkpt>
<trkpt lat="35.013199" lon="135.771188"><ele>45</ele></trkpt>
<trkpt lat="35.013217" lon="135.772116"><ele>44</ele></trkpt>
<trkpt lat="35.011925" lon="135.772427"><ele>44</ele></trkpt>
<trkpt lat="35.011910" lon="135.773254"><ele>44</ele></trkpt>
<trkpt lat="35.011897" lon="135.773963"><ele>44</ele></trkpt>
<trkpt lat="35.011884" lon="135.774665"><ele>45</ele></trkpt>
<trkpt lat="35.011865" lon="135.775750"><ele>46</ele></trkpt>
<trkpt lat="35.011852" lon="135.776460"><ele>46</ele></trkpt>
<trkpt lat="35.011846" lon="135.777333"><ele>47</ele></trkpt>
<trkpt lat="35.011840" lon="135.778285"><ele>47</ele></trkpt>
<trkpt lat="35.011810" lon="135.779326"><ele>48</ele></trkpt>
<trkpt lat="35.011845" lon="135.780072"><ele>49</ele></trkpt>
<trkpt lat="35.011845" lon="135.780779"><ele>49</ele></trkpt>
<trkpt lat="35.011843" lon="135.782171"><ele>49</ele></trkpt>
<trkpt lat="35.011716" lon="135.782744"><ele>48</ele></trkpt>
<trkpt lat="35.010942" lon="135.782756"><ele>48</ele></trkpt>
<trkpt lat="35.010346" lon="135.782764"><ele>49</ele></trkpt>
<trkpt lat="35.009418" lon="135.782787"><ele>51</ele></trkpt>
<trkpt lat="35.008665" lon="135.782731"><ele>53</ele></trkpt>
<trkpt lat="35.007926" lon="135.782693"><ele>56</ele></trkpt>
<trkpt lat="35.007258" lon="135.782646"><ele>58</ele></trkpt>
<trkpt lat="35.006547" lon="135.782222"><ele>60</ele></trkpt>
<trkpt lat="35.005432" lon="135.781609"><ele>60</ele></trkpt>
<trkpt lat="35.004870" lon="135.781346"><ele>60</ele></trkpt>
<trkpt lat="35.004948" lon="135.780987"><ele>60</ele></trkpt>
</trkseg></trk>
</gpx>
