<?xml version="1.0" encoding="UTF-8"?>
<gpx version="1.1" creator="Japonya Bisiklet Turu" xmlns="http://www.topografix.com/GPX/1/1">
<wpt lat="35.005000" lon="135.781000"><name>Chion-in Wajun Kaikan</name></wpt>
<wpt lat="34.967100" lon="135.772700"><name>Fushimi Inari</name></wpt>
<wpt lat="34.932100" lon="135.761300"><name>Gekkeikan Ōkura</name></wpt>
<wpt lat="34.889300" lon="135.807700"><name>Byōdō-in</name></wpt>
<wpt lat="34.929000" lon="135.756000"><name>Fushimi (dönüş)</name></wpt>
<wpt lat="35.005000" lon="135.781000"><name>Chion-in Wajun Kaikan</name></wpt>
<trk><name>Gün 4 · Fushimi – Uji</name><trkseg>
<trkpt lat="35.004948" lon="135.780987"><ele>55</ele></trkpt>
<trkpt lat="35.004877" lon="135.780447"><ele>52</ele></trkpt>
<trkpt lat="35.005132" lon="135.779802"><ele>51</ele></trkpt>
<trkpt lat="35.005436" lon="135.778063"><ele>49</ele></trkpt>
<trkpt lat="35.004943" lon="135.777601"><ele>47</ele></trkpt>
<trkpt lat="35.004450" lon="135.777418"><ele>46</ele></trkpt>
<trkpt lat="35.004495" lon="135.776717"><ele>46</ele></trkpt>
<trkpt lat="35.004491" lon="135.775831"><ele>46</ele></trkpt>
<trkpt lat="35.004420" lon="135.775138"><ele>46</ele></trkpt>
<trkpt lat="35.004428" lon="135.774405"><ele>45</ele></trkpt>
<trkpt lat="35.004421" lon="135.773042"><ele>45</ele></trkpt>
<trkpt lat="35.003833" lon="135.773085"><ele>44</ele></trkpt>
<trkpt lat="35.003095" lon="135.772947"><ele>43</ele></trkpt>
<trkpt lat="35.002297" lon="135.772778"><ele>42</ele></trkpt>
<trkpt lat="35.001134" lon="135.772538"><ele>40</ele></trkpt>
<trkpt lat="35.000522" lon="135.772419"><ele>39</ele></trkpt>
<trkpt lat="34.999751" lon="135.772234"><ele>39</ele></trkpt>
<trkpt lat="34.999126" lon="135.772136"><ele>39</ele></trkpt>
<trkpt lat="34.998580" lon="135.772081"><ele>38</ele></trkpt>
<trkpt lat="34.997855" lon="135.772032"><ele>39</ele></trkpt>
<trkpt lat="34.997057" lon="135.771960"><ele>39</ele></trkpt>
<trkpt lat="34.996176" lon="135.771867"><ele>39</ele></trkpt>
<trkpt lat="34.995333" lon="135.771779"><ele>39</ele></trkpt>
<trkpt lat="34.994558" lon="135.771724"><ele>39</ele></trkpt>
<trkpt lat="34.993989" lon="135.771671"><ele>39</ele></trkpt>
<trkpt lat="34.993259" lon="135.771564"><ele>40</ele></trkpt>
<trkpt lat="34.992137" lon="135.771336"><ele>40</ele></trkpt>
<trkpt lat="34.991552" lon="135.771275"><ele>39</ele></trkpt>
<trkpt lat="34.990804" lon="135.771224"><ele>39</ele></trkpt>
<trkpt lat="34.990230" lon="135.771214"><ele>38</ele></trkpt>
<trkpt lat="34.989665" lon="135.771189"><ele>38</ele></trkpt>
<trkpt lat="34.989121" lon="135.771227"><ele>38</ele></trkpt>
<trkpt lat="34.988083" lon="135.771177"><ele>38</ele></trkpt>
<trkpt lat="34.986893" lon="135.771095"><ele>37</ele></trkpt>
<trkpt lat="34.986885" lon="135.770456"><ele>36</ele></trkpt>
<trkpt lat="34.986882" lon="135.769791"><ele>34</ele></trkpt>
<trkpt lat="34.986419" lon="135.769401"><ele>33</ele></trkpt>
<trkpt lat="34.985722" lon="135.769523"><ele>32</ele></trkpt>
<trkpt lat="34.985005" lon="135.769610"><ele>33</ele></trkpt>
<trkpt lat="34.983683" lon="135.769687"><ele>34</ele></trkpt>
<trkpt lat="34.983270" lon="135.770368"><ele>35</ele></trkpt>
<trkpt lat="34.982582" lon="135.770398"><ele>36</ele></trkpt>
<trkpt lat="34.982016" lon="135.770421"><ele>36</ele></trkpt>
<trkpt lat="34.981266" lon="135.770418"><ele>36</ele></trkpt>
<trkpt lat="34.980512" lon="135.770445"><ele>35</ele></trkpt>
<trkpt lat="34.979871" lon="135.770521"><ele>36</ele></trkpt>
<trkpt lat="34.979292" lon="135.770572"><ele>36</ele></trkpt>
<trkpt lat="34.978559" lon="135.770668"><ele>36</ele></trkpt>
<trkpt lat="34.977721" lon="135.770721"><ele>37</ele></trkpt>
<trkpt lat="34.976705" lon="135.770795"><ele>38</ele></trkpt>
<trkpt lat="34.976104" lon="135.770819"><ele>37</ele></trkpt>
<trkpt lat="34.975448" lon="135.770811"><ele>37</ele></trkpt>
<trkpt lat="34.974747" lon="135.770798"><ele>36</ele></trkpt>
<trkpt lat="34.973955" lon="135.770809"><ele>36</ele></trkpt>
<trkpt lat="34.973334" lon="135.770819"><ele>36</ele></trkpt>
<trkpt lat="34.972510" lon="135.770853"><ele>36</ele></trkpt>
<trkpt lat="34.971950" lon="135.770873"><ele>36</ele></trkpt>
<trkpt lat="34.971353" lon="135.770894"><ele>36</ele></trkpt>
<trkpt lat="34.970621" lon="135.770919"><ele>36</ele></trkpt>
<trkpt lat="34.969996" lon="135.770964"><ele>35</ele></trkpt>
<trkpt lat="34.969215" lon="135.770947"><ele>35</ele></trkpt>
<trkpt lat="34.967912" lon="135.770946"><ele>35</ele></trkpt>
<trkpt lat="34.967047" lon="135.770945"><ele>37</ele></trkpt>
<trkpt lat="34.967080" lon="135.771868"><ele>37</ele></trkpt>
<trkpt lat="34.967126" lon="135.772529"><ele>37</ele></trkpt>
<trkpt lat="34.967088" lon="135.771982"><ele>37</ele></trkpt>
<trkpt lat="34.967044" lon="135.771036"><ele>36</ele></trkpt>
<trkpt lat="34.966338" lon="135.770977"><ele>34</ele></trkpt>
<trkpt lat="34.965771" lon="135.771030"><ele>33</ele></trkpt>
<trkpt lat="34.964578" lon="135.771081"><ele>33</ele></trkpt>
<trkpt lat="34.963508" lon="135.771105"><ele>32</ele></trkpt>
<trkpt lat="34.962920" lon="135.771120"><ele>32</ele></trkpt>
<trkpt lat="34.962102" lon="135.771149"><ele>32</ele></trkpt>
<trkpt lat="34.961306" lon="135.771169"><ele>32</ele></trkpt>
<trkpt lat="34.960455" lon="135.771178"><ele>31</ele></trkpt>
<trkpt lat="34.959885" lon="135.771191"><ele>31</ele></trkpt>
<trkpt lat="34.959274" lon="135.771201"><ele>31</ele></trkpt>
<trkpt lat="34.958596" lon="135.771201"><ele>32</ele></trkpt>
<trkpt lat="34.957721" lon="135.771205"><ele>32</ele></trkpt>
<trkpt lat="34.956994" lon="135.771216"><ele>32</ele></trkpt>
<trkpt lat="34.955991" lon="135.771238"><ele>32</ele></trkpt>
<trkpt lat="34.955094" lon="135.771244"><ele>32</ele></trkpt>
<trkpt lat="34.954328" lon="135.771243"><ele>32</ele></trkpt>
<trkpt lat="34.953621" lon="135.771230"><ele>32</ele></trkpt>
<trkpt lat="34.952872" lon="135.771113"><ele>32</ele></trkpt>
<trkpt lat="34.952255" lon="135.770939"><ele>31</ele></trkpt>
<trkpt lat="34.952187" lon="135.770341"><ele>30</ele></trkpt>
<trkpt lat="34.952246" lon="135.769667"><ele>28</ele></trkpt>
<trkpt lat="34.952351" lon="135.768858"><ele>28</ele></trkpt>
<trkpt lat="34.951754" lon="135.768727"><ele>28</ele></trkpt>
<trkpt lat="34.950122" lon="135.768370"><ele>28</ele></trkpt>
<trkpt lat="34.949537" lon="135.768156"><ele>29</ele></trkpt>
<trkpt lat="34.948969" lon="135.767983"><ele>30</ele></trkpt>
<trkpt lat="34.948383" lon="135.767788"><ele>29</ele></trkpt>
<trkpt lat="34.947484" lon="135.767483"><ele>29</ele></trkpt>
<trkpt lat="34.946298" lon="135.766958"><ele>28</ele></trkpt>
<trkpt lat="34.945833" lon="135.766467"><ele>26</ele></trkpt>
<trkpt lat="34.945866" lon="135.765813"><ele>25</ele></trkpt>
<trkpt lat="34.946042" lon="135.764925"><ele>24</ele></trkpt>
<trkpt lat="34.945510" lon="135.764787"><ele>24</ele></trkpt>
<trkpt lat="34.944734" lon="135.764659"><ele>23</ele></trkpt>
<trkpt lat="34.944187" lon="135.764570"><ele>23</ele></trkpt>
<trkpt lat="34.943181" lon="135.764430"><ele>24</ele></trkpt>
<trkpt lat="34.942548" lon="135.764361"><ele>25</ele></trkpt>
<trkpt lat="34.941181" lon="135.764232"><ele>26</ele></trkpt>
<trkpt lat="34.939837" lon="135.764179"><ele>27</ele></trkpt>
<trkpt lat="34.938728" lon="135.764153"><ele>28</ele></trkpt>
<trkpt lat="34.937570" lon="135.764113"><ele>28</ele></trkpt>
<trkpt lat="34.937008" lon="135.764100"><ele>27</ele></trkpt>
<trkpt lat="34.936425" lon="135.764087"><ele>26</ele></trkpt>
<trkpt lat="34.935297" lon="135.764044"><ele>26</ele></trkpt>
<trkpt lat="34.934170" lon="135.764046"><ele>24</ele></trkpt>
<trkpt lat="34.933500" lon="135.764040"><ele>23</ele></trkpt>
<trkpt lat="34.932993" lon="135.763276"><ele>22</ele></trkpt>
<trkpt lat="34.932992" lon="135.762167"><ele>21</ele></trkpt>
<trkpt lat="34.932986" lon="135.760937"><ele>20</ele></trkpt>
<trkpt lat="34.932284" lon="135.760930"><ele>19</ele></trkpt>
<trkpt lat="34.931430" lon="135.760914"><ele>18</ele></trkpt>
<trkpt lat="34.930826" lon="135.760929"><ele>18</ele></trkpt>
<trkpt lat="34.930861" lon="135.761876"><ele>18</ele></trkpt>
<trkpt lat="34.929901" lon="135.761906"><ele>17</ele></trkpt>
<trkpt lat="34.929239" lon="135.761910"><ele>17</ele></trkpt>
<trkpt lat="34.928437" lon="135.761922"><ele>17</ele></trkpt>
<trkpt lat="34.927980" lon="135.762279"><ele>17</ele></trkpt>
<trkpt lat="34.927630" lon="135.763147"><ele>17</ele></trkpt>
<trkpt lat="34.927395" lon="135.764134"><ele>17</ele></trkpt>
<trkpt lat="34.927369" lon="135.765155"><ele>17</ele></trkpt>
<trkpt lat="34.927420" lon="135.765875"><ele>17</ele></trkpt>
<trkpt lat="34.927600" lon="135.766814"><ele>17</ele></trkpt>
<trkpt lat="34.927702" lon="135.767445"><ele>16</ele></trkpt>
<trkpt lat="34.927880" lon="135.768054"><ele>16</ele></trkpt>
<trkpt lat="34.926311" lon="135.768861"><ele>16</ele></trkpt>
<trkpt lat="34.925791" lon="135.768481"><ele>15</ele></trkpt>
<trkpt lat="34.925299" lon="135.768068"><ele>15</ele></trkpt>
<trkpt lat="34.924551" lon="135.767940"><ele>15</ele></trkpt>
<trkpt lat="34.923915" lon="135.768000"><ele>15</ele></trkpt>
<trkpt lat="34.923257" lon="135.768199"><ele>15</ele></trkpt>
<trkpt lat="34.922073" lon="135.768321"><ele>14</ele></trkpt>
<trkpt lat="34.921381" lon="135.768345"><ele>14</ele></trkpt>
<trkpt lat="34.920303" lon="135.768291"><ele>13</ele></trkpt>
<trkpt lat="34.919549" lon="135.768307"><ele>13</ele></trkpt>
<trkpt lat="34.918928" lon="135.768319"><ele>12</ele></trkpt>
<trkpt lat="34.917851" lon="135.768345"><ele>12</ele></trkpt>
<trkpt lat="34.917231" lon="135.768475"><ele>12</ele></trkpt>
<trkpt lat="34.916709" lon="135.768670"><ele>12</ele></trkpt>
<trkpt lat="34.916029" lon="135.769029"><ele>12</ele></trkpt>
<trkpt lat="34.914601" lon="135.769972"><ele>12</ele></trkpt>
<trkpt lat="34.913325" lon="135.770889"><ele>11</ele></trkpt>
<trkpt lat="34.912505" lon="135.771448"><ele>12</ele></trkpt>
<trkpt lat="34.911584" lon="135.772075"><ele>11</ele></trkpt>
<trkpt lat="34.910671" lon="135.772697"><ele>11</ele></trkpt>
<trkpt lat="34.910133" lon="135.773046"><ele>11</ele></trkpt>
<trkpt lat="34.909561" lon="135.773439"><ele>12</ele></trkpt>
<trkpt lat="34.908660" lon="135.774053"><ele>12</ele></trkpt>
<trkpt lat="34.908112" lon="135.774540"><ele>11</ele></trkpt>
<trkpt lat="34.907618" lon="135.774954"><ele>11</ele></trkpt>
<trkpt lat="34.906720" lon="135.775677"><ele>11</ele></trkpt>
<trkpt lat="34.905899" lon="135.776372"><ele>11</ele></trkpt>
<trkpt lat="34.906244" lon="135.777061"><ele>11</ele></trkpt>
<trkpt lat="34.906606" lon="135.777786"><ele>11</ele></trkpt>
<trkpt lat="34.906943" lon="135.778566"><ele>12</ele></trkpt>
<trkpt lat="34.906603" lon="135.779103"><ele>12</ele></trkpt>
<trkpt lat="34.906096" lon="135.779619"><ele>12</ele></trkpt>
<trkpt lat="34.905570" lon="135.780027"><ele>12</ele></trkpt>
<trkpt lat="34.904840" lon="135.780593"><ele>13</ele></trkpt>
<trkpt lat="34.904365" lon="135.780941"><ele>13</ele></trkpt>
<trkpt lat="34.903216" lon="135.782180"><ele>13</ele></trkpt>
<trkpt lat="34.902806" lon="135.782848"><ele>13</ele></trkpt>
<trkpt lat="34.902634" lon="135.783621"><ele>13</ele></trkpt>
<trkpt lat="34.902055" lon="135.785176"><ele>12</ele></trkpt>
<trkpt lat="34.901758" lon="135.786057"><ele>12</ele></trkpt>
<trkpt lat="34.901660" lon="135.786942"><ele>11</ele></trkpt>
<trkpt lat="34.901559" lon="135.787694"><ele>12</ele></trkpt>
<trkpt lat="34.901424" lon="135.788728"><ele>11</ele></trkpt>
<trkpt lat="34.901328" lon="135.789463"><ele>12</ele></trkpt>
<trkpt lat="34.901112" lon="135.790280"><ele>12</ele></trkpt>
<trkpt lat="34.900818" lon="135.790904"><ele>12</ele></trkpt>
<trkpt lat="34.900648" lon="135.792165"><ele>12</ele></trkpt>
<trkpt lat="34.900501" lon="135.793474"><ele>12</ele></trkpt>
<trkpt lat="34.900456" lon="135.794288"><ele>12</ele></trkpt>
<trkpt lat="34.900407" lon="135.795359"><ele>12</ele></trkpt>
<trkpt lat="34.900387" lon="135.796356"><ele>13</ele></trkpt>
<trkpt lat="34.900376" lon="135.797436"><ele>13</ele></trkpt>
<trkpt lat="34.899724" lon="135.797746"><ele>14</ele></trkpt>
<trkpt lat="34.898542" lon="135.798277"><ele>15</ele></trkpt>
<trkpt lat="34.897830" lon="135.798634"><ele>16</ele></trkpt>
<trkpt lat="34.897128" lon="135.798960"><ele>16</ele></trkpt>
<trkpt lat="34.896216" lon="135.799384"><ele>17</ele></trkpt>
<trkpt lat="34.895989" lon="135.800370"><ele>17</ele></trkpt>
<trkpt lat="34.895966" lon="135.801175"><ele>16</ele></trkpt>
<trkpt lat="34.895857" lon="135.801942"><ele>15</ele></trkpt>
<trkpt lat="34.895265" lon="135.802513"><ele>15</ele></trkpt>
<trkpt lat="34.894726" lon="135.803117"><ele>15</ele></trkpt>
<trkpt lat="34.894306" lon="135.803570"><ele>15</ele></trkpt>
<trkpt lat="34.893742" lon="135.803607"><ele>16</ele></trkpt>
<trkpt lat="34.893202" lon="135.803752"><ele>17</ele></trkpt>
<trkpt lat="34.892703" lon="135.804112"><ele>17</ele></trkpt>
<trkpt lat="34.892290" lon="135.804614"><ele>17</ele></trkpt>
<trkpt lat="34.892451" lon="135.805265"><ele>17</ele></trkpt>
<trkpt lat="34.892058" lon="135.805704"><ele>18</ele></trkpt>
<trkpt lat="34.891682" lon="135.806082"><ele>18</ele></trkpt>
<trkpt lat="34.890876" lon="135.806593"><ele>19</ele></trkpt>
<trkpt lat="34.890345" lon="135.806985"><ele>20</ele></trkpt>
<trkpt lat="34.890054" lon="135.807545"><ele>21</ele></trkpt>
<trkpt lat="34.889534" lon="135.807646"><ele>20</ele></trkpt>
<trkpt lat="34.890054" lon="135.807545"><ele>21</ele></trkpt>
<trkpt lat="34.890345" lon="135.806985"><ele>20</ele></trkpt>
<trkpt lat="34.890876" lon="135.806593"><ele>19</ele></trkpt>
<trkpt lat="34.891476" lon="135.806225"><ele>18</ele></trkpt>
<trkpt lat="34.891979" lon="135.805880"><ele>18</ele></trkpt>
<trkpt lat="34.892490" lon="135.805439"><ele>17</ele></trkpt>
<trkpt lat="34.892335" lon="135.804802"><ele>17</ele></trkpt>
<trkpt lat="34.892536" lon="135.804134"><ele>17</ele></trkpt>
<trkpt lat="34.893202" lon="135.803752"><ele>17</ele></trkpt>
<trkpt lat="34.893742" lon="135.803607"><ele>16</ele></trkpt>
<trkpt lat="34.894306" lon="135.803570"><ele>15</ele></trkpt>
<trkpt lat="34.894726" lon="135.803117"><ele>15</ele></trkpt>
<trkpt lat="34.895139" lon="135.802620"><ele>15</ele></trkpt>
<trkpt lat="34.895672" lon="135.802242"><ele>15</ele></trkpt>
<trkpt lat="34.896146" lon="135.801541"><ele>16</ele></trkpt>
<trkpt lat="34.895922" lon="135.800935"><ele>16</ele></trkpt>
<trkpt lat="34.896152" lon="135.799551"><ele>17</ele></trkpt>
<trkpt lat="34.896870" lon="135.799080"><ele>16</ele></trkpt>
<trkpt lat="34.897830" lon="135.798634"><ele>16</ele></trkpt>
<trkpt lat="34.898494" lon="135.798296"><ele>15</ele></trkpt>
<trkpt lat="34.899414" lon="135.797879"><ele>14</ele></trkpt>
<trkpt lat="34.900376" lon="135.797436"><ele>14</ele></trkpt>
<trkpt lat="34.900387" lon="135.796356"><ele>13</ele></trkpt>
<trkpt lat="34.900407" lon="135.795359"><ele>12</ele></trkpt>
<trkpt lat="34.900456" lon="135.794288"><ele>12</ele></trkpt>
<trkpt lat="34.900501" lon="135.793474"><ele>12</ele></trkpt>
<trkpt lat="34.900648" lon="135.792165"><ele>12</ele></trkpt>
<trkpt lat="34.900789" lon="135.791085"><ele>12</ele></trkpt>
<trkpt lat="34.901112" lon="135.790280"><ele>12</ele></trkpt>
<trkpt lat="34.901328" lon="135.789463"><ele>12</ele></trkpt>
<trkpt lat="34.901424" lon="135.788728"><ele>11</ele></trkpt>
<trkpt lat="34.901548" lon="135.787780"><ele>12</ele></trkpt>
<trkpt lat="34.901660" lon="135.786942"><ele>11</ele></trkpt>
<trkpt lat="34.901758" lon="135.786057"><ele>12</ele></trkpt>
<trkpt lat="34.901985" lon="135.785295"><ele>12</ele></trkpt>
<trkpt lat="34.902634" lon="135.783621"><ele>13</ele></trkpt>
<trkpt lat="34.902806" lon="135.782848"><ele>13</ele></trkpt>
<trkpt lat="34.903094" lon="135.782289"><ele>13</ele></trkpt>
<trkpt lat="34.904247" lon="135.781059"><ele>13</ele></trkpt>
<trkpt lat="34.904717" lon="135.780719"><ele>13</ele></trkpt>
<trkpt lat="34.905570" lon="135.780027"><ele>12</ele></trkpt>
<trkpt lat="34.906096" lon="135.779619"><ele>12</ele></trkpt>
<trkpt lat="34.906603" lon="135.779103"><ele>12</ele></trkpt>
<trkpt lat="34.906958" lon="135.778613"><ele>12</ele></trkpt>
<trkpt lat="34.906606" lon="135.777786"><ele>11</ele></trkpt>
<trkpt lat="34.906244" lon="135.777061"><ele>11</ele></trkpt>
<trkpt lat="34.905899" lon="135.776372"><ele>11</ele></trkpt>
<trkpt lat="34.906720" lon="135.775677"><ele>11</ele></trkpt>
<trkpt lat="34.907618" lon="135.774954"><ele>11</ele></trkpt>
<trkpt lat="34.908112" lon="135.774540"><ele>11</ele></trkpt>
<trkpt lat="34.908660" lon="135.774053"><ele>12</ele></trkpt>
<trkpt lat="34.909325" lon="135.773597"><ele>12</ele></trkpt>
<trkpt lat="34.910133" lon="135.773046"><ele>11</ele></trkpt>
<trkpt lat="34.910671" lon="135.772697"><ele>11</ele></trkpt>
<trkpt lat="34.911584" lon="135.772075"><ele>11</ele></trkpt>
<trkpt lat="34.912060" lon="135.771751"><ele>11</ele></trkpt>
<trkpt lat="34.913325" lon="135.770889"><ele>11</ele></trkpt>
<trkpt lat="34.914155" lon="135.770287"><ele>11</ele></trkpt>
<trkpt lat="34.915686" lon="135.769250"><ele>11</ele></trkpt>
<trkpt lat="34.916227" lon="135.768912"><ele>12</ele></trkpt>
<trkpt lat="34.917231" lon="135.768475"><ele>12</ele></trkpt>
<trkpt lat="34.917831" lon="135.768346"><ele>12</ele></trkpt>
<trkpt lat="34.918928" lon="135.768319"><ele>12</ele></trkpt>
<trkpt lat="34.919549" lon="135.768307"><ele>13</ele></trkpt>
<trkpt lat="34.920145" lon="135.768295"><ele>13</ele></trkpt>
<trkpt lat="34.921020" lon="135.768323"><ele>14</ele></trkpt>
<trkpt lat="34.921697" lon="135.768345"><ele>14</ele></trkpt>
<trkpt lat="34.922769" lon="135.768256"><ele>15</ele></trkpt>
<trkpt lat="34.923732" lon="135.768068"><ele>15</ele></trkpt>
<trkpt lat="34.924387" lon="135.767942"><ele>15</ele></trkpt>
<trkpt lat="34.925026" lon="135.767990"><ele>15</ele></trkpt>
<trkpt lat="34.925688" lon="135.768382"><ele>15</ele></trkpt>
<trkpt lat="34.926173" lon="135.768926"><ele>16</ele></trkpt>
<trkpt lat="34.927793" lon="135.768111"><ele>16</ele></trkpt>
<trkpt lat="34.927702" lon="135.767445"><ele>16</ele></trkpt>
<trkpt lat="34.927600" lon="135.766814"><ele>17</ele></trkpt>
<trkpt lat="34.927583" lon="135.766028"><ele>17</ele></trkpt>
<trkpt lat="34.927147" lon="135.765097"><ele>17</ele></trkpt>
<trkpt lat="34.927145" lon="135.763996"><ele>16</ele></trkpt>
<trkpt lat="34.927334" lon="135.763152"><ele>16</ele></trkpt>
<trkpt lat="34.927649" lon="135.762370"><ele>16</ele></trkpt>
<trkpt lat="34.928026" lon="135.761680"><ele>16</ele></trkpt>
<trkpt lat="34.928675" lon="135.761220"><ele>16</ele></trkpt>
<trkpt lat="34.928622" lon="135.759945"><ele>16</ele></trkpt>
<trkpt lat="34.928628" lon="135.758800"><ele>16</ele></trkpt>
<trkpt lat="34.929238" lon="135.758811"><ele>16</ele></trkpt>
<trkpt lat="34.929883" lon="135.758831"><ele>15</ele></trkpt>
<trkpt lat="34.929897" lon="135.757699"><ele>15</ele></trkpt>
<trkpt lat="34.929908" lon="135.757025"><ele>15</ele></trkpt>
<trkpt lat="34.929910" lon="135.756067"><ele>15</ele></trkpt>
<trkpt lat="34.929194" lon="135.755808"><ele>15</ele></trkpt>
<trkpt lat="34.929722" lon="135.755801"><ele>15</ele></trkpt>
<trkpt lat="34.929913" lon="135.756626"><ele>15</ele></trkpt>
<trkpt lat="34.929903" lon="135.757340"><ele>15</ele></trkpt>
<trkpt lat="34.929884" lon="135.758759"><ele>15</ele></trkpt>
<trkpt lat="34.930375" lon="135.758841"><ele>16</ele></trkpt>
<trkpt lat="34.930793" lon="135.759930"><ele>17</ele></trkpt>
<trkpt lat="34.930818" lon="135.760800"><ele>18</ele></trkpt>
<trkpt lat="34.931430" lon="135.760914"><ele>19</ele></trkpt>
<trkpt lat="34.932284" lon="135.760930"><ele>19</ele></trkpt>
<trkpt lat="34.932943" lon="135.760927"><ele>20</ele></trkpt>
<trkpt lat="34.932988" lon="135.761582"><ele>21</ele></trkpt>
<trkpt lat="34.932993" lon="135.763276"><ele>22</ele></trkpt>
<trkpt lat="34.932994" lon="135.764037"><ele>23</ele></trkpt>
<trkpt lat="34.934170" lon="135.764046"><ele>24</ele></trkpt>
<trkpt lat="34.935297" lon="135.764044"><ele>26</ele></trkpt>
<trkpt lat="34.936425" lon="135.764087"><ele>26</ele></trkpt>
<trkpt lat="34.937008" lon="135.764100"><ele>27</ele></trkpt>
<trkpt lat="34.937570" lon="135.764113"><ele>28</ele></trkpt>
<trkpt lat="34.938728" lon="135.764153"><ele>28</ele></trkpt>
<trkpt lat="34.939837" lon="135.764179"><ele>27</ele></trkpt>
<trkpt lat="34.941017" lon="135.764218"><ele>26</ele></trkpt>
<trkpt lat="34.942136" lon="135.764317"><ele>25</ele></trkpt>
<trkpt lat="34.943181" lon="135.764430"><ele>24</ele></trkpt>
<trkpt lat="34.944187" lon="135.764570"><ele>24</ele></trkpt>
<trkpt lat="34.944734" lon="135.764659"><ele>23</ele></trkpt>
<trkpt lat="34.945335" lon="135.764773"><ele>24</ele></trkpt>
<trkpt lat="34.946042" lon="135.764925"><ele>24</ele></trkpt>
<trkpt lat="34.945866" lon="135.765813"><ele>25</ele></trkpt>
<trkpt lat="34.945833" lon="135.766467"><ele>26</ele></trkpt>
<trkpt lat="34.946298" lon="135.766958"><ele>28</ele></trkpt>
<trkpt lat="34.947255" lon="135.767394"><ele>28</ele></trkpt>
<trkpt lat="34.947865" lon="135.767616"><ele>29</ele></trkpt>
<trkpt lat="34.948494" lon="135.767820"><ele>30</ele></trkpt>
<trkpt lat="34.949250" lon="135.768072"><ele>29</ele></trkpt>
<trkpt lat="34.950122" lon="135.768370"><ele>29</ele></trkpt>
<trkpt lat="34.951483" lon="135.768668"><ele>28</ele></trkpt>
<trkpt lat="34.952026" lon="135.768787"><ele>28</ele></trkpt>
<trkpt lat="34.952292" lon="135.769333"><ele>28</ele></trkpt>
<trkpt lat="34.952199" lon="135.770140"><ele>29</ele></trkpt>
<trkpt lat="34.952101" lon="135.770891"><ele>30</ele></trkpt>
<trkpt lat="34.952872" lon="135.771113"><ele>32</ele></trkpt>
<trkpt lat="34.953473" lon="135.771230"><ele>32</ele></trkpt>
<trkpt lat="34.954203" lon="135.771246"><ele>32</ele></trkpt>
<trkpt lat="34.955094" lon="135.771244"><ele>32</ele></trkpt>
<trkpt lat="34.955991" lon="135.771238"><ele>33</ele></trkpt>
<trkpt lat="34.956726" lon="135.771229"><ele>32</ele></trkpt>
<trkpt lat="34.957721" lon="135.771205"><ele>32</ele></trkpt>
<trkpt lat="34.958596" lon="135.771201"><ele>32</ele></trkpt>
<trkpt lat="34.959180" lon="135.771202"><ele>31</ele></trkpt>
<trkpt lat="34.959885" lon="135.771191"><ele>31</ele></trkpt>
<trkpt lat="34.960455" lon="135.771178"><ele>31</ele></trkpt>
<trkpt lat="34.961134" lon="135.771172"><ele>32</ele></trkpt>
<trkpt lat="34.962102" lon="135.771149"><ele>32</ele></trkpt>
<trkpt lat="34.962920" lon="135.771120"><ele>32</ele></trkpt>
<trkpt lat="34.963508" lon="135.771105"><ele>32</ele></trkpt>
<trkpt lat="34.964506" lon="135.771082"><ele>33</ele></trkpt>
<trkpt lat="34.965771" lon="135.771030"><ele>33</ele></trkpt>
<trkpt lat="34.966338" lon="135.770977"><ele>33</ele></trkpt>
<trkpt lat="34.967047" lon="135.770945"><ele>34</ele></trkpt>
<trkpt lat="34.967880" lon="135.770946"><ele>34</ele></trkpt>
<trkpt lat="34.969215" lon="135.770947"><ele>35</ele></trkpt>
<trkpt lat="34.969996" lon="135.770964"><ele>35</ele></trkpt>
<trkpt lat="34.970621" lon="135.770919"><ele>36</ele></trkpt>
<trkpt lat="34.971216" lon="135.770899"><ele>36</ele></trkpt>
<trkpt lat="34.971950" lon="135.770873"><ele>36</ele></trkpt>
<trkpt lat="34.972510" lon="135.770853"><ele>36</ele></trkpt>
<trkpt lat="34.973084" lon="135.770815"><ele>36</ele></trkpt>
<trkpt lat="34.973907" lon="135.770810"><ele>36</ele></trkpt>
<trkpt lat="34.974747" lon="135.770798"><ele>36</ele></trkpt>
<trkpt lat="34.975384" lon="135.770809"><ele>37</ele></trkpt>
<trkpt lat="34.976104" lon="135.770819"><ele>37</ele></trkpt>
<trkpt lat="34.976705" lon="135.770795"><ele>38</ele></trkpt>
<trkpt lat="34.977637" lon="135.770726"><ele>37</ele></trkpt>
<trkpt lat="34.978559" lon="135.770668"><ele>37</ele></trkpt>
<trkpt lat="34.979168" lon="135.770580"><ele>36</ele></trkpt>
<trkpt lat="34.979766" lon="135.770537"><ele>36</ele></trkpt>
<trkpt lat="34.980512" lon="135.770445"><ele>36</ele></trkpt>
<trkpt lat="34.981266" lon="135.770418"><ele>36</ele></trkpt>
<trkpt lat="34.982016" lon="135.770421"><ele>36</ele></trkpt>
<trkpt lat="34.982582" lon="135.770398"><ele>36</ele></trkpt>
<trkpt lat="34.983270" lon="135.770368"><ele>35</ele></trkpt>
<trkpt lat="34.983542" lon="135.769794"><ele>34</ele></trkpt>
<trkpt lat="34.984671" lon="135.769630"><ele>33</ele></trkpt>
<trkpt lat="34.985289" lon="135.769594"><ele>32</ele></trkpt>
<trkpt lat="34.986183" lon="135.769439"><ele>33</ele></trkpt>
<trkpt lat="34.986814" lon="135.769718"><ele>34</ele></trkpt>
<trkpt lat="34.986886" lon="135.770431"><ele>36</ele></trkpt>
<trkpt lat="34.986871" lon="135.771094"><ele>37</ele></trkpt>
<trkpt lat="34.987666" lon="135.771145"><ele>38</ele></trkpt>
<trkpt lat="34.988677" lon="135.771214"><ele>38</ele></trkpt>
<trkpt lat="34.989235" lon="135.771197"><ele>38</ele></trkpt>
<trkpt lat="34.990054" lon="135.771208"><ele>38</ele></trkpt>
<trkpt lat="34.990609" lon="135.771228"><ele>38</ele></trkpt>
<trkpt lat="34.991405" lon="135.771133"><ele>39</ele></trkpt>
<trkpt lat="34.992028" lon="135.771267"><ele>39</ele></trkpt>
<trkpt lat="34.992854" lon="135.771491"><ele>39</ele></trkpt>
<trkpt lat="34.993549" lon="135.771612"><ele>39</ele></trkpt>
<trkpt lat="34.994444" lon="135.771715"><ele>39</ele></trkpt>
<trkpt lat="34.995026" lon="135.771762"><ele>39</ele></trkpt>
<trkpt lat="34.995694" lon="135.771818"><ele>39</ele></trkpt>
<trkpt lat="34.996974" lon="135.771950"><ele>39</ele></trkpt>
<trkpt lat="34.997800" lon="135.772030"><ele>39</ele></trkpt>
<trkpt lat="34.998475" lon="135.772075"><ele>39</ele></trkpt>
<trkpt lat="34.999126" lon="135.772136"><ele>39</ele></trkpt>
<trkpt lat="34.999751" lon="135.772234"><ele>39</ele></trkpt>
<trkpt lat="35.000442" lon="135.772403"><ele>39</ele></trkpt>
<trkpt lat="35.001035" lon="135.772530"><ele>40</ele></trkpt>
<trkpt lat="35.001769" lon="135.772678"><ele>40</ele></trkpt>
<trkpt lat="35.001631" lon="135.773428"><ele>41</ele></trkpt>
<trkpt lat="35.001526" lon="135.774205"><ele>41</ele></trkpt>
<trkpt lat="35.001745" lon="135.774667"><ele>42</ele></trkpt>
<trkpt lat="35.002448" lon="135.774821"><ele>42</ele></trkpt>
<trkpt lat="35.003082" lon="135.774960"><ele>43</ele></trkpt>
<trkpt lat="35.002998" lon="135.775824"><ele>45</ele></trkpt>
<trkpt lat="35.002787" lon="135.776574"><ele>47</ele></trkpt>
<trkpt lat="35.002713" lon="135.777215"><ele>50</ele></trkpt>
<trkpt lat="35.002721" lon="135.778085"><ele>54</ele></trkpt>
<trkpt lat="35.002767" lon="135.778948"><ele>58</ele></trkpt>
<trkpt lat="35.002952" lon="135.779719"><ele>61</ele></trkpt>
<trkpt lat="35.002917" lon="135.780625"><ele>62</ele></trkpt>
<trkpt lat="35.003497" lon="135.780513"><ele>62</ele></trkpt>
<trkpt lat="35.004104" lon="135.780641"><ele>61</ele></trkpt>
<trkpt lat="35.004587" lon="135.781048"><ele>59</ele></trkpt>
<trkpt lat="35.004932" lon="135.781087"><ele>58</ele></trkpt>
<trkpt lat="35.004948" lon="135.780987"><ele>58</ele></trkpt>
</trkseg></trk>
</gpx>
