<?xml version="1.0" encoding="UTF-8"?>
<gpx version="1.1" creator="Japonya Bisiklet Turu" xmlns="http://www.topografix.com/GPX/1/1">
<wpt lat="35.019800" lon="135.741500"><name>Guesthouse Makuya</name></wpt>
<wpt lat="35.030100" lon="135.769600"><name>Demachi Futaba</name></wpt>
<wpt lat="35.065500" lon="135.799500"><name>Yase</name></wpt>
<wpt lat="35.111500" lon="135.827700"><name>Ohara Sato no Eki</name></wpt>
<wpt lat="35.119700" lon="135.834000"><name>Sanzen-in</name></wpt>
<wpt lat="35.065500" lon="135.799500"><name>Yase (dönüş)</name></wpt>
<wpt lat="35.019800" lon="135.741500"><name>Guesthouse Makuya</name></wpt>
<trk><name>Gün 5 · Kyoto – Ohara</name><trkseg>
<trkpt lat="35.019796" lon="135.741554"><ele>52</ele></trkpt>
<trkpt lat="35.020141" lon="135.742582"><ele>51</ele></trkpt>
<trkpt lat="35.020108" lon="135.743755"><ele>51</ele></trkpt>
<trkpt lat="35.020088" lon="135.744811"><ele>51</ele></trkpt>
<trkpt lat="35.020070" lon="135.746107"><ele>50</ele></trkpt>
<trkpt lat="35.020043" lon="135.747022"><ele>50</ele></trkpt>
<trkpt lat="35.020033" lon="135.747749"><ele>49</ele></trkpt>
<trkpt lat="35.020008" lon="135.749059"><ele>49</ele></trkpt>
<trkpt lat="35.019997" lon="135.749840"><ele>48</ele></trkpt>
<trkpt lat="35.019982" lon="135.750554"><ele>48</ele></trkpt>
<trkpt lat="35.019965" lon="135.751636"><ele>48</ele></trkpt>
<trkpt lat="35.019982" lon="135.752751"><ele>48</ele></trkpt>
<trkpt lat="35.019978" lon="135.753458"><ele>48</ele></trkpt>
<trkpt lat="35.020581" lon="135.753474"><ele>49</ele></trkpt>
<trkpt lat="35.021230" lon="135.753485"><ele>50</ele></trkpt>
<trkpt lat="35.022539" lon="135.753506"><ele>51</ele></trkpt>
<trkpt lat="35.023117" lon="135.753508"><ele>52</ele></trkpt>
<trkpt lat="35.023799" lon="135.753509"><ele>52</ele></trkpt>
<trkpt lat="35.024782" lon="135.753509"><ele>53</ele></trkpt>
<trkpt lat="35.025657" lon="135.753508"><ele>54</ele></trkpt>
<trkpt lat="35.026220" lon="135.753506"><ele>55</ele></trkpt>
<trkpt lat="35.027133" lon="135.753493"><ele>56</ele></trkpt>
<trkpt lat="35.027937" lon="135.753473"><ele>57</ele></trkpt>
<trkpt lat="35.028547" lon="135.753458"><ele>57</ele></trkpt>
<trkpt lat="35.029264" lon="135.753431"><ele>58</ele></trkpt>
<trkpt lat="35.029693" lon="135.754180"><ele>59</ele></trkpt>
<trkpt lat="35.029692" lon="135.754914"><ele>59</ele></trkpt>
<trkpt lat="35.029421" lon="135.755939"><ele>60</ele></trkpt>
<trkpt lat="35.029139" lon="135.756964"><ele>60</ele></trkpt>
<trkpt lat="35.029078" lon="135.757856"><ele>60</ele></trkpt>
<trkpt lat="35.029078" lon="135.758821"><ele>61</ele></trkpt>
<trkpt lat="35.029103" lon="135.759616"><ele>60</ele></trkpt>
<trkpt lat="35.029105" lon="135.760907"><ele>60</ele></trkpt>
<trkpt lat="35.029129" lon="135.762175"><ele>60</ele></trkpt>
<trkpt lat="35.029162" lon="135.764263"><ele>60</ele></trkpt>
<trkpt lat="35.029198" lon="135.766428"><ele>59</ele></trkpt>
<trkpt lat="35.029203" lon="135.767275"><ele>59</ele></trkpt>
<trkpt lat="35.029202" lon="135.768061"><ele>59</ele></trkpt>
<trkpt lat="35.029188" lon="135.769099"><ele>58</ele></trkpt>
<trkpt lat="35.030282" lon="135.769104"><ele>58</ele></trkpt>
<trkpt lat="35.030098" lon="135.769683"><ele>57</ele></trkpt>
<trkpt lat="35.030375" lon="135.770082"><ele>56</ele></trkpt>
<trkpt lat="35.030237" lon="135.770539"><ele>54</ele></trkpt>
<trkpt lat="35.030560" lon="135.771528"><ele>54</ele></trkpt>
<trkpt lat="35.030395" lon="135.772575"><ele>53</ele></trkpt>
<trkpt lat="35.030840" lon="135.772889"><ele>53</ele></trkpt>
<trkpt lat="35.032107" lon="135.773722"><ele>55</ele></trkpt>
<trkpt lat="35.032796" lon="135.774147"><ele>56</ele></trkpt>
<trkpt lat="35.033518" lon="135.774563"><ele>57</ele></trkpt>
<trkpt lat="35.034088" lon="135.774881"><ele>57</ele></trkpt>
<trkpt lat="35.034879" lon="135.775310"><ele>58</ele></trkpt>
<trkpt lat="35.034912" lon="135.776163"><ele>58</ele></trkpt>
<trkpt lat="35.035437" lon="135.776723"><ele>59</ele></trkpt>
<trkpt lat="35.035942" lon="135.777133"><ele>60</ele></trkpt>
<trkpt lat="35.036457" lon="135.777477"><ele>60</ele></trkpt>
<trkpt lat="35.037278" lon="135.777983"><ele>61</ele></trkpt>
<trkpt lat="35.037740" lon="135.778332"><ele>62</ele></trkpt>
<trkpt lat="35.038419" lon="135.778811"><ele>63</ele></trkpt>
<trkpt lat="35.038996" lon="135.779172"><ele>64</ele></trkpt>
<trkpt lat="35.039722" lon="135.779628"><ele>65</ele></trkpt>
<trkpt lat="35.040431" lon="135.780048"><ele>66</ele></trkpt>
<trkpt lat="35.041127" lon="135.780551"><ele>67</ele></trkpt>
<trkpt lat="35.041634" lon="135.780942"><ele>67</ele></trkpt>
<trkpt lat="35.042100" lon="135.781289"><ele>68</ele></trkpt>
<trkpt lat="35.042657" lon="135.781888"><ele>68</ele></trkpt>
<trkpt lat="35.043079" lon="135.782298"><ele>68</ele></trkpt>
<trkpt lat="35.043583" lon="135.782759"><ele>69</ele></trkpt>
<trkpt lat="35.044117" lon="135.783182"><ele>69</ele></trkpt>
<trkpt lat="35.044608" lon="135.783559"><ele>70</ele></trkpt>
<trkpt lat="35.045099" lon="135.784022"><ele>71</ele></trkpt>
<trkpt lat="35.045586" lon="135.784505"><ele>71</ele></trkpt>
<trkpt lat="35.046061" lon="135.785025"><ele>72</ele></trkpt>
<trkpt lat="35.046483" lon="135.785452"><ele>72</ele></trkpt>
<trkpt lat="35.047187" lon="135.786060"><ele>72</ele></trkpt>
<trkpt lat="35.047744" lon="135.786678"><ele>73</ele></trkpt>
<trkpt lat="35.048187" lon="135.787199"><ele>73</ele></trkpt>
<trkpt lat="35.048619" lon="135.787654"><ele>73</ele></trkpt>
<trkpt lat="35.049149" lon="135.788172"><ele>74</ele></trkpt>
<trkpt lat="35.049646" lon="135.788723"><ele>74</ele></trkpt>
<trkpt lat="35.050102" lon="135.789215"><ele>75</ele></trkpt>
<trkpt lat="35.050800" lon="135.789942"><ele>77</ele></trkpt>
<trkpt lat="35.051200" lon="135.790933"><ele>78</ele></trkpt>
<trkpt lat="35.051323" lon="135.791608"><ele>80</ele></trkpt>
<trkpt lat="35.051566" lon="135.792263"><ele>82</ele></trkpt>
<trkpt lat="35.052083" lon="135.792531"><ele>83</ele></trkpt>
<trkpt lat="35.052797" lon="135.792599"><ele>83</ele></trkpt>
<trkpt lat="35.053386" lon="135.792543"><ele>83</ele></trkpt>
<trkpt lat="35.053965" lon="135.792477"><ele>83</ele></trkpt>
<trkpt lat="35.054561" lon="135.792367"><ele>82</ele></trkpt>
<trkpt lat="35.055201" lon="135.792279"><ele>82</ele></trkpt>
<trkpt lat="35.055650" lon="135.792295"><ele>82</ele></trkpt>
<trkpt lat="35.056213" lon="135.792247"><ele>82</ele></trkpt>
<trkpt lat="35.056990" lon="135.792404"><ele>83</ele></trkpt>
<trkpt lat="35.057604" lon="135.792460"><ele>85</ele></trkpt>
<trkpt lat="35.058368" lon="135.792594"><ele>87</ele></trkpt>
<trkpt lat="35.058954" lon="135.792664"><ele>89</ele></trkpt>
<trkpt lat="35.059584" lon="135.792812"><ele>91</ele></trkpt>
<trkpt lat="35.060171" lon="135.792921"><ele>92</ele></trkpt>
<trkpt lat="35.060659" lon="135.793190"><ele>93</ele></trkpt>
<trkpt lat="35.060865" lon="135.793924"><ele>93</ele></trkpt>
<trkpt lat="35.061393" lon="135.794287"><ele>92</ele></trkpt>
<trkpt lat="35.061985" lon="135.794466"><ele>92</ele></trkpt>
<trkpt lat="35.062466" lon="135.794778"><ele>92</ele></trkpt>
<trkpt lat="35.062846" lon="135.795345"><ele>92</ele></trkpt>
<trkpt lat="35.063058" lon="135.796093"><ele>94</ele></trkpt>
<trkpt lat="35.062686" lon="135.796575"><ele>96</ele></trkpt>
<trkpt lat="35.062445" lon="135.797251"><ele>98</ele></trkpt>
<trkpt lat="35.062542" lon="135.798022"><ele>100</ele></trkpt>
<trkpt lat="35.062635" lon="135.798696"><ele>102</ele></trkpt>
<trkpt lat="35.063016" lon="135.798710"><ele>103</ele></trkpt>
<trkpt lat="35.063442" lon="135.799008"><ele>103</ele></trkpt>
<trkpt lat="35.063616" lon="135.799640"><ele>106</ele></trkpt>
<trkpt lat="35.063815" lon="135.800532"><ele>112</ele></trkpt>
<trkpt lat="35.064578" lon="135.800548"><ele>115</ele></trkpt>
<trkpt lat="35.065205" lon="135.800588"><ele>115</ele></trkpt>
<trkpt lat="35.064578" lon="135.800548"><ele>115</ele></trkpt>
<trkpt lat="35.064004" lon="135.800533"><ele>112</ele></trkpt>
<trkpt lat="35.063946" lon="135.801500"><ele>110</ele></trkpt>
<trkpt lat="35.064120" lon="135.802214"><ele>111</ele></trkpt>
<trkpt lat="35.064390" lon="135.803089"><ele>116</ele></trkpt>
<trkpt lat="35.064625" lon="135.803920"><ele>121</ele></trkpt>
<trkpt lat="35.065174" lon="135.804698"><ele>125</ele></trkpt>
<trkpt lat="35.065479" lon="135.805281"><ele>128</ele></trkpt>
<trkpt lat="35.065726" lon="135.805803"><ele>130</ele></trkpt>
<trkpt lat="35.066032" lon="135.806416"><ele>132</ele></trkpt>
<trkpt lat="35.066211" lon="135.807098"><ele>137</ele></trkpt>
<trkpt lat="35.066649" lon="135.807726"><ele>140</ele></trkpt>
<trkpt lat="35.067263" lon="135.807982"><ele>140</ele></trkpt>
<trkpt lat="35.067828" lon="135.808777"><ele>141</ele></trkpt>
<trkpt lat="35.068256" lon="135.809700"><ele>141</ele></trkpt>
<trkpt lat="35.068761" lon="135.810279"><ele>139</ele></trkpt>
<trkpt lat="35.069374" lon="135.810548"><ele>140</ele></trkpt>
<trkpt lat="35.070036" lon="135.810790"><ele>142</ele></trkpt>
<trkpt lat="35.070664" lon="135.810694"><ele>142</ele></trkpt>
<trkpt lat="35.071212" lon="135.810257"><ele>141</ele></trkpt>
<trkpt lat="35.071722" lon="135.810021"><ele>140</ele></trkpt>
<trkpt lat="35.072339" lon="135.810323"><ele>139</ele></trkpt>
<trkpt lat="35.072992" lon="135.810700"><ele>138</ele></trkpt>
<trkpt lat="35.073478" lon="135.811437"><ele>137</ele></trkpt>
<trkpt lat="35.073815" lon="135.812223"><ele>138</ele></trkpt>
<trkpt lat="35.074047" lon="135.812892"><ele>139</ele></trkpt>
<trkpt lat="35.074519" lon="135.813469"><ele>144</ele></trkpt>
<trkpt lat="35.075122" lon="135.813955"><ele>149</ele></trkpt>
<trkpt lat="35.075942" lon="135.814596"><ele>151</ele></trkpt>
<trkpt lat="35.076476" lon="135.815321"><ele>156</ele></trkpt>
<trkpt lat="35.076909" lon="135.815870"><ele>158</ele></trkpt>
<trkpt lat="35.077523" lon="135.816106"><ele>156</ele></trkpt>
<trkpt lat="35.078027" lon="135.816655"><ele>154</ele></trkpt>
<trkpt lat="35.078531" lon="135.817033"><ele>154</ele></trkpt>
<trkpt lat="35.078975" lon="135.817439"><ele>152</ele></trkpt>
<trkpt lat="35.079706" lon="135.817722"><ele>150</ele></trkpt>
<trkpt lat="35.080196" lon="135.818177"><ele>149</ele></trkpt>
<trkpt lat="35.080857" lon="135.818395"><ele>148</ele></trkpt>
<trkpt lat="35.081317" lon="135.818062"><ele>148</ele></trkpt>
<trkpt lat="35.081881" lon="135.818412"><ele>148</ele></trkpt>
<trkpt lat="35.082515" lon="135.818290"><ele>150</ele></trkpt>
<trkpt lat="35.083338" lon="135.818274"><ele>151</ele></trkpt>
<trkpt lat="35.083976" lon="135.818169"><ele>154</ele></trkpt>
<trkpt lat="35.084779" lon="135.818362"><ele>156</ele></trkpt>
<trkpt lat="35.085806" lon="135.818879"><ele>159</ele></trkpt>
<trkpt lat="35.086485" lon="135.819434"><ele>161</ele></trkpt>
<trkpt lat="35.086612" lon="135.820036"><ele>163</ele></trkpt>
<trkpt lat="35.086761" lon="135.820621"><ele>164</ele></trkpt>
<trkpt lat="35.087411" lon="135.820997"><ele>169</ele></trkpt>
<trkpt lat="35.087855" lon="135.821437"><ele>171</ele></trkpt>
<trkpt lat="35.087882" lon="135.822089"><ele>174</ele></trkpt>
<trkpt lat="35.088402" lon="135.822126"><ele>177</ele></trkpt>
<trkpt lat="35.088985" lon="135.822504"><ele>182</ele></trkpt>
<trkpt lat="35.089567" lon="135.822598"><ele>182</ele></trkpt>
<trkpt lat="35.090273" lon="135.822978"><ele>182</ele></trkpt>
<trkpt lat="35.090968" lon="135.823018"><ele>183</ele></trkpt>
<trkpt lat="35.091509" lon="135.822700"><ele>184</ele></trkpt>
<trkpt lat="35.092163" lon="135.821986"><ele>187</ele></trkpt>
<trkpt lat="35.092748" lon="135.821555"><ele>191</ele></trkpt>
<trkpt lat="35.094128" lon="135.821435"><ele>196</ele></trkpt>
<trkpt lat="35.094622" lon="135.821198"><ele>200</ele></trkpt>
<trkpt lat="35.094997" lon="135.820703"><ele>203</ele></trkpt>
<trkpt lat="35.095696" lon="135.820373"><ele>203</ele></trkpt>
<trkpt lat="35.096585" lon="135.820336"><ele>204</ele></trkpt>
<trkpt lat="35.097402" lon="135.821331"><ele>204</ele></trkpt>
<trkpt lat="35.097854" lon="135.821820"><ele>203</ele></trkpt>
<trkpt lat="35.098559" lon="135.822291"><ele>201</ele></trkpt>
<trkpt lat="35.098917" lon="135.822873"><ele>199</ele></trkpt>
<trkpt lat="35.099223" lon="135.823568"><ele>197</ele></trkpt>
<trkpt lat="35.100035" lon="135.824061"><ele>199</ele></trkpt>
<trkpt lat="35.102105" lon="135.824234"><ele>200</ele></trkpt>
<trkpt lat="35.102589" lon="135.823745"><ele>201</ele></trkpt>
<trkpt lat="35.103121" lon="135.823473"><ele>202</ele></trkpt>
<trkpt lat="35.104192" lon="135.823140"><ele>202</ele></trkpt>
<trkpt lat="35.105646" lon="135.822622"><ele>200</ele></trkpt>
<trkpt lat="35.106446" lon="135.822333"><ele>199</ele></trkpt>
<trkpt lat="35.107036" lon="135.821992"><ele>200</ele></trkpt>
<trkpt lat="35.107348" lon="135.821372"><ele>202</ele></trkpt>
<trkpt lat="35.107854" lon="135.821022"><ele>203</ele></trkpt>
<trkpt lat="35.108421" lon="135.820979"><ele>204</ele></trkpt>
<trkpt lat="35.109058" lon="135.820989"><ele>206</ele></trkpt>
<trkpt lat="35.109825" lon="135.821026"><ele>207</ele></trkpt>
<trkpt lat="35.110379" lon="135.820956"><ele>208</ele></trkpt>
<trkpt lat="35.111018" lon="135.820952"><ele>210</ele></trkpt>
<trkpt lat="35.111897" lon="135.820972"><ele>211</ele></trkpt>
<trkpt lat="35.112569" lon="135.821509"><ele>212</ele></trkpt>
<trkpt lat="35.113784" lon="135.822192"><ele>212</ele></trkpt>
<trkpt lat="35.113810" lon="135.823450"><ele>212</ele></trkpt>
<trkpt lat="35.113502" lon="135.824247"><ele>213</ele></trkpt>
<trkpt lat="35.113110" lon="135.824909"><ele>214</ele></trkpt>
<trkpt lat="35.112780" lon="135.825741"><ele>219</ele></trkpt>
<trkpt lat="35.113131" lon="135.826222"><ele>226</ele></trkpt>
<trkpt lat="35.113178" lon="135.826855"><ele>232</ele></trkpt>
<trkpt lat="35.112706" lon="135.827276"><ele>238</ele></trkpt>
<trkpt lat="35.112013" lon="135.827289"><ele>242</ele></trkpt>
<trkpt lat="35.111547" lon="135.827571"><ele>243</ele></trkpt>
<trkpt lat="35.111802" lon="135.827350"><ele>243</ele></trkpt>
<trkpt lat="35.112482" lon="135.827211"><ele>244</ele></trkpt>
<trkpt lat="35.113118" lon="135.827345"><ele>244</ele></trkpt>
<trkpt lat="35.113344" lon="135.827948"><ele>243</ele></trkpt>
<trkpt lat="35.113884" lon="135.827993"><ele>240</ele></trkpt>
<trkpt lat="35.114435" lon="135.827820"><ele>238</ele></trkpt>
<trkpt lat="35.115078" lon="135.827942"><ele>235</ele></trkpt>
<trkpt lat="35.116053" lon="135.828421"><ele>233</ele></trkpt>
<trkpt lat="35.116574" lon="135.828631"><ele>234</ele></trkpt>
<trkpt lat="35.117025" lon="135.828997"><ele>239</ele></trkpt>
<trkpt lat="35.116837" lon="135.829709"><ele>245</ele></trkpt>
<trkpt lat="35.116594" lon="135.830424"><ele>251</ele></trkpt>
<trkpt lat="35.116656" lon="135.831141"><ele>257</ele></trkpt>
<trkpt lat="35.117281" lon="135.831641"><ele>263</ele></trkpt>
<trkpt lat="35.117750" lon="135.832110"><ele>267</ele></trkpt>
<trkpt lat="35.117952" lon="135.832729"><ele>270</ele></trkpt>
<trkpt lat="35.118443" lon="135.833318"><ele>272</ele></trkpt>
<trkpt lat="35.118980" lon="135.833630"><ele>273</ele></trkpt>
<trkpt lat="35.119702" lon="135.833981"><ele>272</ele></trkpt>
<trkpt lat="35.120199" lon="135.834160"><ele>268</ele></trkpt>
<trkpt lat="35.120313" lon="135.833618"><ele>264</ele></trkpt>
<trkpt lat="35.120536" lon="135.832792"><ele>258</ele></trkpt>
<trkpt lat="35.120255" lon="135.832214"><ele>252</ele></trkpt>
<trkpt lat="35.120535" lon="135.831503"><ele>246</ele></trkpt>
<trkpt lat="35.120215" lon="135.831126"><ele>241</ele></trkpt>
<trkpt lat="35.120340" lon="135.830343"><ele>236</ele></trkpt>
<trkpt lat="35.119958" lon="135.829704"><ele>232</ele></trkpt>
<trkpt lat="35.119842" lon="135.829369"><ele>228</ele></trkpt>
<trkpt lat="35.119869" lon="135.828698"><ele>226</ele></trkpt>
<trkpt lat="35.119782" lon="135.827801"><ele>225</ele></trkpt>
<trkpt lat="35.119907" lon="135.827186"><ele>224</ele></trkpt>
<trkpt lat="35.119197" lon="135.826701"><ele>224</ele></trkpt>
<trkpt lat="35.118598" lon="135.826338"><ele>225</ele></trkpt>
<trkpt lat="35.118211" lon="135.825268"><ele>225</ele></trkpt>
<trkpt lat="35.117720" lon="135.824550"><ele>223</ele></trkpt>
<trkpt lat="35.117133" lon="135.823972"><ele>222</ele></trkpt>
<trkpt lat="35.115715" lon="135.823472"><ele>220</ele></trkpt>
<trkpt lat="35.114947" lon="135.823228"><ele>217</ele></trkpt>
<trkpt lat="35.114428" lon="135.822633"><ele>215</ele></trkpt>
<trkpt lat="35.113784" lon="135.822192"><ele>214</ele></trkpt>
<trkpt lat="35.112866" lon="135.821797"><ele>213</ele></trkpt>
<trkpt lat="35.112325" lon="135.821214"><ele>212</ele></trkpt>
<trkpt lat="35.111359" lon="135.820934"><ele>210</ele></trkpt>
<trkpt lat="35.110379" lon="135.820956"><ele>208</ele></trkpt>
<trkpt lat="35.109825" lon="135.821026"><ele>207</ele></trkpt>
<trkpt lat="35.109142" lon="135.820984"><ele>206</ele></trkpt>
<trkpt lat="35.108421" lon="135.820979"><ele>204</ele></trkpt>
<trkpt lat="35.107854" lon="135.821022"><ele>203</ele></trkpt>
<trkpt lat="35.107348" lon="135.821372"><ele>202</ele></trkpt>
<trkpt lat="35.107036" lon="135.821992"><ele>200</ele></trkpt>
<trkpt lat="35.106446" lon="135.822333"><ele>199</ele></trkpt>
<trkpt lat="35.105646" lon="135.822622"><ele>198</ele></trkpt>
<trkpt lat="35.104192" lon="135.823140"><ele>200</ele></trkpt>
<trkpt lat="35.103325" lon="135.823449"><ele>202</ele></trkpt>
<trkpt lat="35.102681" lon="135.823692"><ele>201</ele></trkpt>
<trkpt lat="35.102209" lon="135.824055"><ele>200</ele></trkpt>
<trkpt lat="35.100332" lon="135.824137"><ele>199</ele></trkpt>
<trkpt lat="35.099595" lon="135.823896"><ele>197</ele></trkpt>
<trkpt lat="35.099134" lon="135.823430"><ele>197</ele></trkpt>
<trkpt lat="35.098740" lon="135.822521"><ele>199</ele></trkpt>
<trkpt lat="35.098219" lon="135.822045"><ele>202</ele></trkpt>
<trkpt lat="35.097586" lon="135.821553"><ele>203</ele></trkpt>
<trkpt lat="35.097003" lon="135.820580"><ele>204</ele></trkpt>
<trkpt lat="35.095877" lon="135.820341"><ele>204</ele></trkpt>
<trkpt lat="35.095120" lon="135.820622"><ele>204</ele></trkpt>
<trkpt lat="35.094622" lon="135.821198"><ele>201</ele></trkpt>
<trkpt lat="35.094128" lon="135.821435"><ele>197</ele></trkpt>
<trkpt lat="35.093004" lon="135.821480"><ele>192</ele></trkpt>
<trkpt lat="35.092396" lon="135.821770"><ele>187</ele></trkpt>
<trkpt lat="35.091878" lon="135.822328"><ele>183</ele></trkpt>
<trkpt lat="35.091399" lon="135.822786"><ele>182</ele></trkpt>
<trkpt lat="35.090743" lon="135.823064"><ele>181</ele></trkpt>
<trkpt lat="35.089762" lon="135.822680"><ele>181</ele></trkpt>
<trkpt lat="35.088985" lon="135.822504"><ele>182</ele></trkpt>
<trkpt lat="35.088402" lon="135.822126"><ele>179</ele></trkpt>
<trkpt lat="35.087992" lon="135.822217"><ele>175</ele></trkpt>
<trkpt lat="35.087681" lon="135.821669"><ele>172</ele></trkpt>
<trkpt lat="35.087490" lon="135.821012"><ele>170</ele></trkpt>
<trkpt lat="35.086761" lon="135.820621"><ele>165</ele></trkpt>
<trkpt lat="35.086612" lon="135.820036"><ele>163</ele></trkpt>
<trkpt lat="35.086509" lon="135.819472"><ele>161</ele></trkpt>
<trkpt lat="35.085806" lon="135.818879"><ele>159</ele></trkpt>
<trkpt lat="35.084779" lon="135.818362"><ele>156</ele></trkpt>
<trkpt lat="35.084225" lon="135.818070"><ele>154</ele></trkpt>
<trkpt lat="35.083547" lon="135.818301"><ele>151</ele></trkpt>
<trkpt lat="35.082907" lon="135.818263"><ele>150</ele></trkpt>
<trkpt lat="35.082153" lon="135.818371"><ele>149</ele></trkpt>
<trkpt lat="35.081473" lon="135.818020"><ele>148</ele></trkpt>
<trkpt lat="35.080857" lon="135.818395"><ele>148</ele></trkpt>
<trkpt lat="35.080285" lon="135.818242"><ele>148</ele></trkpt>
<trkpt lat="35.079780" lon="135.817772"><ele>149</ele></trkpt>
<trkpt lat="35.079099" lon="135.817506"><ele>151</ele></trkpt>
<trkpt lat="35.078612" lon="135.817146"><ele>154</ele></trkpt>
<trkpt lat="35.078027" lon="135.816655"><ele>153</ele></trkpt>
<trkpt lat="35.077523" lon="135.816106"><ele>156</ele></trkpt>
<trkpt lat="35.076909" lon="135.815870"><ele>158</ele></trkpt>
<trkpt lat="35.076476" lon="135.815321"><ele>156</ele></trkpt>
<trkpt lat="35.075942" lon="135.814596"><ele>152</ele></trkpt>
<trkpt lat="35.075303" lon="135.814102"><ele>150</ele></trkpt>
<trkpt lat="35.074519" lon="135.813469"><ele>145</ele></trkpt>
<trkpt lat="35.074047" lon="135.812892"><ele>140</ele></trkpt>
<trkpt lat="35.073815" lon="135.812223"><ele>138</ele></trkpt>
<trkpt lat="35.073521" lon="135.811527"><ele>137</ele></trkpt>
<trkpt lat="35.073076" lon="135.810807"><ele>138</ele></trkpt>
<trkpt lat="35.072339" lon="135.810323"><ele>139</ele></trkpt>
<trkpt lat="35.071722" lon="135.810021"><ele>140</ele></trkpt>
<trkpt lat="35.071212" lon="135.810257"><ele>141</ele></trkpt>
<trkpt lat="35.070664" lon="135.810694"><ele>142</ele></trkpt>
<trkpt lat="35.070036" lon="135.810790"><ele>142</ele></trkpt>
<trkpt lat="35.069374" lon="135.810548"><ele>140</ele></trkpt>
<trkpt lat="35.068761" lon="135.810279"><ele>139</ele></trkpt>
<trkpt lat="35.068256" lon="135.809700"><ele>141</ele></trkpt>
<trkpt lat="35.067828" lon="135.808777"><ele>141</ele></trkpt>
<trkpt lat="35.067263" lon="135.807982"><ele>140</ele></trkpt>
<trkpt lat="35.066649" lon="135.807726"><ele>140</ele></trkpt>
<trkpt lat="35.066211" lon="135.807098"><ele>137</ele></trkpt>
<trkpt lat="35.066032" lon="135.806416"><ele>132</ele></trkpt>
<trkpt lat="35.065726" lon="135.805803"><ele>130</ele></trkpt>
<trkpt lat="35.065479" lon="135.805281"><ele>128</ele></trkpt>
<trkpt lat="35.065174" lon="135.804698"><ele>125</ele></trkpt>
<trkpt lat="35.064766" lon="135.804183"><ele>122</ele></trkpt>
<trkpt lat="35.064411" lon="135.803163"><ele>117</ele></trkpt>
<trkpt lat="35.064120" lon="135.802214"><ele>112</ele></trkpt>
<trkpt lat="35.063946" lon="135.801500"><ele>110</ele></trkpt>
<trkpt lat="35.063815" lon="135.800532"><ele>112</ele></trkpt>
<trkpt lat="35.064578" lon="135.800548"><ele>115</ele></trkpt>
<trkpt lat="35.065205" lon="135.800588"><ele>115</ele></trkpt>
<trkpt lat="35.064578" lon="135.800548"><ele>115</ele></trkpt>
<trkpt lat="35.064004" lon="135.800533"><ele>112</ele></trkpt>
<trkpt lat="35.063666" lon="135.799935"><ele>106</ele></trkpt>
<trkpt lat="35.063536" lon="135.798995"><ele>103</ele></trkpt>
<trkpt lat="35.063150" lon="135.798692"><ele>103</ele></trkpt>
<trkpt lat="35.062693" lon="135.798919"><ele>102</ele></trkpt>
<trkpt lat="35.062542" lon="135.798022"><ele>100</ele></trkpt>
<trkpt lat="35.062456" lon="135.797366"><ele>99</ele></trkpt>
<trkpt lat="35.062612" lon="135.796698"><ele>96</ele></trkpt>
<trkpt lat="35.063097" lon="135.796214"><ele>94</ele></trkpt>
<trkpt lat="35.062846" lon="135.795345"><ele>93</ele></trkpt>
<trkpt lat="35.062466" lon="135.794778"><ele>92</ele></trkpt>
<trkpt lat="35.061985" lon="135.794466"><ele>92</ele></trkpt>
<trkpt lat="35.061393" lon="135.794287"><ele>92</ele></trkpt>
<trkpt lat="35.060865" lon="135.793924"><ele>93</ele></trkpt>
<trkpt lat="35.060659" lon="135.793190"><ele>93</ele></trkpt>
<trkpt lat="35.060171" lon="135.792921"><ele>92</ele></trkpt>
<trkpt lat="35.059659" lon="135.792851"><ele>91</ele></trkpt>
<trkpt lat="35.058954" lon="135.792664"><ele>89</ele></trkpt>
<trkpt lat="35.058368" lon="135.792594"><ele>87</ele></trkpt>
<trkpt lat="35.057704" lon="135.792477"><ele>85</ele></trkpt>
<trkpt lat="35.057122" lon="135.792427"><ele>83</ele></trkpt>
<trkpt lat="35.056573" lon="135.792317"><ele>82</ele></trkpt>
<trkpt lat="35.055972" lon="135.792203"><ele>82</ele></trkpt>
<trkpt lat="35.055365" lon="135.792426"><ele>82</ele></trkpt>
<trkpt lat="35.054520" lon="135.792561"><ele>83</ele></trkpt>
<trkpt lat="35.053982" lon="135.792561"><ele>83</ele></trkpt>
<trkpt lat="35.053389" lon="135.792623"><ele>83</ele></trkpt>
<trkpt lat="35.052835" lon="135.792685"><ele>83</ele></trkpt>
<trkpt lat="35.051840" lon="135.792572"><ele>82</ele></trkpt>
<trkpt lat="35.051401" lon="135.791902"><ele>81</ele></trkpt>
<trkpt lat="35.051208" lon="135.790984"><ele>79</ele></trkpt>
<trkpt lat="35.051080" lon="135.790207"><ele>77</ele></trkpt>
<trkpt lat="35.050236" lon="135.789394"><ele>76</ele></trkpt>
<trkpt lat="35.049784" lon="135.788865"><ele>74</ele></trkpt>
<trkpt lat="35.049271" lon="135.788307"><ele>74</ele></trkpt>
<trkpt lat="35.048619" lon="135.787654"><ele>73</ele></trkpt>
<trkpt lat="35.048187" lon="135.787199"><ele>73</ele></trkpt>
<trkpt lat="35.047744" lon="135.786678"><ele>73</ele></trkpt>
<trkpt lat="35.047275" lon="135.786162"><ele>72</ele></trkpt>
<trkpt lat="35.046719" lon="135.785656"><ele>72</ele></trkpt>
<trkpt lat="35.046061" lon="135.785025"><ele>72</ele></trkpt>
<trkpt lat="35.045586" lon="135.784505"><ele>71</ele></trkpt>
<trkpt lat="35.045099" lon="135.784022"><ele>71</ele></trkpt>
<trkpt lat="35.044638" lon="135.783585"><ele>70</ele></trkpt>
<trkpt lat="35.044160" lon="135.783217"><ele>69</ele></trkpt>
<trkpt lat="35.043583" lon="135.782759"><ele>69</ele></trkpt>
<trkpt lat="35.043115" lon="135.782331"><ele>68</ele></trkpt>
<trkpt lat="35.042657" lon="135.781888"><ele>68</ele></trkpt>
<trkpt lat="35.042100" lon="135.781289"><ele>68</ele></trkpt>
<trkpt lat="35.041634" lon="135.780942"><ele>67</ele></trkpt>
<trkpt lat="35.041127" lon="135.780551"><ele>67</ele></trkpt>
<trkpt lat="35.040431" lon="135.780048"><ele>66</ele></trkpt>
<trkpt lat="35.039866" lon="135.779717"><ele>65</ele></trkpt>
<trkpt lat="35.038996" lon="135.779172"><ele>64</ele></trkpt>
<trkpt lat="35.038419" lon="135.778811"><ele>63</ele></trkpt>
<trkpt lat="35.037793" lon="135.778371"><ele>62</ele></trkpt>
<trkpt lat="35.037278" lon="135.777983"><ele>61</ele></trkpt>
<trkpt lat="35.036457" lon="135.777477"><ele>60</ele></trkpt>
<trkpt lat="35.035942" lon="135.777133"><ele>60</ele></trkpt>
<trkpt lat="35.035437" lon="135.776723"><ele>59</ele></trkpt>
<trkpt lat="35.034901" lon="135.776218"><ele>58</ele></trkpt>
<trkpt lat="35.034941" lon="135.775562"><ele>58</ele></trkpt>
<trkpt lat="35.034476" lon="135.775109"><ele>57</ele></trkpt>
<trkpt lat="35.033916" lon="135.774789"><ele>57</ele></trkpt>
<trkpt lat="35.032796" lon="135.774147"><ele>56</ele></trkpt>
<trkpt lat="35.032253" lon="135.773817"><ele>55</ele></trkpt>
<trkpt lat="35.030954" lon="135.772977"><ele>54</ele></trkpt>
<trkpt lat="35.030357" lon="135.772752"><ele>53</ele></trkpt>
<trkpt lat="35.029730" lon="135.772597"><ele>54</ele></trkpt>
<trkpt lat="35.029054" lon="135.772530"><ele>54</ele></trkpt>
<trkpt lat="35.029050" lon="135.770781"><ele>55</ele></trkpt>
<trkpt lat="35.029084" lon="135.769970"><ele>56</ele></trkpt>
<trkpt lat="35.029126" lon="135.768638"><ele>58</ele></trkpt>
<trkpt lat="35.029150" lon="135.767917"><ele>58</ele></trkpt>
<trkpt lat="35.029153" lon="135.766924"><ele>59</ele></trkpt>
<trkpt lat="35.029107" lon="135.764264"><ele>59</ele></trkpt>
<trkpt lat="35.029075" lon="135.762439"><ele>60</ele></trkpt>
<trkpt lat="35.029055" lon="135.759615"><ele>60</ele></trkpt>
<trkpt lat="35.029078" lon="135.758821"><ele>60</ele></trkpt>
<trkpt lat="35.029078" lon="135.758053"><ele>60</ele></trkpt>
<trkpt lat="35.029076" lon="135.757247"><ele>60</ele></trkpt>
<trkpt lat="35.029356" lon="135.756178"><ele>60</ele></trkpt>
<trkpt lat="35.029692" lon="135.754914"><ele>60</ele></trkpt>
<trkpt lat="35.029696" lon="135.754240"><ele>59</ele></trkpt>
<trkpt lat="35.029702" lon="135.753526"><ele>58</ele></trkpt>
<trkpt lat="35.028547" lon="135.753458"><ele>57</ele></trkpt>
<trkpt lat="35.027954" lon="135.753473"><ele>57</ele></trkpt>
<trkpt lat="35.027133" lon="135.753493"><ele>56</ele></trkpt>
<trkpt lat="35.026306" lon="135.753505"><ele>55</ele></trkpt>
<trkpt lat="35.025657" lon="135.753508"><ele>54</ele></trkpt>
<trkpt lat="35.025035" lon="135.753510"><ele>53</ele></trkpt>
<trkpt lat="35.023799" lon="135.753509"><ele>52</ele></trkpt>
<trkpt lat="35.023231" lon="135.753508"><ele>51</ele></trkpt>
<trkpt lat="35.022618" lon="135.753507"><ele>51</ele></trkpt>
<trkpt lat="35.021230" lon="135.753485"><ele>50</ele></trkpt>
<trkpt lat="35.020581" lon="135.753474"><ele>49</ele></trkpt>
<trkpt lat="35.020024" lon="135.753463"><ele>48</ele></trkpt>
<trkpt lat="35.019982" lon="135.752751"><ele>48</ele></trkpt>
<trkpt lat="35.019985" lon="135.752052"><ele>48</ele></trkpt>
<trkpt lat="35.019968" lon="135.751207"><ele>48</ele></trkpt>
<trkpt lat="35.019997" lon="135.749840"><ele>48</ele></trkpt>
<trkpt lat="35.020008" lon="135.749059"><ele>49</ele></trkpt>
<trkpt lat="35.020033" lon="135.747749"><ele>49</ele></trkpt>
<trkpt lat="35.020043" lon="135.747022"><ele>50</ele></trkpt>
<trkpt lat="35.020070" lon="135.746107"><ele>50</ele></trkpt>
<trkpt lat="35.020088" lon="135.744811"><ele>51</ele></trkpt>
<trkpt lat="35.020106" lon="135.743789"><ele>51</ele></trkpt>
<trkpt lat="35.020127" lon="135.743079"><ele>51</ele></trkpt>
<trkpt lat="35.020174" lon="135.741581"><ele>52</ele></trkpt>
<trkpt lat="35.019796" lon="135.741554"><ele>52</ele></trkpt>
</trkseg></trk>
</gpx>
