<?xml version="1.0" encoding="UTF-8"?>
<gpx version="1.1" creator="Japonya Bisiklet Turu" xmlns="http://www.topografix.com/GPX/1/1">
<wpt lat="35.118000" lon="135.821000"><name>Ohara no Sato</name></wpt>
<wpt lat="35.116200" lon="135.771500"><name>Kurama-dera</name></wpt>
<wpt lat="35.125900" lon="135.777300"><name>Kurama Onsen</name></wpt>
<wpt lat="35.120500" lon="135.763000"><name>Kibune Fujiya</name></wpt>
<trk><name>Gün 6 · Ohara – Kurama – Kibune</name><trkseg>
<trkpt lat="35.116052" lon="135.821416"><ele>231</ele></trkpt>
<trkpt lat="35.115744" lon="135.821943"><ele>229</ele></trkpt>
<trkpt lat="35.115029" lon="135.821419"><ele>226</ele></trkpt>
<trkpt lat="35.114445" lon="135.821330"><ele>221</ele></trkpt>
<trkpt lat="35.114183" lon="135.822092"><ele>219</ele></trkpt>
<trkpt lat="35.113784" lon="135.822192"><ele>216</ele></trkpt>
<trkpt lat="35.112866" lon="135.821797"><ele>214</ele></trkpt>
<trkpt lat="35.112325" lon="135.821214"><ele>212</ele></trkpt>
<trkpt lat="35.111359" lon="135.820934"><ele>210</ele></trkpt>
<trkpt lat="35.110379" lon="135.820956"><ele>208</ele></trkpt>
<trkpt lat="35.109825" lon="135.821026"><ele>207</ele></trkpt>
<trkpt lat="35.109142" lon="135.820984"><ele>207</ele></trkpt>
<trkpt lat="35.108885" lon="135.820732"><ele>210</ele></trkpt>
<trkpt lat="35.108862" lon="135.819739"><ele>213</ele></trkpt>
<trkpt lat="35.108839" lon="135.819030"><ele>219</ele></trkpt>
<trkpt lat="35.109191" lon="135.818411"><ele>224</ele></trkpt>
<trkpt lat="35.109394" lon="135.817694"><ele>227</ele></trkpt>
<trkpt lat="35.109618" lon="135.816763"><ele>231</ele></trkpt>
<trkpt lat="35.109947" lon="135.815982"><ele>236</ele></trkpt>
<trkpt lat="35.110414" lon="135.815160"><ele>239</ele></trkpt>
<trkpt lat="35.111021" lon="135.814478"><ele>245</ele></trkpt>
<trkpt lat="35.111376" lon="135.813991"><ele>253</ele></trkpt>
<trkpt lat="35.111350" lon="135.813063"><ele>260</ele></trkpt>
<trkpt lat="35.111190" lon="135.812433"><ele>265</ele></trkpt>
<trkpt lat="35.111045" lon="135.811768"><ele>274</ele></trkpt>
<trkpt lat="35.110830" lon="135.811137"><ele>282</ele></trkpt>
<trkpt lat="35.110973" lon="135.810407"><ele>290</ele></trkpt>
<trkpt lat="35.111252" lon="135.810475"><ele>299</ele></trkpt>
<trkpt lat="35.111344" lon="135.810207"><ele>307</ele></trkpt>
<trkpt lat="35.111496" lon="135.809572"><ele>311</ele></trkpt>
<trkpt lat="35.111655" lon="135.808424"><ele>314</ele></trkpt>
<trkpt lat="35.111506" lon="135.807613"><ele>308</ele></trkpt>
<trkpt lat="35.111168" lon="135.806893"><ele>299</ele></trkpt>
<trkpt lat="35.110684" lon="135.805284"><ele>289</ele></trkpt>
<trkpt lat="35.110738" lon="135.804641"><ele>280</ele></trkpt>
<trkpt lat="35.111285" lon="135.804091"><ele>268</ele></trkpt>
<trkpt lat="35.111569" lon="135.803471"><ele>262</ele></trkpt>
<trkpt lat="35.110916" lon="135.801697"><ele>256</ele></trkpt>
<trkpt lat="35.110789" lon="135.801013"><ele>249</ele></trkpt>
<trkpt lat="35.111175" lon="135.799661"><ele>240</ele></trkpt>
<trkpt lat="35.111214" lon="135.798924"><ele>234</ele></trkpt>
<trkpt lat="35.110574" lon="135.798252"><ele>227</ele></trkpt>
<trkpt lat="35.110170" lon="135.797754"><ele>222</ele></trkpt>
<trkpt lat="35.109743" lon="135.796981"><ele>218</ele></trkpt>
<trkpt lat="35.109408" lon="135.796371"><ele>215</ele></trkpt>
<trkpt lat="35.109850" lon="135.796270"><ele>213</ele></trkpt>
<trkpt lat="35.109414" lon="135.794905"><ele>211</ele></trkpt>
<trkpt lat="35.109072" lon="135.794266"><ele>209</ele></trkpt>
<trkpt lat="35.109564" lon="135.793849"><ele>207</ele></trkpt>
<trkpt lat="35.109823" lon="135.793070"><ele>206</ele></trkpt>
<trkpt lat="35.109668" lon="135.792000"><ele>205</ele></trkpt>
<trkpt lat="35.109989" lon="135.790815"><ele>204</ele></trkpt>
<trkpt lat="35.110333" lon="135.789946"><ele>202</ele></trkpt>
<trkpt lat="35.110227" lon="135.788977"><ele>201</ele></trkpt>
<trkpt lat="35.110100" lon="135.788055"><ele>201</ele></trkpt>
<trkpt lat="35.109723" lon="135.787507"><ele>199</ele></trkpt>
<trkpt lat="35.109368" lon="135.786940"><ele>198</ele></trkpt>
<trkpt lat="35.109449" lon="135.786100"><ele>199</ele></trkpt>
<trkpt lat="35.109322" lon="135.785464"><ele>201</ele></trkpt>
<trkpt lat="35.109438" lon="135.784995"><ele>208</ele></trkpt>
<trkpt lat="35.109840" lon="135.784321"><ele>213</ele></trkpt>
<trkpt lat="35.110426" lon="135.783877"><ele>225</ele></trkpt>
<trkpt lat="35.110333" lon="135.783116"><ele>237</ele></trkpt>
<trkpt lat="35.110180" lon="135.781980"><ele>251</ele></trkpt>
<trkpt lat="35.110514" lon="135.781823"><ele>266</ele></trkpt>
<trkpt lat="35.110369" lon="135.781226"><ele>285</ele></trkpt>
<trkpt lat="35.110229" lon="135.780558"><ele>298</ele></trkpt>
<trkpt lat="35.110577" lon="135.780326"><ele>315</ele></trkpt>
<trkpt lat="35.110839" lon="135.780233"><ele>329</ele></trkpt>
<trkpt lat="35.111120" lon="135.779800"><ele>341</ele></trkpt>
<trkpt lat="35.111550" lon="135.779683"><ele>352</ele></trkpt>
<trkpt lat="35.111830" lon="135.779121"><ele>359</ele></trkpt>
<trkpt lat="35.112087" lon="135.778456"><ele>358</ele></trkpt>
<trkpt lat="35.112417" lon="135.777914"><ele>354</ele></trkpt>
<trkpt lat="35.112718" lon="135.777418"><ele>342</ele></trkpt>
<trkpt lat="35.112809" lon="135.776884"><ele>327</ele></trkpt>
<trkpt lat="35.113025" lon="135.776361"><ele>312</ele></trkpt>
<trkpt lat="35.113042" lon="135.775864"><ele>296</ele></trkpt>
<trkpt lat="35.113460" lon="135.775580"><ele>282</ele></trkpt>
<trkpt lat="35.113490" lon="135.775046"><ele>268</ele></trkpt>
<trkpt lat="35.113886" lon="135.774913"><ele>257</ele></trkpt>
<trkpt lat="35.114154" lon="135.774304"><ele>248</ele></trkpt>
<trkpt lat="35.114257" lon="135.773804"><ele>246</ele></trkpt>
<trkpt lat="35.113787" lon="135.773364"><ele>251</ele></trkpt>
<trkpt lat="35.114147" lon="135.773034"><ele>267</ele></trkpt>
<trkpt lat="35.114503" lon="135.772551"><ele>285</ele></trkpt>
<trkpt lat="35.115373" lon="135.772087"><ele>304</ele></trkpt>
<trkpt lat="35.115942" lon="135.771851"><ele>320</ele></trkpt>
<trkpt lat="35.116192" lon="135.771547"><ele>329</ele></trkpt>
<trkpt lat="35.116102" lon="135.771882"><ele>325</ele></trkpt>
<trkpt lat="35.115553" lon="135.771918"><ele>313</ele></trkpt>
<trkpt lat="35.114940" lon="135.772320"><ele>295</ele></trkpt>
<trkpt lat="35.114287" lon="135.772654"><ele>277</ele></trkpt>
<trkpt lat="35.113890" lon="135.773173"><ele>260</ele></trkpt>
<trkpt lat="35.114018" lon="135.773609"><ele>252</ele></trkpt>
<trkpt lat="35.115005" lon="135.774239"><ele>250</ele></trkpt>
<trkpt lat="35.116593" lon="135.775017"><ele>255</ele></trkpt>
<trkpt lat="35.117389" lon="135.775451"><ele>260</ele></trkpt>
<trkpt lat="35.117984" lon="135.775572"><ele>267</ele></trkpt>
<trkpt lat="35.118456" lon="135.775901"><ele>274</ele></trkpt>
<trkpt lat="35.119085" lon="135.776127"><ele>280</ele></trkpt>
<trkpt lat="35.119673" lon="135.775961"><ele>287</ele></trkpt>
<trkpt lat="35.120239" lon="135.775961"><ele>296</ele></trkpt>
<trkpt lat="35.120882" lon="135.775994"><ele>302</ele></trkpt>
<trkpt lat="35.121457" lon="135.776095"><ele>307</ele></trkpt>
<trkpt lat="35.122039" lon="135.776268"><ele>311</ele></trkpt>
<trkpt lat="35.122639" lon="135.776259"><ele>313</ele></trkpt>
<trkpt lat="35.123244" lon="135.776333"><ele>316</ele></trkpt>
<trkpt lat="35.123765" lon="135.776650"><ele>318</ele></trkpt>
<trkpt lat="35.124376" lon="135.776840"><ele>318</ele></trkpt>
<trkpt lat="35.124999" lon="135.777216"><ele>318</ele></trkpt>
<trkpt lat="35.125568" lon="135.777457"><ele>320</ele></trkpt>
<trkpt lat="35.125100" lon="135.777248"><ele>318</ele></trkpt>
<trkpt lat="35.124519" lon="135.776875"><ele>319</ele></trkpt>
<trkpt lat="35.123917" lon="135.776700"><ele>318</ele></trkpt>
<trkpt lat="35.123403" lon="135.776416"><ele>316</ele></trkpt>
<trkpt lat="35.122639" lon="135.776259"><ele>314</ele></trkpt>
<trkpt lat="35.122039" lon="135.776268"><ele>311</ele></trkpt>
<trkpt lat="35.121457" lon="135.776095"><ele>307</ele></trkpt>
<trkpt lat="35.120882" lon="135.775994"><ele>302</ele></trkpt>
<trkpt lat="35.120239" lon="135.775961"><ele>296</ele></trkpt>
<trkpt lat="35.119673" lon="135.775961"><ele>287</ele></trkpt>
<trkpt lat="35.119085" lon="135.776127"><ele>280</ele></trkpt>
<trkpt lat="35.118456" lon="135.775901"><ele>274</ele></trkpt>
<trkpt lat="35.117984" lon="135.775572"><ele>267</ele></trkpt>
<trkpt lat="35.117389" lon="135.775451"><ele>260</ele></trkpt>
<trkpt lat="35.116593" lon="135.775017"><ele>255</ele></trkpt>
<trkpt lat="35.115005" lon="135.774239"><ele>249</ele></trkpt>
<trkpt lat="35.114439" lon="135.773923"><ele>244</ele></trkpt>
<trkpt lat="35.113942" lon="135.773528"><ele>241</ele></trkpt>
<trkpt lat="35.113276" lon="135.773433"><ele>241</ele></trkpt>
<trkpt lat="35.112749" lon="135.772988"><ele>240</ele></trkpt>
<trkpt lat="35.112261" lon="135.772283"><ele>240</ele></trkpt>
<trkpt lat="35.111748" lon="135.771324"><ele>239</ele></trkpt>
<trkpt lat="35.111505" lon="135.770661"><ele>238</ele></trkpt>
<trkpt lat="35.111116" lon="135.769600"><ele>236</ele></trkpt>
<trkpt lat="35.110617" lon="135.768748"><ele>237</ele></trkpt>
<trkpt lat="35.109969" lon="135.768114"><ele>238</ele></trkpt>
<trkpt lat="35.109326" lon="135.767364"><ele>242</ele></trkpt>
<trkpt lat="35.108677" lon="135.766718"><ele>243</ele></trkpt>
<trkpt lat="35.108071" lon="135.766386"><ele>242</ele></trkpt>
<trkpt lat="35.107398" lon="135.766171"><ele>238</ele></trkpt>
<trkpt lat="35.106541" lon="135.765499"><ele>234</ele></trkpt>
<trkpt lat="35.106254" lon="135.764824"><ele>227</ele></trkpt>
<trkpt lat="35.106279" lon="135.764188"><ele>225</ele></trkpt>
<trkpt lat="35.106121" lon="135.763550"><ele>225</ele></trkpt>
<trkpt lat="35.106160" lon="135.762869"><ele>229</ele></trkpt>
<trkpt lat="35.106791" lon="135.762363"><ele>233</ele></trkpt>
<trkpt lat="35.107919" lon="135.762145"><ele>238</ele></trkpt>
<trkpt lat="35.108959" lon="135.761965"><ele>243</ele></trkpt>
<trkpt lat="35.109462" lon="135.761596"><ele>250</ele></trkpt>
<trkpt lat="35.109848" lon="135.761125"><ele>256</ele></trkpt>
<trkpt lat="35.110565" lon="135.760343"><ele>262</ele></trkpt>
<trkpt lat="35.111142" lon="135.760425"><ele>269</ele></trkpt>
<trkpt lat="35.112000" lon="135.760435"><ele>275</ele></trkpt>
<trkpt lat="35.112702" lon="135.760536"><ele>280</ele></trkpt>
<trkpt lat="35.113446" lon="135.760247"><ele>284</ele></trkpt>
<trkpt lat="35.114507" lon="135.760315"><ele>287</ele></trkpt>
<trkpt lat="35.115041" lon="135.760574"><ele>290</ele></trkpt>
<trkpt lat="35.115758" lon="135.760724"><ele>291</ele></trkpt>
<trkpt lat="35.116444" lon="135.760670"><ele>293</ele></trkpt>
<trkpt lat="35.117133" lon="135.761236"><ele>296</ele></trkpt>
<trkpt lat="35.117756" lon="135.761409"><ele>299</ele></trkpt>
<trkpt lat="35.118438" lon="135.761780"><ele>302</ele></trkpt>
<trkpt lat="35.118854" lon="135.762343"><ele>306</ele></trkpt>
<trkpt lat="35.119289" lon="135.762845"><ele>311</ele></trkpt>
<trkpt lat="35.119874" lon="135.762885"><ele>315</ele></trkpt>
<trkpt lat="35.120499" lon="135.762636"><ele>319</ele></trkpt>
<trkpt lat="35.120859" lon="135.762929"><ele>321</ele></trkpt>
<trkpt lat="35.120484" lon="135.762943"><ele>324</ele></trkpt>
</trkseg></trk>
</gpx>
