<?xml version="1.0" encoding="UTF-8"?>
<gpx version="1.1" creator="Japonya Bisiklet Turu" xmlns="http://www.topografix.com/GPX/1/1">
<wpt lat="35.019800" lon="135.741500"><name>Guesthouse Makuya</name></wpt>
<wpt lat="35.014000" lon="135.676500"><name>Togetsukyō</name></wpt>
<wpt lat="35.025400" lon="135.593800"><name>Farmhouse NaNa (Hozu)</name></wpt>
<trk><name>Gün 7 · Kyoto – Arashiyama – Kameoka</name><trkseg>
<trkpt lat="35.019796" lon="135.741554"><ele>51</ele></trkpt>
<trkpt lat="35.020181" lon="135.741361"><ele>51</ele></trkpt>
<trkpt lat="35.020193" lon="135.740410"><ele>51</ele></trkpt>
<trkpt lat="35.020187" lon="135.739441"><ele>50</ele></trkpt>
<trkpt lat="35.020187" lon="135.738472"><ele>50</ele></trkpt>
<trkpt lat="35.020212" lon="135.737609"><ele>50</ele></trkpt>
<trkpt lat="35.020237" lon="135.736884"><ele>50</ele></trkpt>
<trkpt lat="35.020261" lon="135.736089"><ele>51</ele></trkpt>
<trkpt lat="35.020244" lon="135.735192"><ele>51</ele></trkpt>
<trkpt lat="35.020243" lon="135.734424"><ele>51</ele></trkpt>
<trkpt lat="35.020258" lon="135.733681"><ele>51</ele></trkpt>
<trkpt lat="35.020272" lon="135.732937"><ele>51</ele></trkpt>
<trkpt lat="35.020252" lon="135.731952"><ele>50</ele></trkpt>
<trkpt lat="35.020246" lon="135.731002"><ele>49</ele></trkpt>
<trkpt lat="35.020043" lon="135.730356"><ele>48</ele></trkpt>
<trkpt lat="35.019833" lon="135.729509"><ele>48</ele></trkpt>
<trkpt lat="35.019853" lon="135.728798"><ele>48</ele></trkpt>
<trkpt lat="35.019858" lon="135.728082"><ele>48</ele></trkpt>
<trkpt lat="35.019868" lon="135.727383"><ele>49</ele></trkpt>
<trkpt lat="35.019835" lon="135.726128"><ele>49</ele></trkpt>
<trkpt lat="35.019794" lon="135.725018"><ele>49</ele></trkpt>
<trkpt lat="35.019754" lon="135.724014"><ele>48</ele></trkpt>
<trkpt lat="35.019695" lon="135.722610"><ele>48</ele></trkpt>
<trkpt lat="35.019660" lon="135.721848"><ele>47</ele></trkpt>
<trkpt lat="35.019725" lon="135.721004"><ele>47</ele></trkpt>
<trkpt lat="35.019762" lon="135.720154"><ele>46</ele></trkpt>
<trkpt lat="35.019773" lon="135.719467"><ele>45</ele></trkpt>
<trkpt lat="35.019440" lon="135.718751"><ele>44</ele></trkpt>
<trkpt lat="35.019111" lon="135.718167"><ele>43</ele></trkpt>
<trkpt lat="35.018833" lon="135.717369"><ele>43</ele></trkpt>
<trkpt lat="35.018497" lon="135.715633"><ele>43</ele></trkpt>
<trkpt lat="35.018355" lon="135.714700"><ele>44</ele></trkpt>
<trkpt lat="35.018263" lon="135.713906"><ele>45</ele></trkpt>
<trkpt lat="35.018762" lon="135.713584"><ele>45</ele></trkpt>
<trkpt lat="35.018944" lon="135.712958"><ele>46</ele></trkpt>
<trkpt lat="35.019202" lon="135.712181"><ele>47</ele></trkpt>
<trkpt lat="35.019529" lon="135.711515"><ele>47</ele></trkpt>
<trkpt lat="35.020264" lon="135.711084"><ele>47</ele></trkpt>
<trkpt lat="35.020775" lon="135.710597"><ele>48</ele></trkpt>
<trkpt lat="35.020705" lon="135.709808"><ele>49</ele></trkpt>
<trkpt lat="35.020623" lon="135.708947"><ele>50</ele></trkpt>
<trkpt lat="35.020631" lon="135.708264"><ele>51</ele></trkpt>
<trkpt lat="35.020110" lon="135.707959"><ele>51</ele></trkpt>
<trkpt lat="35.019404" lon="135.707901"><ele>51</ele></trkpt>
<trkpt lat="35.018584" lon="135.707844"><ele>50</ele></trkpt>
<trkpt lat="35.018382" lon="135.707362"><ele>49</ele></trkpt>
<trkpt lat="35.018435" lon="135.706406"><ele>48</ele></trkpt>
<trkpt lat="35.018635" lon="135.705689"><ele>48</ele></trkpt>
<trkpt lat="35.018792" lon="135.705017"><ele>49</ele></trkpt>
<trkpt lat="35.018968" lon="135.704388"><ele>49</ele></trkpt>
<trkpt lat="35.019160" lon="135.703653"><ele>50</ele></trkpt>
<trkpt lat="35.019217" lon="135.702987"><ele>50</ele></trkpt>
<trkpt lat="35.019247" lon="135.702246"><ele>50</ele></trkpt>
<trkpt lat="35.019134" lon="135.701387"><ele>50</ele></trkpt>
<trkpt lat="35.019045" lon="135.700730"><ele>49</ele></trkpt>
<trkpt lat="35.019195" lon="135.699920"><ele>49</ele></trkpt>
<trkpt lat="35.019379" lon="135.699222"><ele>48</ele></trkpt>
<trkpt lat="35.019688" lon="135.698313"><ele>46</ele></trkpt>
<trkpt lat="35.019832" lon="135.697670"><ele>45</ele></trkpt>
<trkpt lat="35.019838" lon="135.696828"><ele>44</ele></trkpt>
<trkpt lat="35.019845" lon="135.695925"><ele>43</ele></trkpt>
<trkpt lat="35.019849" lon="135.694793"><ele>41</ele></trkpt>
<trkpt lat="35.019956" lon="135.693805"><ele>40</ele></trkpt>
<trkpt lat="35.020068" lon="135.693092"><ele>39</ele></trkpt>
<trkpt lat="35.019979" lon="135.692308"><ele>38</ele></trkpt>
<trkpt lat="35.019934" lon="135.691623"><ele>38</ele></trkpt>
<trkpt lat="35.019997" lon="135.690875"><ele>38</ele></trkpt>
<trkpt lat="35.020143" lon="135.690221"><ele>38</ele></trkpt>
<trkpt lat="35.020260" lon="135.689552"><ele>38</ele></trkpt>
<trkpt lat="35.020280" lon="135.688844"><ele>38</ele></trkpt>
<trkpt lat="35.020161" lon="135.688166"><ele>38</ele></trkpt>
<trkpt lat="35.020004" lon="135.687219"><ele>38</ele></trkpt>
<trkpt lat="35.019904" lon="135.686541"><ele>39</ele></trkpt>
<trkpt lat="35.019814" lon="135.685726"><ele>39</ele></trkpt>
<trkpt lat="35.019737" lon="135.684783"><ele>40</ele></trkpt>
<trkpt lat="35.019718" lon="135.683903"><ele>40</ele></trkpt>
<trkpt lat="35.019652" lon="135.683179"><ele>41</ele></trkpt>
<trkpt lat="35.019588" lon="135.682518"><ele>41</ele></trkpt>
<trkpt lat="35.019483" lon="135.681624"><ele>41</ele></trkpt>
<trkpt lat="35.019409" lon="135.680767"><ele>42</ele></trkpt>
<trkpt lat="35.019229" lon="135.680075"><ele>42</ele></trkpt>
<trkpt lat="35.019075" lon="135.679351"><ele>42</ele></trkpt>
<trkpt lat="35.018260" lon="135.679633"><ele>41</ele></trkpt>
<trkpt lat="35.017667" lon="135.679842"><ele>41</ele></trkpt>
<trkpt lat="35.016610" lon="135.680249"><ele>40</ele></trkpt>
<trkpt lat="35.016269" lon="135.679222"><ele>40</ele></trkpt>
<trkpt lat="35.016141" lon="135.678460"><ele>39</ele></trkpt>
<trkpt lat="35.015906" lon="135.677183"><ele>38</ele></trkpt>
<trkpt lat="35.015038" lon="135.677391"><ele>38</ele></trkpt>
<trkpt lat="35.014570" lon="135.676875"><ele>36</ele></trkpt>
<trkpt lat="35.014183" lon="135.676391"><ele>34</ele></trkpt>
<trkpt lat="35.013505" lon="135.676479"><ele>33</ele></trkpt>
<trkpt lat="35.013558" lon="135.677356"><ele>33</ele></trkpt>
<trkpt lat="35.012187" lon="135.677678"><ele>34</ele></trkpt>
<trkpt lat="35.011547" lon="135.677451"><ele>37</ele></trkpt>
<trkpt lat="35.010940" lon="135.677804"><ele>38</ele></trkpt>
<trkpt lat="35.010400" lon="135.678417"><ele>40</ele></trkpt>
<trkpt lat="35.010062" lon="135.679039"><ele>40</ele></trkpt>
<trkpt lat="35.009629" lon="135.679605"><ele>39</ele></trkpt>
<trkpt lat="35.009071" lon="135.680270"><ele>38</ele></trkpt>
<trkpt lat="35.008424" lon="135.680581"><ele>37</ele></trkpt>
<trkpt lat="35.007736" lon="135.680814"><ele>38</ele></trkpt>
<trkpt lat="35.007133" lon="135.681149"><ele>38</ele></trkpt>
<trkpt lat="35.006484" lon="135.681271"><ele>38</ele></trkpt>
<trkpt lat="35.005962" lon="135.681735"><ele>38</ele></trkpt>
<trkpt lat="35.005429" lon="135.681844"><ele>38</ele></trkpt>
<trkpt lat="35.004820" lon="135.682291"><ele>37</ele></trkpt>
<trkpt lat="35.004386" lon="135.682752"><ele>39</ele></trkpt>
<trkpt lat="35.003788" lon="135.682976"><ele>41</ele></trkpt>
<trkpt lat="35.003127" lon="135.683025"><ele>41</ele></trkpt>
<trkpt lat="35.002583" lon="135.683158"><ele>43</ele></trkpt>
<trkpt lat="35.002172" lon="135.683573"><ele>43</ele></trkpt>
<trkpt lat="35.001577" lon="135.683727"><ele>42</ele></trkpt>
<trkpt lat="35.001208" lon="135.684264"><ele>40</ele></trkpt>
<trkpt lat="35.000811" lon="135.684726"><ele>38</ele></trkpt>
<trkpt lat="35.000866" lon="135.685397"><ele>36</ele></trkpt>
<trkpt lat="35.000575" lon="135.686203"><ele>36</ele></trkpt>
<trkpt lat="34.999667" lon="135.686349"><ele>36</ele></trkpt>
<trkpt lat="34.999083" lon="135.686233"><ele>37</ele></trkpt>
<trkpt lat="34.998556" lon="135.686007"><ele>40</ele></trkpt>
<trkpt lat="34.997989" lon="135.686134"><ele>42</ele></trkpt>
<trkpt lat="34.997274" lon="135.686238"><ele>42</ele></trkpt>
<trkpt lat="34.996619" lon="135.686605"><ele>42</ele></trkpt>
<trkpt lat="34.996053" lon="135.686718"><ele>41</ele></trkpt>
<trkpt lat="34.995378" lon="135.686755"><ele>40</ele></trkpt>
<trkpt lat="34.994640" lon="135.686939"><ele>43</ele></trkpt>
<trkpt lat="34.994186" lon="135.686364"><ele>45</ele></trkpt>
<trkpt lat="34.993911" lon="135.685742"><ele>47</ele></trkpt>
<trkpt lat="34.993390" lon="135.685563"><ele>48</ele></trkpt>
<trkpt lat="34.992853" lon="135.685904"><ele>50</ele></trkpt>
<trkpt lat="34.992184" lon="135.686172"><ele>49</ele></trkpt>
<trkpt lat="34.991696" lon="135.686423"><ele>49</ele></trkpt>
<trkpt lat="34.991087" lon="135.686867"><ele>49</ele></trkpt>
<trkpt lat="34.990557" lon="135.687307"><ele>48</ele></trkpt>
<trkpt lat="34.990042" lon="135.687624"><ele>45</ele></trkpt>
<trkpt lat="34.989418" lon="135.687710"><ele>42</ele></trkpt>
<trkpt lat="34.988608" lon="135.687683"><ele>41</ele></trkpt>
<trkpt lat="34.987961" lon="135.688004"><ele>39</ele></trkpt>
<trkpt lat="34.987342" lon="135.688180"><ele>38</ele></trkpt>
<trkpt lat="34.986824" lon="135.688148"><ele>38</ele></trkpt>
<trkpt lat="34.986316" lon="135.687857"><ele>38</ele></trkpt>
<trkpt lat="34.985749" lon="135.687682"><ele>39</ele></trkpt>
<trkpt lat="34.985244" lon="135.687413"><ele>42</ele></trkpt>
<trkpt lat="34.984910" lon="135.686825"><ele>46</ele></trkpt>
<trkpt lat="34.984481" lon="135.686327"><ele>51</ele></trkpt>
<trkpt lat="34.984164" lon="135.685771"><ele>56</ele></trkpt>
<trkpt lat="34.983529" lon="135.685691"><ele>60</ele></trkpt>
<trkpt lat="34.983046" lon="135.685278"><ele>65</ele></trkpt>
<trkpt lat="34.982365" lon="135.684863"><ele>71</ele></trkpt>
<trkpt lat="34.981907" lon="135.684517"><ele>79</ele></trkpt>
<trkpt lat="34.981709" lon="135.683890"><ele>85</ele></trkpt>
<trkpt lat="34.981913" lon="135.683111"><ele>93</ele></trkpt>
<trkpt lat="34.981456" lon="135.683462"><ele>100</ele></trkpt>
<trkpt lat="34.981742" lon="135.682730"><ele>107</ele></trkpt>
<trkpt lat="34.982012" lon="135.682023"><ele>113</ele></trkpt>
<trkpt lat="34.982398" lon="135.681419"><ele>122</ele></trkpt>
<trkpt lat="34.982594" lon="135.680798"><ele>128</ele></trkpt>
<trkpt lat="34.983037" lon="135.680435"><ele>133</ele></trkpt>
<trkpt lat="34.982933" lon="135.679470"><ele>137</ele></trkpt>
<trkpt lat="34.983274" lon="135.679061"><ele>139</ele></trkpt>
<trkpt lat="34.983791" lon="135.678861"><ele>142</ele></trkpt>
<trkpt lat="34.984227" lon="135.678381"><ele>146</ele></trkpt>
<trkpt lat="34.984277" lon="135.677629"><ele>149</ele></trkpt>
<trkpt lat="34.983678" lon="135.676946"><ele>153</ele></trkpt>
<trkpt lat="34.983795" lon="135.676382"><ele>155</ele></trkpt>
<trkpt lat="34.984003" lon="135.675801"><ele>156</ele></trkpt>
<trkpt lat="34.984015" lon="135.675077"><ele>157</ele></trkpt>
<trkpt lat="34.984032" lon="135.673986"><ele>157</ele></trkpt>
<trkpt lat="34.984043" lon="135.673156"><ele>156</ele></trkpt>
<trkpt lat="34.984116" lon="135.672177"><ele>154</ele></trkpt>
<trkpt lat="34.984121" lon="135.671227"><ele>154</ele></trkpt>
<trkpt lat="34.984317" lon="135.670750"><ele>154</ele></trkpt>
<trkpt lat="34.984833" lon="135.670278"><ele>155</ele></trkpt>
<trkpt lat="34.985276" lon="135.669680"><ele>156</ele></trkpt>
<trkpt lat="34.985918" lon="135.669532"><ele>157</ele></trkpt>
<trkpt lat="34.985913" lon="135.668591"><ele>158</ele></trkpt>
<trkpt lat="34.985877" lon="135.667668"><ele>158</ele></trkpt>
<trkpt lat="34.985776" lon="135.666441"><ele>158</ele></trkpt>
<trkpt lat="34.985774" lon="135.665489"><ele>159</ele></trkpt>
<trkpt lat="34.985737" lon="135.664689"><ele>160</ele></trkpt>
<trkpt lat="34.985583" lon="135.663900"><ele>162</ele></trkpt>
<trkpt lat="34.985440" lon="135.663206"><ele>166</ele></trkpt>
<trkpt lat="34.985411" lon="135.662379"><ele>168</ele></trkpt>
<trkpt lat="34.985426" lon="135.660302"><ele>170</ele></trkpt>
<trkpt lat="34.985433" lon="135.659382"><ele>171</ele></trkpt>
<trkpt lat="34.985442" lon="135.658047"><ele>171</ele></trkpt>
<trkpt lat="34.984557" lon="135.658042"><ele>169</ele></trkpt>
<trkpt lat="34.983892" lon="135.658038"><ele>167</ele></trkpt>
<trkpt lat="34.983340" lon="135.658034"><ele>163</ele></trkpt>
<trkpt lat="34.983349" lon="135.657297"><ele>159</ele></trkpt>
<trkpt lat="34.983354" lon="135.655983"><ele>154</ele></trkpt>
<trkpt lat="34.983604" lon="135.655302"><ele>149</ele></trkpt>
<trkpt lat="34.984182" lon="135.654770"><ele>145</ele></trkpt>
<trkpt lat="34.984673" lon="135.654403"><ele>142</ele></trkpt>
<trkpt lat="34.985328" lon="135.654311"><ele>142</ele></trkpt>
<trkpt lat="34.985888" lon="135.654242"><ele>140</ele></trkpt>
<trkpt lat="34.986364" lon="135.653900"><ele>140</ele></trkpt>
<trkpt lat="34.985820" lon="135.653718"><ele>139</ele></trkpt>
<trkpt lat="34.985448" lon="135.653993"><ele>137</ele></trkpt>
<trkpt lat="34.984518" lon="135.653860"><ele>134</ele></trkpt>
<trkpt lat="34.983611" lon="135.654381"><ele>136</ele></trkpt>
<trkpt lat="34.983369" lon="135.653581"><ele>139</ele></trkpt>
<trkpt lat="34.982876" lon="135.652774"><ele>144</ele></trkpt>
<trkpt lat="34.982944" lon="135.651916"><ele>151</ele></trkpt>
<trkpt lat="34.983476" lon="135.651487"><ele>159</ele></trkpt>
<trkpt lat="34.983423" lon="135.650804"><ele>166</ele></trkpt>
<trkpt lat="34.983672" lon="135.649977"><ele>172</ele></trkpt>
<trkpt lat="34.983908" lon="135.649190"><ele>177</ele></trkpt>
<trkpt lat="34.983991" lon="135.648484"><ele>183</ele></trkpt>
<trkpt lat="34.984273" lon="135.647574"><ele>188</ele></trkpt>
<trkpt lat="34.984506" lon="135.646677"><ele>194</ele></trkpt>
<trkpt lat="34.984978" lon="135.645510"><ele>199</ele></trkpt>
<trkpt lat="34.985453" lon="135.644599"><ele>208</ele></trkpt>
<trkpt lat="34.985694" lon="135.643647"><ele>218</ele></trkpt>
<trkpt lat="34.986033" lon="135.643046"><ele>232</ele></trkpt>
<trkpt lat="34.986148" lon="135.642340"><ele>246</ele></trkpt>
<trkpt lat="34.986534" lon="135.641703"><ele>259</ele></trkpt>
<trkpt lat="34.986875" lon="135.641185"><ele>268</ele></trkpt>
<trkpt lat="34.987161" lon="135.640594"><ele>272</ele></trkpt>
<trkpt lat="34.987261" lon="135.639853"><ele>270</ele></trkpt>
<trkpt lat="34.987256" lon="135.639250"><ele>266</ele></trkpt>
<trkpt lat="34.986839" lon="135.638489"><ele>262</ele></trkpt>
<trkpt lat="34.987276" lon="135.637745"><ele>258</ele></trkpt>
<trkpt lat="34.987715" lon="135.637220"><ele>256</ele></trkpt>
<trkpt lat="34.987592" lon="135.636547"><ele>256</ele></trkpt>
<trkpt lat="34.987522" lon="135.635884"><ele>255</ele></trkpt>
<trkpt lat="34.987587" lon="135.635019"><ele>253</ele></trkpt>
<trkpt lat="34.988017" lon="135.634534"><ele>247</ele></trkpt>
<trkpt lat="34.988217" lon="135.633795"><ele>237</ele></trkpt>
<trkpt lat="34.988727" lon="135.633230"><ele>229</ele></trkpt>
<trkpt lat="34.989300" lon="135.632212"><ele>219</ele></trkpt>
<trkpt lat="34.989477" lon="135.631152"><ele>208</ele></trkpt>
<trkpt lat="34.990303" lon="135.630066"><ele>199</ele></trkpt>
<trkpt lat="34.991375" lon="135.628350"><ele>192</ele></trkpt>
<trkpt lat="34.991676" lon="135.627756"><ele>184</ele></trkpt>
<trkpt lat="34.991566" lon="135.627103"><ele>179</ele></trkpt>
<trkpt lat="34.991869" lon="135.627228"><ele>175</ele></trkpt>
<trkpt lat="34.992521" lon="135.626993"><ele>171</ele></trkpt>
<trkpt lat="34.993016" lon="135.626645"><ele>166</ele></trkpt>
<trkpt lat="34.993453" lon="135.625881"><ele>160</ele></trkpt>
<trkpt lat="34.993906" lon="135.625053"><ele>152</ele></trkpt>
<trkpt lat="34.994204" lon="135.624441"><ele>145</ele></trkpt>
<trkpt lat="34.994465" lon="135.623850"><ele>139</ele></trkpt>
<trkpt lat="34.994607" lon="135.623025"><ele>134</ele></trkpt>
<trkpt lat="34.994865" lon="135.622555"><ele>130</ele></trkpt>
<trkpt lat="34.995225" lon="135.622070"><ele>126</ele></trkpt>
<trkpt lat="34.995472" lon="135.621325"><ele>125</ele></trkpt>
<trkpt lat="34.995744" lon="135.620752"><ele>124</ele></trkpt>
<trkpt lat="34.996174" lon="135.620163"><ele>125</ele></trkpt>
<trkpt lat="34.996371" lon="135.619560"><ele>127</ele></trkpt>
<trkpt lat="34.996762" lon="135.618992"><ele>129</ele></trkpt>
<trkpt lat="34.997113" lon="135.618159"><ele>131</ele></trkpt>
<trkpt lat="34.997449" lon="135.617526"><ele>131</ele></trkpt>
<trkpt lat="34.997772" lon="135.616835"><ele>131</ele></trkpt>
<trkpt lat="34.998149" lon="135.616196"><ele>129</ele></trkpt>
<trkpt lat="34.998619" lon="135.615677"><ele>128</ele></trkpt>
<trkpt lat="34.999012" lon="135.614819"><ele>126</ele></trkpt>
<trkpt lat="34.999366" lon="135.614101"><ele>125</ele></trkpt>
<trkpt lat="34.999741" lon="135.613514"><ele>124</ele></trkpt>
<trkpt lat="35.000130" lon="135.612818"><ele>123</ele></trkpt>
<trkpt lat="35.000647" lon="135.612074"><ele>122</ele></trkpt>
<trkpt lat="35.001111" lon="135.611302"><ele>120</ele></trkpt>
<trkpt lat="35.001586" lon="135.610504"><ele>119</ele></trkpt>
<trkpt lat="35.002491" lon="135.610348"><ele>117</ele></trkpt>
<trkpt lat="35.003178" lon="135.610167"><ele>116</ele></trkpt>
<trkpt lat="35.003778" lon="135.610118"><ele>114</ele></trkpt>
<trkpt lat="35.004708" lon="135.610032"><ele>113</ele></trkpt>
<trkpt lat="35.005306" lon="135.609970"><ele>111</ele></trkpt>
<trkpt lat="35.006072" lon="135.610000"><ele>109</ele></trkpt>
<trkpt lat="35.006837" lon="135.609745"><ele>107</ele></trkpt>
<trkpt lat="35.007689" lon="135.609524"><ele>104</ele></trkpt>
<trkpt lat="35.008253" lon="135.609331"><ele>101</ele></trkpt>
<trkpt lat="35.008950" lon="135.608951"><ele>99</ele></trkpt>
<trkpt lat="35.009502" lon="135.608881"><ele>97</ele></trkpt>
<trkpt lat="35.010066" lon="135.608861"><ele>94</ele></trkpt>
<trkpt lat="35.010655" lon="135.608567"><ele>92</ele></trkpt>
<trkpt lat="35.011500" lon="135.607981"><ele>90</ele></trkpt>
<trkpt lat="35.011985" lon="135.607670"><ele>88</ele></trkpt>
<trkpt lat="35.012522" lon="135.607483"><ele>87</ele></trkpt>
<trkpt lat="35.013572" lon="135.607071"><ele>86</ele></trkpt>
<trkpt lat="35.014316" lon="135.606992"><ele>85</ele></trkpt>
<trkpt lat="35.014545" lon="135.605844"><ele>85</ele></trkpt>
<trkpt lat="35.014626" lon="135.605258"><ele>85</ele></trkpt>
<trkpt lat="35.014967" lon="135.604503"><ele>85</ele></trkpt>
<trkpt lat="35.015261" lon="135.603462"><ele>85</ele></trkpt>
<trkpt lat="35.015504" lon="135.601913"><ele>85</ele></trkpt>
<trkpt lat="35.015960" lon="135.599984"><ele>86</ele></trkpt>
<trkpt lat="35.015726" lon="135.599239"><ele>86</ele></trkpt>
<trkpt lat="35.015632" lon="135.598622"><ele>87</ele></trkpt>
<trkpt lat="35.015515" lon="135.597710"><ele>87</ele></trkpt>
<trkpt lat="35.015266" lon="135.596651"><ele>87</ele></trkpt>
<trkpt lat="35.015488" lon="135.595993"><ele>87</ele></trkpt>
<trkpt lat="35.016349" lon="135.595922"><ele>86</ele></trkpt>
<trkpt lat="35.016873" lon="135.595951"><ele>87</ele></trkpt>
<trkpt lat="35.017031" lon="135.596585"><ele>86</ele></trkpt>
<trkpt lat="35.017629" lon="135.596297"><ele>86</ele></trkpt>
<trkpt lat="35.018132" lon="135.595818"><ele>85</ele></trkpt>
<trkpt lat="35.018797" lon="135.595310"><ele>85</ele></trkpt>
<trkpt lat="35.019268" lon="135.596039"><ele>85</ele></trkpt>
<trkpt lat="35.019388" lon="135.595133"><ele>86</ele></trkpt>
<trkpt lat="35.019713" lon="135.594849"><ele>88</ele></trkpt>
<trkpt lat="35.020402" lon="135.594725"><ele>94</ele></trkpt>
<trkpt lat="35.020967" lon="135.594792"><ele>100</ele></trkpt>
<trkpt lat="35.021583" lon="135.595104"><ele>105</ele></trkpt>
<trkpt lat="35.022234" lon="135.595072"><ele>110</ele></trkpt>
<trkpt lat="35.022802" lon="135.594845"><ele>114</ele></trkpt>
<trkpt lat="35.023218" lon="135.595304"><ele>115</ele></trkpt>
<trkpt lat="35.023684" lon="135.595603"><ele>115</ele></trkpt>
<trkpt lat="35.024116" lon="135.595501"><ele>114</ele></trkpt>
<trkpt lat="35.024669" lon="135.595382"><ele>113</ele></trkpt>
<trkpt lat="35.024793" lon="135.594599"><ele>112</ele></trkpt>
<trkpt lat="35.024795" lon="135.594111"><ele>111</ele></trkpt>
</trkseg></trk>
</gpx>
