<?xml version="1.0" encoding="UTF-8"?>
<gpx version="1.1" creator="Japonya Bisiklet Turu" xmlns="http://www.topografix.com/GPX/1/1">
<wpt lat="35.020500" lon="135.509500"><name>Sumiya Kihoan</name></wpt>
<wpt lat="35.059400" lon="135.578400"><name>Izumo Daijingū</name></wpt>
<wpt lat="35.042200" lon="135.578500"><name>Tamba Kokubunji</name></wpt>
<wpt lat="35.105100" lon="135.469500"><name>Sonobe</name></wpt>
<wpt lat="35.124100" lon="135.482500"><name>Shinkōetsu-mura</name></wpt>
<wpt lat="35.147500" lon="135.516900"><name>Hiyoshi Barajı</name></wpt>
<wpt lat="35.152400" lon="135.517800"><name>Spring Hiyoshi</name></wpt>
<wpt lat="35.189000" lon="135.553700"><name>Toricotoya (Hiyoshi)</name></wpt>
<trk><name>Gün 8 · Kameoka – Nantan</name><trkseg>
<trkpt lat="35.020271" lon="135.509567"><ele>198</ele></trkpt>
<trkpt lat="35.020324" lon="135.510527"><ele>200</ele></trkpt>
<trkpt lat="35.020228" lon="135.511218"><ele>202</ele></trkpt>
<trkpt lat="35.020237" lon="135.511970"><ele>204</ele></trkpt>
<trkpt lat="35.020223" lon="135.512904"><ele>207</ele></trkpt>
<trkpt lat="35.020090" lon="135.513751"><ele>210</ele></trkpt>
<trkpt lat="35.019902" lon="135.514399"><ele>210</ele></trkpt>
<trkpt lat="35.019595" lon="135.515018"><ele>203</ele></trkpt>
<trkpt lat="35.019209" lon="135.516321"><ele>194</ele></trkpt>
<trkpt lat="35.018524" lon="135.518989"><ele>184</ele></trkpt>
<trkpt lat="35.017906" lon="135.519678"><ele>173</ele></trkpt>
<trkpt lat="35.017427" lon="135.520122"><ele>163</ele></trkpt>
<trkpt lat="35.017096" lon="135.520751"><ele>156</ele></trkpt>
<trkpt lat="35.016923" lon="135.521574"><ele>152</ele></trkpt>
<trkpt lat="35.017023" lon="135.522473"><ele>147</ele></trkpt>
<trkpt lat="35.016976" lon="135.523251"><ele>140</ele></trkpt>
<trkpt lat="35.016351" lon="135.524542"><ele>134</ele></trkpt>
<trkpt lat="35.016127" lon="135.525316"><ele>129</ele></trkpt>
<trkpt lat="35.016133" lon="135.526065"><ele>124</ele></trkpt>
<trkpt lat="35.016205" lon="135.526812"><ele>121</ele></trkpt>
<trkpt lat="35.016345" lon="135.527669"><ele>118</ele></trkpt>
<trkpt lat="35.016904" lon="135.528686"><ele>115</ele></trkpt>
<trkpt lat="35.017696" lon="135.529973"><ele>113</ele></trkpt>
<trkpt lat="35.018447" lon="135.531190"><ele>111</ele></trkpt>
<trkpt lat="35.017942" lon="135.532443"><ele>109</ele></trkpt>
<trkpt lat="35.017238" lon="135.533821"><ele>108</ele></trkpt>
<trkpt lat="35.017071" lon="135.534580"><ele>107</ele></trkpt>
<trkpt lat="35.017145" lon="135.535963"><ele>107</ele></trkpt>
<trkpt lat="35.017188" lon="135.536963"><ele>106</ele></trkpt>
<trkpt lat="35.017127" lon="135.538234"><ele>104</ele></trkpt>
<trkpt lat="35.016971" lon="135.539805"><ele>103</ele></trkpt>
<trkpt lat="35.016968" lon="135.540522"><ele>102</ele></trkpt>
<trkpt lat="35.017019" lon="135.541975"><ele>102</ele></trkpt>
<trkpt lat="35.017039" lon="135.542664"><ele>101</ele></trkpt>
<trkpt lat="35.017128" lon="135.543361"><ele>100</ele></trkpt>
<trkpt lat="35.017109" lon="135.544297"><ele>100</ele></trkpt>
<trkpt lat="35.017093" lon="135.544990"><ele>100</ele></trkpt>
<trkpt lat="35.017054" lon="135.546852"><ele>100</ele></trkpt>
<trkpt lat="35.017121" lon="135.547635"><ele>100</ele></trkpt>
<trkpt lat="35.017580" lon="135.548637"><ele>100</ele></trkpt>
<trkpt lat="35.018058" lon="135.549695"><ele>100</ele></trkpt>
<trkpt lat="35.018141" lon="135.550451"><ele>100</ele></trkpt>
<trkpt lat="35.018091" lon="135.551571"><ele>100</ele></trkpt>
<trkpt lat="35.018073" lon="135.552748"><ele>100</ele></trkpt>
<trkpt lat="35.018089" lon="135.553535"><ele>100</ele></trkpt>
<trkpt lat="35.018095" lon="135.555260"><ele>100</ele></trkpt>
<trkpt lat="35.018095" lon="135.556061"><ele>100</ele></trkpt>
<trkpt lat="35.018124" lon="135.558761"><ele>99</ele></trkpt>
<trkpt lat="35.018117" lon="135.559450"><ele>100</ele></trkpt>
<trkpt lat="35.018135" lon="135.561226"><ele>100</ele></trkpt>
<trkpt lat="35.018141" lon="135.562900"><ele>101</ele></trkpt>
<trkpt lat="35.018159" lon="135.564355"><ele>102</ele></trkpt>
<trkpt lat="35.018190" lon="135.565549"><ele>102</ele></trkpt>
<trkpt lat="35.018176" lon="135.566284"><ele>102</ele></trkpt>
<trkpt lat="35.018151" lon="135.566950"><ele>102</ele></trkpt>
<trkpt lat="35.018155" lon="135.568459"><ele>101</ele></trkpt>
<trkpt lat="35.018507" lon="135.568698"><ele>100</ele></trkpt>
<trkpt lat="35.018676" lon="135.569218"><ele>98</ele></trkpt>
<trkpt lat="35.019239" lon="135.569010"><ele>96</ele></trkpt>
<trkpt lat="35.020239" lon="135.569421"><ele>95</ele></trkpt>
<trkpt lat="35.020891" lon="135.569820"><ele>94</ele></trkpt>
<trkpt lat="35.021374" lon="135.569608"><ele>93</ele></trkpt>
<trkpt lat="35.021686" lon="135.570037"><ele>92</ele></trkpt>
<trkpt lat="35.021408" lon="135.570727"><ele>92</ele></trkpt>
<trkpt lat="35.021951" lon="135.570728"><ele>92</ele></trkpt>
<trkpt lat="35.022651" lon="135.570711"><ele>91</ele></trkpt>
<trkpt lat="35.023291" lon="135.570727"><ele>91</ele></trkpt>
<trkpt lat="35.023960" lon="135.570690"><ele>91</ele></trkpt>
<trkpt lat="35.024782" lon="135.570589"><ele>91</ele></trkpt>
<trkpt lat="35.025289" lon="135.570546"><ele>91</ele></trkpt>
<trkpt lat="35.027556" lon="135.571986"><ele>91</ele></trkpt>
<trkpt lat="35.028423" lon="135.572571"><ele>91</ele></trkpt>
<trkpt lat="35.029132" lon="135.572954"><ele>91</ele></trkpt>
<trkpt lat="35.030085" lon="135.573414"><ele>90</ele></trkpt>
<trkpt lat="35.030705" lon="135.573646"><ele>90</ele></trkpt>
<trkpt lat="35.031487" lon="135.573878"><ele>90</ele></trkpt>
<trkpt lat="35.032039" lon="135.573961"><ele>90</ele></trkpt>
<trkpt lat="35.032994" lon="135.574091"><ele>90</ele></trkpt>
<trkpt lat="35.033957" lon="135.574234"><ele>91</ele></trkpt>
<trkpt lat="35.034928" lon="135.574370"><ele>91</ele></trkpt>
<trkpt lat="35.036619" lon="135.574610"><ele>92</ele></trkpt>
<trkpt lat="35.038271" lon="135.574842"><ele>94</ele></trkpt>
<trkpt lat="35.039423" lon="135.575015"><ele>95</ele></trkpt>
<trkpt lat="35.040509" lon="135.575179"><ele>98</ele></trkpt>
<trkpt lat="35.041150" lon="135.575263"><ele>101</ele></trkpt>
<trkpt lat="35.041945" lon="135.575380"><ele>104</ele></trkpt>
<trkpt lat="35.042516" lon="135.575458"><ele>107</ele></trkpt>
<trkpt lat="35.043105" lon="135.575551"><ele>108</ele></trkpt>
<trkpt lat="35.044226" lon="135.575722"><ele>110</ele></trkpt>
<trkpt lat="35.044990" lon="135.575777"><ele>111</ele></trkpt>
<trkpt lat="35.045718" lon="135.575763"><ele>112</ele></trkpt>
<trkpt lat="35.046343" lon="135.575682"><ele>112</ele></trkpt>
<trkpt lat="35.047576" lon="135.575383"><ele>112</ele></trkpt>
<trkpt lat="35.048370" lon="135.575076"><ele>111</ele></trkpt>
<trkpt lat="35.048605" lon="135.575973"><ele>109</ele></trkpt>
<trkpt lat="35.048946" lon="135.576450"><ele>107</ele></trkpt>
<trkpt lat="35.051308" lon="135.576436"><ele>106</ele></trkpt>
<trkpt lat="35.052245" lon="135.576430"><ele>104</ele></trkpt>
<trkpt lat="35.053294" lon="135.576424"><ele>103</ele></trkpt>
<trkpt lat="35.054436" lon="135.576417"><ele>103</ele></trkpt>
<trkpt lat="35.055391" lon="135.576411"><ele>104</ele></trkpt>
<trkpt lat="35.055388" lon="135.577610"><ele>105</ele></trkpt>
<trkpt lat="35.055670" lon="135.578142"><ele>107</ele></trkpt>
<trkpt lat="35.056184" lon="135.577662"><ele>108</ele></trkpt>
<trkpt lat="35.056607" lon="135.577228"><ele>108</ele></trkpt>
<trkpt lat="35.057343" lon="135.576466"><ele>110</ele></trkpt>
<trkpt lat="35.057850" lon="135.576015"><ele>113</ele></trkpt>
<trkpt lat="35.058971" lon="135.576415"><ele>116</ele></trkpt>
<trkpt lat="35.059552" lon="135.576743"><ele>121</ele></trkpt>
<trkpt lat="35.059204" lon="135.577646"><ele>126</ele></trkpt>
<trkpt lat="35.059034" lon="135.578332"><ele>127</ele></trkpt>
<trkpt lat="35.059116" lon="135.578346"><ele>127</ele></trkpt>
<trkpt lat="35.059194" lon="135.577681"><ele>126</ele></trkpt>
<trkpt lat="35.059552" lon="135.576743"><ele>122</ele></trkpt>
<trkpt lat="35.058971" lon="135.576415"><ele>117</ele></trkpt>
<trkpt lat="35.058282" lon="135.575698"><ele>113</ele></trkpt>
<trkpt lat="35.057343" lon="135.576466"><ele>110</ele></trkpt>
<trkpt lat="35.056607" lon="135.577228"><ele>108</ele></trkpt>
<trkpt lat="35.056184" lon="135.577662"><ele>108</ele></trkpt>
<trkpt lat="35.055670" lon="135.578142"><ele>107</ele></trkpt>
<trkpt lat="35.055388" lon="135.577610"><ele>105</ele></trkpt>
<trkpt lat="35.055391" lon="135.576411"><ele>104</ele></trkpt>
<trkpt lat="35.054436" lon="135.576417"><ele>103</ele></trkpt>
<trkpt lat="35.053294" lon="135.576424"><ele>103</ele></trkpt>
<trkpt lat="35.052297" lon="135.576430"><ele>104</ele></trkpt>
<trkpt lat="35.051308" lon="135.576436"><ele>105</ele></trkpt>
<trkpt lat="35.049374" lon="135.576447"><ele>107</ele></trkpt>
<trkpt lat="35.048672" lon="135.576451"><ele>109</ele></trkpt>
<trkpt lat="35.048517" lon="135.575459"><ele>111</ele></trkpt>
<trkpt lat="35.047844" lon="135.575296"><ele>112</ele></trkpt>
<trkpt lat="35.046780" lon="135.575595"><ele>112</ele></trkpt>
<trkpt lat="35.045718" lon="135.575763"><ele>112</ele></trkpt>
<trkpt lat="35.044990" lon="135.575777"><ele>111</ele></trkpt>
<trkpt lat="35.044226" lon="135.575722"><ele>110</ele></trkpt>
<trkpt lat="35.043105" lon="135.575551"><ele>110</ele></trkpt>
<trkpt lat="35.043341" lon="135.576332"><ele>112</ele></trkpt>
<trkpt lat="35.043421" lon="135.577085"><ele>112</ele></trkpt>
<trkpt lat="35.043452" lon="135.577861"><ele>113</ele></trkpt>
<trkpt lat="35.042945" lon="135.577966"><ele>114</ele></trkpt>
<trkpt lat="35.041865" lon="135.578044"><ele>115</ele></trkpt>
<trkpt lat="35.041812" lon="135.578185"><ele>115</ele></trkpt>
<trkpt lat="35.042409" lon="135.577957"><ele>114</ele></trkpt>
<trkpt lat="35.043231" lon="135.577979"><ele>114</ele></trkpt>
<trkpt lat="35.043452" lon="135.577593"><ele>113</ele></trkpt>
<trkpt lat="35.043442" lon="135.576692"><ele>112</ele></trkpt>
<trkpt lat="35.043162" lon="135.575907"><ele>111</ele></trkpt>
<trkpt lat="35.043102" lon="135.575166"><ele>110</ele></trkpt>
<trkpt lat="35.043328" lon="135.574485"><ele>109</ele></trkpt>
<trkpt lat="35.043215" lon="135.573865"><ele>107</ele></trkpt>
<trkpt lat="35.043195" lon="135.573170"><ele>106</ele></trkpt>
<trkpt lat="35.043044" lon="135.572406"><ele>104</ele></trkpt>
<trkpt lat="35.042598" lon="135.571829"><ele>102</ele></trkpt>
<trkpt lat="35.042621" lon="135.570976"><ele>99</ele></trkpt>
<trkpt lat="35.042765" lon="135.570244"><ele>97</ele></trkpt>
<trkpt lat="35.042673" lon="135.569552"><ele>96</ele></trkpt>
<trkpt lat="35.042683" lon="135.568155"><ele>94</ele></trkpt>
<trkpt lat="35.043263" lon="135.568003"><ele>94</ele></trkpt>
<trkpt lat="35.043725" lon="135.567582"><ele>94</ele></trkpt>
<trkpt lat="35.044461" lon="135.566621"><ele>95</ele></trkpt>
<trkpt lat="35.044871" lon="135.566165"><ele>95</ele></trkpt>
<trkpt lat="35.045451" lon="135.565768"><ele>95</ele></trkpt>
<trkpt lat="35.045766" lon="135.565289"><ele>95</ele></trkpt>
<trkpt lat="35.045730" lon="135.564408"><ele>95</ele></trkpt>
<trkpt lat="35.045694" lon="135.562069"><ele>94</ele></trkpt>
<trkpt lat="35.045708" lon="135.561145"><ele>95</ele></trkpt>
<trkpt lat="35.045740" lon="135.559628"><ele>95</ele></trkpt>
<trkpt lat="35.045605" lon="135.558570"><ele>96</ele></trkpt>
<trkpt lat="35.045434" lon="135.557643"><ele>96</ele></trkpt>
<trkpt lat="35.046215" lon="135.557225"><ele>96</ele></trkpt>
<trkpt lat="35.046815" lon="135.556747"><ele>97</ele></trkpt>
<trkpt lat="35.048620" lon="135.555509"><ele>97</ele></trkpt>
<trkpt lat="35.049161" lon="135.555052"><ele>97</ele></trkpt>
<trkpt lat="35.050057" lon="135.553766"><ele>98</ele></trkpt>
<trkpt lat="35.050750" lon="135.553097"><ele>98</ele></trkpt>
<trkpt lat="35.051235" lon="135.552691"><ele>98</ele></trkpt>
<trkpt lat="35.051825" lon="135.552389"><ele>98</ele></trkpt>
<trkpt lat="35.052385" lon="135.552078"><ele>98</ele></trkpt>
<trkpt lat="35.053035" lon="135.551834"><ele>97</ele></trkpt>
<trkpt lat="35.053915" lon="135.551665"><ele>98</ele></trkpt>
<trkpt lat="35.054584" lon="135.551639"><ele>98</ele></trkpt>
<trkpt lat="35.055190" lon="135.551710"><ele>98</ele></trkpt>
<trkpt lat="35.056996" lon="135.552127"><ele>99</ele></trkpt>
<trkpt lat="35.057723" lon="135.552146"><ele>100</ele></trkpt>
<trkpt lat="35.058715" lon="135.551962"><ele>100</ele></trkpt>
<trkpt lat="35.059473" lon="135.551783"><ele>100</ele></trkpt>
<trkpt lat="35.060319" lon="135.551392"><ele>100</ele></trkpt>
<trkpt lat="35.061033" lon="135.550894"><ele>100</ele></trkpt>
<trkpt lat="35.061601" lon="135.550386"><ele>100</ele></trkpt>
<trkpt lat="35.061996" lon="135.549933"><ele>101</ele></trkpt>
<trkpt lat="35.062368" lon="135.549392"><ele>102</ele></trkpt>
<trkpt lat="35.063254" lon="135.547827"><ele>102</ele></trkpt>
<trkpt lat="35.063714" lon="135.547087"><ele>102</ele></trkpt>
<trkpt lat="35.064158" lon="135.546574"><ele>103</ele></trkpt>
<trkpt lat="35.065110" lon="135.545615"><ele>103</ele></trkpt>
<trkpt lat="35.065804" lon="135.544445"><ele>104</ele></trkpt>
<trkpt lat="35.066495" lon="135.543318"><ele>104</ele></trkpt>
<trkpt lat="35.068304" lon="135.540997"><ele>104</ele></trkpt>
<trkpt lat="35.069340" lon="135.539960"><ele>104</ele></trkpt>
<trkpt lat="35.070241" lon="135.539105"><ele>105</ele></trkpt>
<trkpt lat="35.070831" lon="135.538540"><ele>105</ele></trkpt>
<trkpt lat="35.072083" lon="135.537710"><ele>106</ele></trkpt>
<trkpt lat="35.071256" lon="135.535533"><ele>107</ele></trkpt>
<trkpt lat="35.072108" lon="135.534915"><ele>108</ele></trkpt>
<trkpt lat="35.072802" lon="135.534113"><ele>108</ele></trkpt>
<trkpt lat="35.072928" lon="135.533415"><ele>109</ele></trkpt>
<trkpt lat="35.073791" lon="135.532583"><ele>109</ele></trkpt>
<trkpt lat="35.074680" lon="135.531970"><ele>109</ele></trkpt>
<trkpt lat="35.075544" lon="135.531483"><ele>109</ele></trkpt>
<trkpt lat="35.076169" lon="135.531047"><ele>109</ele></trkpt>
<trkpt lat="35.076681" lon="135.530566"><ele>110</ele></trkpt>
<trkpt lat="35.077136" lon="135.529836"><ele>110</ele></trkpt>
<trkpt lat="35.077450" lon="135.528755"><ele>111</ele></trkpt>
<trkpt lat="35.077921" lon="135.527980"><ele>112</ele></trkpt>
<trkpt lat="35.078366" lon="135.527336"><ele>112</ele></trkpt>
<trkpt lat="35.078902" lon="135.525768"><ele>113</ele></trkpt>
<trkpt lat="35.079275" lon="135.524688"><ele>113</ele></trkpt>
<trkpt lat="35.079135" lon="135.523910"><ele>113</ele></trkpt>
<trkpt lat="35.079181" lon="135.522695"><ele>112</ele></trkpt>
<trkpt lat="35.079234" lon="135.521871"><ele>111</ele></trkpt>
<trkpt lat="35.079387" lon="135.520418"><ele>110</ele></trkpt>
<trkpt lat="35.079640" lon="135.519633"><ele>110</ele></trkpt>
<trkpt lat="35.079985" lon="135.518644"><ele>110</ele></trkpt>
<trkpt lat="35.080868" lon="135.517248"><ele>113</ele></trkpt>
<trkpt lat="35.081310" lon="135.516850"><ele>115</ele></trkpt>
<trkpt lat="35.082386" lon="135.516706"><ele>119</ele></trkpt>
<trkpt lat="35.083066" lon="135.516638"><ele>122</ele></trkpt>
<trkpt lat="35.084540" lon="135.516114"><ele>123</ele></trkpt>
<trkpt lat="35.085219" lon="135.515380"><ele>123</ele></trkpt>
<trkpt lat="35.085799" lon="135.514487"><ele>123</ele></trkpt>
<trkpt lat="35.086580" lon="135.514039"><ele>121</ele></trkpt>
<trkpt lat="35.087106" lon="135.513684"><ele>119</ele></trkpt>
<trkpt lat="35.087473" lon="135.513199"><ele>118</ele></trkpt>
<trkpt lat="35.088136" lon="135.512464"><ele>116</ele></trkpt>
<trkpt lat="35.088678" lon="135.511986"><ele>115</ele></trkpt>
<trkpt lat="35.090059" lon="135.511131"><ele>114</ele></trkpt>
<trkpt lat="35.090819" lon="135.510622"><ele>114</ele></trkpt>
<trkpt lat="35.091993" lon="135.509819"><ele>115</ele></trkpt>
<trkpt lat="35.092374" lon="135.509191"><ele>117</ele></trkpt>
<trkpt lat="35.092550" lon="135.508423"><ele>118</ele></trkpt>
<trkpt lat="35.092598" lon="135.507699"><ele>118</ele></trkpt>
<trkpt lat="35.092600" lon="135.505837"><ele>119</ele></trkpt>
<trkpt lat="35.092620" lon="135.505113"><ele>119</ele></trkpt>
<trkpt lat="35.092625" lon="135.504191"><ele>117</ele></trkpt>
<trkpt lat="35.092700" lon="135.503133"><ele>118</ele></trkpt>
<trkpt lat="35.092875" lon="135.500787"><ele>118</ele></trkpt>
<trkpt lat="35.092919" lon="135.500069"><ele>117</ele></trkpt>
<trkpt lat="35.092961" lon="135.499380"><ele>117</ele></trkpt>
<trkpt lat="35.093027" lon="135.498300"><ele>117</ele></trkpt>
<trkpt lat="35.092713" lon="135.497807"><ele>118</ele></trkpt>
<trkpt lat="35.092093" lon="135.497256"><ele>119</ele></trkpt>
<trkpt lat="35.091776" lon="135.496606"><ele>119</ele></trkpt>
<trkpt lat="35.091963" lon="135.496079"><ele>120</ele></trkpt>
<trkpt lat="35.092541" lon="135.495862"><ele>121</ele></trkpt>
<trkpt lat="35.093077" lon="135.495840"><ele>122</ele></trkpt>
<trkpt lat="35.093621" lon="135.495824"><ele>123</ele></trkpt>
<trkpt lat="35.094158" lon="135.495733"><ele>126</ele></trkpt>
<trkpt lat="35.094605" lon="135.495811"><ele>128</ele></trkpt>
<trkpt lat="35.095069" lon="135.495354"><ele>131</ele></trkpt>
<trkpt lat="35.095560" lon="135.494902"><ele>135</ele></trkpt>
<trkpt lat="35.095864" lon="135.494257"><ele>140</ele></trkpt>
<trkpt lat="35.095988" lon="135.493509"><ele>145</ele></trkpt>
<trkpt lat="35.096123" lon="135.492852"><ele>150</ele></trkpt>
<trkpt lat="35.096231" lon="135.492165"><ele>155</ele></trkpt>
<trkpt lat="35.096185" lon="135.491342"><ele>159</ele></trkpt>
<trkpt lat="35.096157" lon="135.490574"><ele>162</ele></trkpt>
<trkpt lat="35.096101" lon="135.489731"><ele>164</ele></trkpt>
<trkpt lat="35.096146" lon="135.488937"><ele>164</ele></trkpt>
<trkpt lat="35.095915" lon="135.488086"><ele>162</ele></trkpt>
<trkpt lat="35.095458" lon="135.487552"><ele>158</ele></trkpt>
<trkpt lat="35.095002" lon="135.487065"><ele>154</ele></trkpt>
<trkpt lat="35.094630" lon="135.486256"><ele>149</ele></trkpt>
<trkpt lat="35.095099" lon="135.485722"><ele>144</ele></trkpt>
<trkpt lat="35.095582" lon="135.485303"><ele>142</ele></trkpt>
<trkpt lat="35.095638" lon="135.484498"><ele>141</ele></trkpt>
<trkpt lat="35.095391" lon="135.483930"><ele>144</ele></trkpt>
<trkpt lat="35.094783" lon="135.483786"><ele>149</ele></trkpt>
<trkpt lat="35.094271" lon="135.483359"><ele>153</ele></trkpt>
<trkpt lat="35.093987" lon="135.482662"><ele>156</ele></trkpt>
<trkpt lat="35.094038" lon="135.481915"><ele>157</ele></trkpt>
<trkpt lat="35.094139" lon="135.481147"><ele>157</ele></trkpt>
<trkpt lat="35.094331" lon="135.480455"><ele>153</ele></trkpt>
<trkpt lat="35.094523" lon="135.479755"><ele>150</ele></trkpt>
<trkpt lat="35.094821" lon="135.478843"><ele>148</ele></trkpt>
<trkpt lat="35.095300" lon="135.478357"><ele>147</ele></trkpt>
<trkpt lat="35.095898" lon="135.478295"><ele>146</ele></trkpt>
<trkpt lat="35.096177" lon="135.477482"><ele>145</ele></trkpt>
<trkpt lat="35.096372" lon="135.476833"><ele>144</ele></trkpt>
<trkpt lat="35.096795" lon="135.475904"><ele>142</ele></trkpt>
<trkpt lat="35.097376" lon="135.475171"><ele>139</ele></trkpt>
<trkpt lat="35.097874" lon="135.474860"><ele>138</ele></trkpt>
<trkpt lat="35.098425" lon="135.474644"><ele>135</ele></trkpt>
<trkpt lat="35.099093" lon="135.474749"><ele>134</ele></trkpt>
<trkpt lat="35.100191" lon="135.474566"><ele>133</ele></trkpt>
<trkpt lat="35.101031" lon="135.474349"><ele>132</ele></trkpt>
<trkpt lat="35.101743" lon="135.473930"><ele>130</ele></trkpt>
<trkpt lat="35.102207" lon="135.473233"><ele>130</ele></trkpt>
<trkpt lat="35.102222" lon="135.472534"><ele>131</ele></trkpt>
<trkpt lat="35.102224" lon="135.471579"><ele>132</ele></trkpt>
<trkpt lat="35.101917" lon="135.470944"><ele>134</ele></trkpt>
<trkpt lat="35.102605" lon="135.470362"><ele>136</ele></trkpt>
<trkpt lat="35.103553" lon="135.470437"><ele>138</ele></trkpt>
<trkpt lat="35.104131" lon="135.470522"><ele>141</ele></trkpt>
<trkpt lat="35.104463" lon="135.470025"><ele>142</ele></trkpt>
<trkpt lat="35.104641" lon="135.469320"><ele>142</ele></trkpt>
<trkpt lat="35.104463" lon="135.470025"><ele>142</ele></trkpt>
<trkpt lat="35.104131" lon="135.470522"><ele>142</ele></trkpt>
<trkpt lat="35.104674" lon="135.470646"><ele>141</ele></trkpt>
<trkpt lat="35.105261" lon="135.470846"><ele>139</ele></trkpt>
<trkpt lat="35.105791" lon="135.471153"><ele>138</ele></trkpt>
<trkpt lat="35.106313" lon="135.471517"><ele>135</ele></trkpt>
<trkpt lat="35.106869" lon="135.471695"><ele>133</ele></trkpt>
<trkpt lat="35.107134" lon="135.472906"><ele>131</ele></trkpt>
<trkpt lat="35.107153" lon="135.473573"><ele>131</ele></trkpt>
<trkpt lat="35.107386" lon="135.474065"><ele>131</ele></trkpt>
<trkpt lat="35.107954" lon="135.474385"><ele>131</ele></trkpt>
<trkpt lat="35.108545" lon="135.474680"><ele>132</ele></trkpt>
<trkpt lat="35.109252" lon="135.474691"><ele>131</ele></trkpt>
<trkpt lat="35.110089" lon="135.474666"><ele>130</ele></trkpt>
<trkpt lat="35.111245" lon="135.474690"><ele>128</ele></trkpt>
<trkpt lat="35.112147" lon="135.474897"><ele>128</ele></trkpt>
<trkpt lat="35.112977" lon="135.475091"><ele>128</ele></trkpt>
<trkpt lat="35.113973" lon="135.475170"><ele>129</ele></trkpt>
<trkpt lat="35.114913" lon="135.475169"><ele>130</ele></trkpt>
<trkpt lat="35.115642" lon="135.475172"><ele>130</ele></trkpt>
<trkpt lat="35.116351" lon="135.474866"><ele>132</ele></trkpt>
<trkpt lat="35.117042" lon="135.474823"><ele>133</ele></trkpt>
<trkpt lat="35.117920" lon="135.474779"><ele>133</ele></trkpt>
<trkpt lat="35.118565" lon="135.474768"><ele>132</ele></trkpt>
<trkpt lat="35.118770" lon="135.475670"><ele>132</ele></trkpt>
<trkpt lat="35.119700" lon="135.476511"><ele>132</ele></trkpt>
<trkpt lat="35.120423" lon="135.477165"><ele>132</ele></trkpt>
<trkpt lat="35.121121" lon="135.477795"><ele>133</ele></trkpt>
<trkpt lat="35.121371" lon="135.478305"><ele>134</ele></trkpt>
<trkpt lat="35.121384" lon="135.479248"><ele>135</ele></trkpt>
<trkpt lat="35.121360" lon="135.479941"><ele>134</ele></trkpt>
<trkpt lat="35.121986" lon="135.480901"><ele>134</ele></trkpt>
<trkpt lat="35.122479" lon="135.481275"><ele>134</ele></trkpt>
<trkpt lat="35.123306" lon="135.481675"><ele>133</ele></trkpt>
<trkpt lat="35.123907" lon="135.481969"><ele>133</ele></trkpt>
<trkpt lat="35.124824" lon="135.482426"><ele>134</ele></trkpt>
<trkpt lat="35.124583" lon="135.482965"><ele>134</ele></trkpt>
<trkpt lat="35.124119" lon="135.482578"><ele>134</ele></trkpt>
<trkpt lat="35.124526" lon="135.482502"><ele>134</ele></trkpt>
<trkpt lat="35.125890" lon="135.482928"><ele>134</ele></trkpt>
<trkpt lat="35.125906" lon="135.484239"><ele>134</ele></trkpt>
<trkpt lat="35.125910" lon="135.484926"><ele>134</ele></trkpt>
<trkpt lat="35.126690" lon="135.485243"><ele>133</ele></trkpt>
<trkpt lat="35.126997" lon="135.485823"><ele>133</ele></trkpt>
<trkpt lat="35.127003" lon="135.486625"><ele>134</ele></trkpt>
<trkpt lat="35.127232" lon="135.487358"><ele>136</ele></trkpt>
<trkpt lat="35.127267" lon="135.488070"><ele>139</ele></trkpt>
<trkpt lat="35.127470" lon="135.488706"><ele>143</ele></trkpt>
<trkpt lat="35.128096" lon="135.489445"><ele>146</ele></trkpt>
<trkpt lat="35.128966" lon="135.490002"><ele>148</ele></trkpt>
<trkpt lat="35.129813" lon="135.490045"><ele>153</ele></trkpt>
<trkpt lat="35.130552" lon="135.490010"><ele>155</ele></trkpt>
<trkpt lat="35.131397" lon="135.490261"><ele>155</ele></trkpt>
<trkpt lat="35.131996" lon="135.490225"><ele>154</ele></trkpt>
<trkpt lat="35.132962" lon="135.491335"><ele>151</ele></trkpt>
<trkpt lat="35.133438" lon="135.491942"><ele>144</ele></trkpt>
<trkpt lat="35.133643" lon="135.492596"><ele>138</ele></trkpt>
<trkpt lat="35.133355" lon="135.493239"><ele>134</ele></trkpt>
<trkpt lat="35.133289" lon="135.494114"><ele>133</ele></trkpt>
<trkpt lat="35.133256" lon="135.494950"><ele>133</ele></trkpt>
<trkpt lat="35.133919" lon="135.495266"><ele>133</ele></trkpt>
<trkpt lat="35.134471" lon="135.495217"><ele>136</ele></trkpt>
<trkpt lat="35.135131" lon="135.494886"><ele>138</ele></trkpt>
<trkpt lat="35.136204" lon="135.494520"><ele>141</ele></trkpt>
<trkpt lat="35.136805" lon="135.494253"><ele>144</ele></trkpt>
<trkpt lat="35.137438" lon="135.493646"><ele>147</ele></trkpt>
<trkpt lat="35.138100" lon="135.493208"><ele>148</ele></trkpt>
<trkpt lat="35.138795" lon="135.492903"><ele>147</ele></trkpt>
<trkpt lat="35.139356" lon="135.493014"><ele>145</ele></trkpt>
<trkpt lat="35.139992" lon="135.493329"><ele>143</ele></trkpt>
<trkpt lat="35.140337" lon="135.493872"><ele>140</ele></trkpt>
<trkpt lat="35.140738" lon="135.494395"><ele>138</ele></trkpt>
<trkpt lat="35.141133" lon="135.494797"><ele>138</ele></trkpt>
<trkpt lat="35.141745" lon="135.495383"><ele>138</ele></trkpt>
<trkpt lat="35.142318" lon="135.495762"><ele>140</ele></trkpt>
<trkpt lat="35.143418" lon="135.496547"><ele>142</ele></trkpt>
<trkpt lat="35.144119" lon="135.496752"><ele>146</ele></trkpt>
<trkpt lat="35.144790" lon="135.496554"><ele>150</ele></trkpt>
<trkpt lat="35.145264" lon="135.496058"><ele>154</ele></trkpt>
<trkpt lat="35.145973" lon="135.495765"><ele>157</ele></trkpt>
<trkpt lat="35.146474" lon="135.496026"><ele>157</ele></trkpt>
<trkpt lat="35.146934" lon="135.496509"><ele>156</ele></trkpt>
<trkpt lat="35.147297" lon="135.497527"><ele>155</ele></trkpt>
<trkpt lat="35.147430" lon="135.498811"><ele>154</ele></trkpt>
<trkpt lat="35.147263" lon="135.499730"><ele>154</ele></trkpt>
<trkpt lat="35.146791" lon="135.500955"><ele>156</ele></trkpt>
<trkpt lat="35.146274" lon="135.501708"><ele>153</ele></trkpt>
<trkpt lat="35.145666" lon="135.502098"><ele>151</ele></trkpt>
<trkpt lat="35.144117" lon="135.501720"><ele>149</ele></trkpt>
<trkpt lat="35.143515" lon="135.501667"><ele>146</ele></trkpt>
<trkpt lat="35.143003" lon="135.502063"><ele>144</ele></trkpt>
<trkpt lat="35.142836" lon="135.502751"><ele>146</ele></trkpt>
<trkpt lat="35.143401" lon="135.504345"><ele>148</ele></trkpt>
<trkpt lat="35.143626" lon="135.505378"><ele>149</ele></trkpt>
<trkpt lat="35.143840" lon="135.506024"><ele>149</ele></trkpt>
<trkpt lat="35.144278" lon="135.506526"><ele>148</ele></trkpt>
<trkpt lat="35.144856" lon="135.506754"><ele>148</ele></trkpt>
<trkpt lat="35.145455" lon="135.506657"><ele>148</ele></trkpt>
<trkpt lat="35.146204" lon="135.506320"><ele>149</ele></trkpt>
<trkpt lat="35.146761" lon="135.505988"><ele>150</ele></trkpt>
<trkpt lat="35.147527" lon="135.505396"><ele>150</ele></trkpt>
<trkpt lat="35.148148" lon="135.505086"><ele>148</ele></trkpt>
<trkpt lat="35.148965" lon="135.504959"><ele>146</ele></trkpt>
<trkpt lat="35.151566" lon="135.504573"><ele>143</ele></trkpt>
<trkpt lat="35.152112" lon="135.504927"><ele>142</ele></trkpt>
<trkpt lat="35.152898" lon="135.505756"><ele>144</ele></trkpt>
<trkpt lat="35.153318" lon="135.506617"><ele>146</ele></trkpt>
<trkpt lat="35.153662" lon="135.507699"><ele>148</ele></trkpt>
<trkpt lat="35.153834" lon="135.508340"><ele>150</ele></trkpt>
<trkpt lat="35.154009" lon="135.509321"><ele>152</ele></trkpt>
<trkpt lat="35.154190" lon="135.511096"><ele>153</ele></trkpt>
<trkpt lat="35.154309" lon="135.512236"><ele>155</ele></trkpt>
<trkpt lat="35.154389" lon="135.512943"><ele>157</ele></trkpt>
<trkpt lat="35.154364" lon="135.513572"><ele>160</ele></trkpt>
<trkpt lat="35.153804" lon="135.513527"><ele>163</ele></trkpt>
<trkpt lat="35.153483" lon="135.513937"><ele>166</ele></trkpt>
<trkpt lat="35.153270" lon="135.514648"><ele>167</ele></trkpt>
<trkpt lat="35.152792" lon="135.515297"><ele>169</ele></trkpt>
<trkpt lat="35.152102" lon="135.515649"><ele>171</ele></trkpt>
<trkpt lat="35.150642" lon="135.515589"><ele>175</ele></trkpt>
<trkpt lat="35.149889" lon="135.515509"><ele>181</ele></trkpt>
<trkpt lat="35.149318" lon="135.515364"><ele>188</ele></trkpt>
<trkpt lat="35.148681" lon="135.515341"><ele>198</ele></trkpt>
<trkpt lat="35.148031" lon="135.515406"><ele>201</ele></trkpt>
<trkpt lat="35.147212" lon="135.515549"><ele>203</ele></trkpt>
<trkpt lat="35.147458" lon="135.516920"><ele>205</ele></trkpt>
<trkpt lat="35.148403" lon="135.519608"><ele>203</ele></trkpt>
<trkpt lat="35.148666" lon="135.520275"><ele>199</ele></trkpt>
<trkpt lat="35.148908" lon="135.519360"><ele>200</ele></trkpt>
<trkpt lat="35.149519" lon="135.519555"><ele>201</ele></trkpt>
<trkpt lat="35.149884" lon="135.520090"><ele>200</ele></trkpt>
<trkpt lat="35.150337" lon="135.519783"><ele>199</ele></trkpt>
<trkpt lat="35.150816" lon="135.519811"><ele>196</ele></trkpt>
<trkpt lat="35.150940" lon="135.519154"><ele>194</ele></trkpt>
<trkpt lat="35.151626" lon="135.518913"><ele>189</ele></trkpt>
<trkpt lat="35.152048" lon="135.519293"><ele>180</ele></trkpt>
<trkpt lat="35.152233" lon="135.518730"><ele>173</ele></trkpt>
<trkpt lat="35.151821" lon="135.518338"><ele>167</ele></trkpt>
<trkpt lat="35.152249" lon="135.517750"><ele>158</ele></trkpt>
<trkpt lat="35.152907" lon="135.516447"><ele>156</ele></trkpt>
<trkpt lat="35.153257" lon="135.515869"><ele>156</ele></trkpt>
<trkpt lat="35.153055" lon="135.515317"><ele>160</ele></trkpt>
<trkpt lat="35.153377" lon="135.514688"><ele>163</ele></trkpt>
<trkpt lat="35.153462" lon="135.514058"><ele>164</ele></trkpt>
<trkpt lat="35.153705" lon="135.513498"><ele>166</ele></trkpt>
<trkpt lat="35.154364" lon="135.513572"><ele>167</ele></trkpt>
<trkpt lat="35.155279" lon="135.513425"><ele>169</ele></trkpt>
<trkpt lat="35.155916" lon="135.513477"><ele>171</ele></trkpt>
<trkpt lat="35.156404" lon="135.513763"><ele>175</ele></trkpt>
<trkpt lat="35.157044" lon="135.513927"><ele>176</ele></trkpt>
<trkpt lat="35.157739" lon="135.513887"><ele>176</ele></trkpt>
<trkpt lat="35.158332" lon="135.514575"><ele>176</ele></trkpt>
<trkpt lat="35.158784" lon="135.514981"><ele>175</ele></trkpt>
<trkpt lat="35.159352" lon="135.515064"><ele>177</ele></trkpt>
<trkpt lat="35.160035" lon="135.514997"><ele>177</ele></trkpt>
<trkpt lat="35.160699" lon="135.514793"><ele>177</ele></trkpt>
<trkpt lat="35.161692" lon="135.514329"><ele>177</ele></trkpt>
<trkpt lat="35.162247" lon="135.514768"><ele>177</ele></trkpt>
<trkpt lat="35.162875" lon="135.514987"><ele>175</ele></trkpt>
<trkpt lat="35.163324" lon="135.515477"><ele>175</ele></trkpt>
<trkpt lat="35.163489" lon="135.516475"><ele>174</ele></trkpt>
<trkpt lat="35.163639" lon="135.517172"><ele>176</ele></trkpt>
<trkpt lat="35.164280" lon="135.518821"><ele>177</ele></trkpt>
<trkpt lat="35.163803" lon="135.520888"><ele>180</ele></trkpt>
<trkpt lat="35.163570" lon="135.521568"><ele>182</ele></trkpt>
<trkpt lat="35.163749" lon="135.522494"><ele>185</ele></trkpt>
<trkpt lat="35.164050" lon="135.523070"><ele>187</ele></trkpt>
<trkpt lat="35.165183" lon="135.523393"><ele>188</ele></trkpt>
<trkpt lat="35.165815" lon="135.523698"><ele>188</ele></trkpt>
<trkpt lat="35.166830" lon="135.525864"><ele>188</ele></trkpt>
<trkpt lat="35.167654" lon="135.527044"><ele>187</ele></trkpt>
<trkpt lat="35.168808" lon="135.527632"><ele>187</ele></trkpt>
<trkpt lat="35.169435" lon="135.527779"><ele>187</ele></trkpt>
<trkpt lat="35.170053" lon="135.527702"><ele>189</ele></trkpt>
<trkpt lat="35.170705" lon="135.527503"><ele>193</ele></trkpt>
<trkpt lat="35.171445" lon="135.527738"><ele>196</ele></trkpt>
<trkpt lat="35.171928" lon="135.528047"><ele>201</ele></trkpt>
<trkpt lat="35.172394" lon="135.528539"><ele>205</ele></trkpt>
<trkpt lat="35.173000" lon="135.528821"><ele>205</ele></trkpt>
<trkpt lat="35.173491" lon="135.529077"><ele>205</ele></trkpt>
<trkpt lat="35.174509" lon="135.530313"><ele>206</ele></trkpt>
<trkpt lat="35.175067" lon="135.530468"><ele>205</ele></trkpt>
<trkpt lat="35.175619" lon="135.530315"><ele>205</ele></trkpt>
<trkpt lat="35.176598" lon="135.530832"><ele>208</ele></trkpt>
<trkpt lat="35.177186" lon="135.530938"><ele>208</ele></trkpt>
<trkpt lat="35.177780" lon="135.530796"><ele>209</ele></trkpt>
<trkpt lat="35.178316" lon="135.531138"><ele>211</ele></trkpt>
<trkpt lat="35.178784" lon="135.531600"><ele>211</ele></trkpt>
<trkpt lat="35.179088" lon="135.532484"><ele>212</ele></trkpt>
<trkpt lat="35.179070" lon="135.533165"><ele>214</ele></trkpt>
<trkpt lat="35.180452" lon="135.534138"><ele>214</ele></trkpt>
<trkpt lat="35.180874" lon="135.534581"><ele>213</ele></trkpt>
<trkpt lat="35.181890" lon="135.536126"><ele>215</ele></trkpt>
<trkpt lat="35.182603" lon="135.537027"><ele>217</ele></trkpt>
<trkpt lat="35.183405" lon="135.537487"><ele>219</ele></trkpt>
<trkpt lat="35.184012" lon="135.538302"><ele>221</ele></trkpt>
<trkpt lat="35.184868" lon="135.539880"><ele>223</ele></trkpt>
<trkpt lat="35.185158" lon="135.540833"><ele>224</ele></trkpt>
<trkpt lat="35.185467" lon="135.541469"><ele>225</ele></trkpt>
<trkpt lat="35.185672" lon="135.542107"><ele>226</ele></trkpt>
<trkpt lat="35.185623" lon="135.542910"><ele>228</ele></trkpt>
<trkpt lat="35.185474" lon="135.544238"><ele>231</ele></trkpt>
<trkpt lat="35.185527" lon="135.544887"><ele>235</ele></trkpt>
<trkpt lat="35.185738" lon="135.545507"><ele>240</ele></trkpt>
<trkpt lat="35.185888" lon="135.546137"><ele>244</ele></trkpt>
<trkpt lat="35.186395" lon="135.546559"><ele>250</ele></trkpt>
<trkpt lat="35.186902" lon="135.546872"><ele>256</ele></trkpt>
<trkpt lat="35.187330" lon="135.547325"><ele>260</ele></trkpt>
<trkpt lat="35.187937" lon="135.548061"><ele>263</ele></trkpt>
<trkpt lat="35.188307" lon="135.548696"><ele>267</ele></trkpt>
<trkpt lat="35.188514" lon="135.549315"><ele>272</ele></trkpt>
<trkpt lat="35.188652" lon="135.550716"><ele>277</ele></trkpt>
<trkpt lat="35.188742" lon="135.551701"><ele>284</ele></trkpt>
<trkpt lat="35.188555" lon="135.552292"><ele>290</ele></trkpt>
<trkpt lat="35.188532" lon="135.553400"><ele>294</ele></trkpt>
<trkpt lat="35.188518" lon="135.553437"><ele>296</ele></trkpt>
</trkseg></trk>
</gpx>
