<?xml version="1.0" encoding="UTF-8"?>
<gpx version="1.1" creator="Japonya Bisiklet Turu" xmlns="http://www.topografix.com/GPX/1/1">
<wpt lat="35.189000" lon="135.553700"><name>Toricotoya</name></wpt>
<wpt lat="35.277100" lon="135.588000"><name>Fureai Hiroba</name></wpt>
<wpt lat="35.314300" lon="135.622600"><name>Kita · Matabe</name></wpt>
<trk><name>Gün 9 · Nantan – Miyama</name><trkseg>
<trkpt lat="35.188518" lon="135.553437"><ele>292</ele></trkpt>
<trkpt lat="35.188544" lon="135.552416"><ele>288</ele></trkpt>
<trkpt lat="35.188742" lon="135.551701"><ele>285</ele></trkpt>
<trkpt lat="35.188652" lon="135.550716"><ele>278</ele></trkpt>
<trkpt lat="35.188549" lon="135.549871"><ele>273</ele></trkpt>
<trkpt lat="35.188455" lon="135.549171"><ele>268</ele></trkpt>
<trkpt lat="35.188200" lon="135.548571"><ele>264</ele></trkpt>
<trkpt lat="35.187330" lon="135.547325"><ele>260</ele></trkpt>
<trkpt lat="35.186902" lon="135.546872"><ele>255</ele></trkpt>
<trkpt lat="35.186395" lon="135.546559"><ele>250</ele></trkpt>
<trkpt lat="35.185918" lon="135.546239"><ele>245</ele></trkpt>
<trkpt lat="35.185738" lon="135.545507"><ele>240</ele></trkpt>
<trkpt lat="35.185527" lon="135.544887"><ele>237</ele></trkpt>
<trkpt lat="35.185474" lon="135.544238"><ele>233</ele></trkpt>
<trkpt lat="35.185463" lon="135.543497"><ele>230</ele></trkpt>
<trkpt lat="35.185674" lon="135.542629"><ele>230</ele></trkpt>
<trkpt lat="35.186134" lon="135.542546"><ele>229</ele></trkpt>
<trkpt lat="35.186701" lon="135.542709"><ele>227</ele></trkpt>
<trkpt lat="35.187461" lon="135.542825"><ele>229</ele></trkpt>
<trkpt lat="35.188095" lon="135.542729"><ele>231</ele></trkpt>
<trkpt lat="35.188705" lon="135.542926"><ele>232</ele></trkpt>
<trkpt lat="35.189808" lon="135.542999"><ele>233</ele></trkpt>
<trkpt lat="35.190556" lon="135.542950"><ele>237</ele></trkpt>
<trkpt lat="35.191363" lon="135.543182"><ele>239</ele></trkpt>
<trkpt lat="35.192288" lon="135.543610"><ele>243</ele></trkpt>
<trkpt lat="35.193268" lon="135.544208"><ele>245</ele></trkpt>
<trkpt lat="35.193831" lon="135.544516"><ele>246</ele></trkpt>
<trkpt lat="35.194143" lon="135.545142"><ele>247</ele></trkpt>
<trkpt lat="35.194269" lon="135.545875"><ele>248</ele></trkpt>
<trkpt lat="35.194859" lon="135.546742"><ele>249</ele></trkpt>
<trkpt lat="35.195158" lon="135.547349"><ele>249</ele></trkpt>
<trkpt lat="35.195469" lon="135.548380"><ele>252</ele></trkpt>
<trkpt lat="35.195639" lon="135.549054"><ele>256</ele></trkpt>
<trkpt lat="35.196138" lon="135.549357"><ele>262</ele></trkpt>
<trkpt lat="35.196962" lon="135.549453"><ele>268</ele></trkpt>
<trkpt lat="35.197572" lon="135.549665"><ele>276</ele></trkpt>
<trkpt lat="35.198272" lon="135.549655"><ele>285</ele></trkpt>
<trkpt lat="35.199350" lon="135.549810"><ele>291</ele></trkpt>
<trkpt lat="35.199808" lon="135.550391"><ele>296</ele></trkpt>
<trkpt lat="35.200016" lon="135.551162"><ele>301</ele></trkpt>
<trkpt lat="35.200516" lon="135.551523"><ele>302</ele></trkpt>
<trkpt lat="35.201554" lon="135.550868"><ele>301</ele></trkpt>
<trkpt lat="35.203524" lon="135.548611"><ele>298</ele></trkpt>
<trkpt lat="35.203879" lon="135.547896"><ele>291</ele></trkpt>
<trkpt lat="35.203879" lon="135.547198"><ele>283</ele></trkpt>
<trkpt lat="35.204342" lon="135.546699"><ele>276</ele></trkpt>
<trkpt lat="35.204047" lon="135.546062"><ele>267</ele></trkpt>
<trkpt lat="35.203781" lon="135.545387"><ele>259</ele></trkpt>
<trkpt lat="35.204015" lon="135.544636"><ele>251</ele></trkpt>
<trkpt lat="35.204857" lon="135.543812"><ele>241</ele></trkpt>
<trkpt lat="35.205531" lon="135.543093"><ele>230</ele></trkpt>
<trkpt lat="35.206063" lon="135.542619"><ele>221</ele></trkpt>
<trkpt lat="35.206485" lon="135.541961"><ele>213</ele></trkpt>
<trkpt lat="35.206908" lon="135.542191"><ele>208</ele></trkpt>
<trkpt lat="35.207156" lon="135.542775"><ele>207</ele></trkpt>
<trkpt lat="35.207118" lon="135.543574"><ele>207</ele></trkpt>
<trkpt lat="35.207250" lon="135.544522"><ele>209</ele></trkpt>
<trkpt lat="35.207686" lon="135.545277"><ele>210</ele></trkpt>
<trkpt lat="35.207931" lon="135.545872"><ele>212</ele></trkpt>
<trkpt lat="35.208042" lon="135.546564"><ele>212</ele></trkpt>
<trkpt lat="35.208104" lon="135.547260"><ele>213</ele></trkpt>
<trkpt lat="35.208456" lon="135.547909"><ele>214</ele></trkpt>
<trkpt lat="35.208702" lon="135.548510"><ele>215</ele></trkpt>
<trkpt lat="35.208902" lon="135.549287"><ele>216</ele></trkpt>
<trkpt lat="35.208990" lon="135.550454"><ele>217</ele></trkpt>
<trkpt lat="35.209148" lon="135.551173"><ele>217</ele></trkpt>
<trkpt lat="35.209590" lon="135.551819"><ele>217</ele></trkpt>
<trkpt lat="35.210683" lon="135.551397"><ele>216</ele></trkpt>
<trkpt lat="35.210940" lon="135.552156"><ele>215</ele></trkpt>
<trkpt lat="35.211659" lon="135.552455"><ele>215</ele></trkpt>
<trkpt lat="35.212876" lon="135.553456"><ele>216</ele></trkpt>
<trkpt lat="35.213476" lon="135.554085"><ele>218</ele></trkpt>
<trkpt lat="35.213714" lon="135.554728"><ele>219</ele></trkpt>
<trkpt lat="35.213785" lon="135.555741"><ele>221</ele></trkpt>
<trkpt lat="35.213510" lon="135.556611"><ele>221</ele></trkpt>
<trkpt lat="35.212914" lon="135.557473"><ele>221</ele></trkpt>
<trkpt lat="35.212100" lon="135.558402"><ele>222</ele></trkpt>
<trkpt lat="35.211818" lon="135.559012"><ele>222</ele></trkpt>
<trkpt lat="35.211981" lon="135.559690"><ele>222</ele></trkpt>
<trkpt lat="35.212610" lon="135.560113"><ele>222</ele></trkpt>
<trkpt lat="35.213196" lon="135.561062"><ele>223</ele></trkpt>
<trkpt lat="35.213321" lon="135.561896"><ele>224</ele></trkpt>
<trkpt lat="35.213216" lon="135.562571"><ele>225</ele></trkpt>
<trkpt lat="35.212726" lon="135.563282"><ele>230</ele></trkpt>
<trkpt lat="35.212334" lon="135.564009"><ele>235</ele></trkpt>
<trkpt lat="35.211846" lon="135.565115"><ele>238</ele></trkpt>
<trkpt lat="35.211332" lon="135.566237"><ele>240</ele></trkpt>
<trkpt lat="35.211008" lon="135.566991"><ele>242</ele></trkpt>
<trkpt lat="35.210577" lon="135.567954"><ele>240</ele></trkpt>
<trkpt lat="35.210451" lon="135.568630"><ele>236</ele></trkpt>
<trkpt lat="35.210602" lon="135.570069"><ele>238</ele></trkpt>
<trkpt lat="35.210651" lon="135.570833"><ele>242</ele></trkpt>
<trkpt lat="35.211815" lon="135.570706"><ele>246</ele></trkpt>
<trkpt lat="35.212545" lon="135.570369"><ele>252</ele></trkpt>
<trkpt lat="35.213207" lon="135.569919"><ele>260</ele></trkpt>
<trkpt lat="35.213710" lon="135.569635"><ele>264</ele></trkpt>
<trkpt lat="35.214248" lon="135.569434"><ele>268</ele></trkpt>
<trkpt lat="35.214854" lon="135.569326"><ele>271</ele></trkpt>
<trkpt lat="35.215394" lon="135.569302"><ele>274</ele></trkpt>
<trkpt lat="35.215956" lon="135.569368"><ele>275</ele></trkpt>
<trkpt lat="35.216997" lon="135.569558"><ele>276</ele></trkpt>
<trkpt lat="35.218052" lon="135.569856"><ele>278</ele></trkpt>
<trkpt lat="35.218633" lon="135.570043"><ele>280</ele></trkpt>
<trkpt lat="35.219419" lon="135.570407"><ele>283</ele></trkpt>
<trkpt lat="35.219896" lon="135.570781"><ele>288</ele></trkpt>
<trkpt lat="35.220459" lon="135.571271"><ele>291</ele></trkpt>
<trkpt lat="35.221021" lon="135.571625"><ele>287</ele></trkpt>
<trkpt lat="35.221593" lon="135.571907"><ele>282</ele></trkpt>
<trkpt lat="35.229493" lon="135.574180"><ele>274</ele></trkpt>
<trkpt lat="35.230273" lon="135.574213"><ele>266</ele></trkpt>
<trkpt lat="35.230806" lon="135.573913"><ele>259</ele></trkpt>
<trkpt lat="35.231185" lon="135.573426"><ele>257</ele></trkpt>
<trkpt lat="35.231468" lon="135.573483"><ele>254</ele></trkpt>
<trkpt lat="35.231082" lon="135.573187"><ele>252</ele></trkpt>
<trkpt lat="35.230843" lon="135.572608"><ele>252</ele></trkpt>
<trkpt lat="35.230836" lon="135.571903"><ele>251</ele></trkpt>
<trkpt lat="35.230576" lon="135.571376"><ele>252</ele></trkpt>
<trkpt lat="35.230809" lon="135.570786"><ele>252</ele></trkpt>
<trkpt lat="35.231267" lon="135.569470"><ele>251</ele></trkpt>
<trkpt lat="35.231795" lon="135.569143"><ele>248</ele></trkpt>
<trkpt lat="35.232310" lon="135.568770"><ele>244</ele></trkpt>
<trkpt lat="35.232821" lon="135.568476"><ele>241</ele></trkpt>
<trkpt lat="35.233126" lon="135.567883"><ele>240</ele></trkpt>
<trkpt lat="35.233072" lon="135.567210"><ele>240</ele></trkpt>
<trkpt lat="35.233308" lon="135.566430"><ele>240</ele></trkpt>
<trkpt lat="35.233737" lon="135.565974"><ele>240</ele></trkpt>
<trkpt lat="35.234199" lon="135.565297"><ele>240</ele></trkpt>
<trkpt lat="35.235308" lon="135.564164"><ele>238</ele></trkpt>
<trkpt lat="35.235832" lon="135.563629"><ele>236</ele></trkpt>
<trkpt lat="35.236317" lon="135.563327"><ele>234</ele></trkpt>
<trkpt lat="35.236871" lon="135.563084"><ele>233</ele></trkpt>
<trkpt lat="35.237499" lon="135.563021"><ele>230</ele></trkpt>
<trkpt lat="35.238126" lon="135.562750"><ele>230</ele></trkpt>
<trkpt lat="35.238723" lon="135.562593"><ele>230</ele></trkpt>
<trkpt lat="35.239750" lon="135.561460"><ele>230</ele></trkpt>
<trkpt lat="35.240287" lon="135.561138"><ele>229</ele></trkpt>
<trkpt lat="35.241003" lon="135.561014"><ele>228</ele></trkpt>
<trkpt lat="35.241592" lon="135.560866"><ele>225</ele></trkpt>
<trkpt lat="35.242024" lon="135.560098"><ele>223</ele></trkpt>
<trkpt lat="35.242675" lon="135.559992"><ele>222</ele></trkpt>
<trkpt lat="35.243238" lon="135.560101"><ele>223</ele></trkpt>
<trkpt lat="35.243898" lon="135.560280"><ele>223</ele></trkpt>
<trkpt lat="35.244450" lon="135.560390"><ele>224</ele></trkpt>
<trkpt lat="35.245134" lon="135.560187"><ele>224</ele></trkpt>
<trkpt lat="35.245652" lon="135.560008"><ele>224</ele></trkpt>
<trkpt lat="35.246492" lon="135.560107"><ele>222</ele></trkpt>
<trkpt lat="35.247394" lon="135.560432"><ele>221</ele></trkpt>
<trkpt lat="35.247825" lon="135.560866"><ele>221</ele></trkpt>
<trkpt lat="35.248175" lon="135.561420"><ele>219</ele></trkpt>
<trkpt lat="35.248502" lon="135.561957"><ele>217</ele></trkpt>
<trkpt lat="35.248992" lon="135.562495"><ele>214</ele></trkpt>
<trkpt lat="35.249660" lon="135.562770"><ele>212</ele></trkpt>
<trkpt lat="35.250201" lon="135.562879"><ele>210</ele></trkpt>
<trkpt lat="35.250787" lon="135.562835"><ele>208</ele></trkpt>
<trkpt lat="35.251498" lon="135.562824"><ele>208</ele></trkpt>
<trkpt lat="35.252165" lon="135.562660"><ele>207</ele></trkpt>
<trkpt lat="35.252910" lon="135.563023"><ele>207</ele></trkpt>
<trkpt lat="35.253875" lon="135.563666"><ele>208</ele></trkpt>
<trkpt lat="35.255529" lon="135.564823"><ele>210</ele></trkpt>
<trkpt lat="35.256012" lon="135.565315"><ele>211</ele></trkpt>
<trkpt lat="35.256474" lon="135.566218"><ele>214</ele></trkpt>
<trkpt lat="35.256691" lon="135.567175"><ele>215</ele></trkpt>
<trkpt lat="35.256790" lon="135.568013"><ele>213</ele></trkpt>
<trkpt lat="35.257226" lon="135.568967"><ele>212</ele></trkpt>
<trkpt lat="35.257669" lon="135.569489"><ele>211</ele></trkpt>
<trkpt lat="35.258224" lon="135.569822"><ele>208</ele></trkpt>
<trkpt lat="35.259320" lon="135.571063"><ele>207</ele></trkpt>
<trkpt lat="35.260443" lon="135.571722"><ele>208</ele></trkpt>
<trkpt lat="35.261737" lon="135.571952"><ele>210</ele></trkpt>
<trkpt lat="35.262307" lon="135.572098"><ele>210</ele></trkpt>
<trkpt lat="35.262822" lon="135.572314"><ele>211</ele></trkpt>
<trkpt lat="35.263302" lon="135.572823"><ele>211</ele></trkpt>
<trkpt lat="35.263861" lon="135.573016"><ele>211</ele></trkpt>
<trkpt lat="35.264305" lon="135.572486"><ele>212</ele></trkpt>
<trkpt lat="35.264793" lon="135.572857"><ele>214</ele></trkpt>
<trkpt lat="35.265260" lon="135.573254"><ele>215</ele></trkpt>
<trkpt lat="35.266335" lon="135.571944"><ele>218</ele></trkpt>
<trkpt lat="35.267678" lon="135.571501"><ele>220</ele></trkpt>
<trkpt lat="35.268560" lon="135.572013"><ele>221</ele></trkpt>
<trkpt lat="35.268905" lon="135.572527"><ele>221</ele></trkpt>
<trkpt lat="35.269470" lon="135.574554"><ele>219</ele></trkpt>
<trkpt lat="35.269840" lon="135.575346"><ele>217</ele></trkpt>
<trkpt lat="35.269967" lon="135.575908"><ele>215</ele></trkpt>
<trkpt lat="35.270086" lon="135.576828"><ele>213</ele></trkpt>
<trkpt lat="35.270512" lon="135.577628"><ele>214</ele></trkpt>
<trkpt lat="35.270843" lon="135.578236"><ele>216</ele></trkpt>
<trkpt lat="35.271203" lon="135.579268"><ele>218</ele></trkpt>
<trkpt lat="35.271335" lon="135.579993"><ele>223</ele></trkpt>
<trkpt lat="35.271138" lon="135.580722"><ele>227</ele></trkpt>
<trkpt lat="35.271113" lon="135.581478"><ele>231</ele></trkpt>
<trkpt lat="35.271504" lon="135.582473"><ele>236</ele></trkpt>
<trkpt lat="35.271623" lon="135.583131"><ele>240</ele></trkpt>
<trkpt lat="35.271882" lon="135.583834"><ele>242</ele></trkpt>
<trkpt lat="35.271747" lon="135.584616"><ele>243</ele></trkpt>
<trkpt lat="35.271817" lon="135.585359"><ele>244</ele></trkpt>
<trkpt lat="35.271952" lon="135.586086"><ele>244</ele></trkpt>
<trkpt lat="35.271978" lon="135.586894"><ele>240</ele></trkpt>
<trkpt lat="35.272365" lon="135.587186"><ele>237</ele></trkpt>
<trkpt lat="35.272899" lon="135.587660"><ele>235</ele></trkpt>
<trkpt lat="35.273137" lon="135.588345"><ele>230</ele></trkpt>
<trkpt lat="35.273197" lon="135.589121"><ele>228</ele></trkpt>
<trkpt lat="35.273807" lon="135.590237"><ele>226</ele></trkpt>
<trkpt lat="35.274181" lon="135.590776"><ele>225</ele></trkpt>
<trkpt lat="35.274538" lon="135.590778"><ele>223</ele></trkpt>
<trkpt lat="35.275197" lon="135.590752"><ele>223</ele></trkpt>
<trkpt lat="35.275858" lon="135.590803"><ele>223</ele></trkpt>
<trkpt lat="35.276413" lon="135.591012"><ele>224</ele></trkpt>
<trkpt lat="35.276908" lon="135.591575"><ele>223</ele></trkpt>
<trkpt lat="35.277267" lon="135.592283"><ele>222</ele></trkpt>
<trkpt lat="35.277693" lon="135.592634"><ele>221</ele></trkpt>
<trkpt lat="35.278261" lon="135.591957"><ele>220</ele></trkpt>
<trkpt lat="35.278608" lon="135.591111"><ele>219</ele></trkpt>
<trkpt lat="35.278273" lon="135.590625"><ele>217</ele></trkpt>
<trkpt lat="35.277921" lon="135.590077"><ele>217</ele></trkpt>
<trkpt lat="35.277466" lon="135.589319"><ele>217</ele></trkpt>
<trkpt lat="35.276973" lon="135.588737"><ele>218</ele></trkpt>
<trkpt lat="35.277680" lon="135.588403"><ele>217</ele></trkpt>
<trkpt lat="35.277971" lon="135.587918"><ele>218</ele></trkpt>
<trkpt lat="35.277263" lon="135.588258"><ele>220</ele></trkpt>
<trkpt lat="35.277761" lon="135.587791"><ele>221</ele></trkpt>
<trkpt lat="35.277999" lon="135.588365"><ele>220</ele></trkpt>
<trkpt lat="35.278020" lon="135.589288"><ele>223</ele></trkpt>
<trkpt lat="35.278490" lon="135.590143"><ele>224</ele></trkpt>
<trkpt lat="35.279104" lon="135.590464"><ele>226</ele></trkpt>
<trkpt lat="35.279839" lon="135.590808"><ele>229</ele></trkpt>
<trkpt lat="35.280372" lon="135.590652"><ele>231</ele></trkpt>
<trkpt lat="35.281113" lon="135.591563"><ele>232</ele></trkpt>
<trkpt lat="35.281811" lon="135.592184"><ele>235</ele></trkpt>
<trkpt lat="35.282202" lon="135.592889"><ele>237</ele></trkpt>
<trkpt lat="35.282759" lon="135.593042"><ele>239</ele></trkpt>
<trkpt lat="35.283251" lon="135.593347"><ele>241</ele></trkpt>
<trkpt lat="35.283694" lon="135.593961"><ele>246</ele></trkpt>
<trkpt lat="35.284287" lon="135.594321"><ele>247</ele></trkpt>
<trkpt lat="35.284865" lon="135.594295"><ele>247</ele></trkpt>
<trkpt lat="35.285524" lon="135.594442"><ele>247</ele></trkpt>
<trkpt lat="35.285950" lon="135.594940"><ele>246</ele></trkpt>
<trkpt lat="35.286705" lon="135.596527"><ele>245</ele></trkpt>
<trkpt lat="35.286933" lon="135.597399"><ele>243</ele></trkpt>
<trkpt lat="35.287807" lon="135.598914"><ele>240</ele></trkpt>
<trkpt lat="35.288755" lon="135.599638"><ele>237</ele></trkpt>
<trkpt lat="35.289770" lon="135.599828"><ele>233</ele></trkpt>
<trkpt lat="35.290404" lon="135.600070"><ele>228</ele></trkpt>
<trkpt lat="35.290993" lon="135.600574"><ele>227</ele></trkpt>
<trkpt lat="35.291569" lon="135.600792"><ele>229</ele></trkpt>
<trkpt lat="35.292292" lon="135.600841"><ele>231</ele></trkpt>
<trkpt lat="35.293486" lon="135.601179"><ele>236</ele></trkpt>
<trkpt lat="35.294263" lon="135.601743"><ele>240</ele></trkpt>
<trkpt lat="35.294806" lon="135.602282"><ele>242</ele></trkpt>
<trkpt lat="35.295295" lon="135.602625"><ele>242</ele></trkpt>
<trkpt lat="35.296182" lon="135.603105"><ele>241</ele></trkpt>
<trkpt lat="35.296916" lon="135.604370"><ele>240</ele></trkpt>
<trkpt lat="35.296762" lon="135.604901"><ele>239</ele></trkpt>
<trkpt lat="35.297031" lon="135.605634"><ele>239</ele></trkpt>
<trkpt lat="35.297329" lon="135.606332"><ele>238</ele></trkpt>
<trkpt lat="35.297904" lon="135.606723"><ele>237</ele></trkpt>
<trkpt lat="35.297977" lon="135.607645"><ele>234</ele></trkpt>
<trkpt lat="35.298007" lon="135.608328"><ele>234</ele></trkpt>
<trkpt lat="35.298118" lon="135.609434"><ele>236</ele></trkpt>
<trkpt lat="35.298212" lon="135.610222"><ele>237</ele></trkpt>
<trkpt lat="35.297971" lon="135.610932"><ele>239</ele></trkpt>
<trkpt lat="35.297565" lon="135.611400"><ele>241</ele></trkpt>
<trkpt lat="35.297131" lon="135.611751"><ele>241</ele></trkpt>
<trkpt lat="35.296761" lon="135.612253"><ele>240</ele></trkpt>
<trkpt lat="35.296481" lon="135.613155"><ele>241</ele></trkpt>
<trkpt lat="35.296194" lon="135.613676"><ele>242</ele></trkpt>
<trkpt lat="35.296423" lon="135.614553"><ele>246</ele></trkpt>
<trkpt lat="35.297119" lon="135.615377"><ele>251</ele></trkpt>
<trkpt lat="35.298333" lon="135.615128"><ele>257</ele></trkpt>
<trkpt lat="35.299375" lon="135.614470"><ele>261</ele></trkpt>
<trkpt lat="35.301157" lon="135.614381"><ele>263</ele></trkpt>
<trkpt lat="35.301735" lon="135.614456"><ele>263</ele></trkpt>
<trkpt lat="35.302534" lon="135.614814"><ele>261</ele></trkpt>
<trkpt lat="35.303444" lon="135.615753"><ele>259</ele></trkpt>
<trkpt lat="35.304202" lon="135.616706"><ele>258</ele></trkpt>
<trkpt lat="35.304439" lon="135.619257"><ele>259</ele></trkpt>
<trkpt lat="35.304951" lon="135.620316"><ele>260</ele></trkpt>
<trkpt lat="35.304889" lon="135.621125"><ele>261</ele></trkpt>
<trkpt lat="35.304957" lon="135.621902"><ele>261</ele></trkpt>
<trkpt lat="35.305241" lon="135.622470"><ele>257</ele></trkpt>
<trkpt lat="35.305290" lon="135.623097"><ele>253</ele></trkpt>
<trkpt lat="35.305186" lon="135.623976"><ele>250</ele></trkpt>
<trkpt lat="35.305333" lon="135.625054"><ele>249</ele></trkpt>
<trkpt lat="35.305608" lon="135.625716"><ele>249</ele></trkpt>
<trkpt lat="35.306157" lon="135.625973"><ele>251</ele></trkpt>
<trkpt lat="35.306799" lon="135.625938"><ele>254</ele></trkpt>
<trkpt lat="35.307374" lon="135.625177"><ele>256</ele></trkpt>
<trkpt lat="35.308264" lon="135.624646"><ele>256</ele></trkpt>
<trkpt lat="35.308773" lon="135.623948"><ele>256</ele></trkpt>
<trkpt lat="35.309217" lon="135.623553"><ele>255</ele></trkpt>
<trkpt lat="35.310255" lon="135.623629"><ele>252</ele></trkpt>
<trkpt lat="35.311209" lon="135.623505"><ele>250</ele></trkpt>
<trkpt lat="35.311907" lon="135.622906"><ele>249</ele></trkpt>
<trkpt lat="35.312222" lon="135.623356"><ele>248</ele></trkpt>
<trkpt lat="35.312622" lon="135.623466"><ele>251</ele></trkpt>
<trkpt lat="35.313386" lon="135.623327"><ele>258</ele></trkpt>
<trkpt lat="35.313926" lon="135.623399"><ele>264</ele></trkpt>
<trkpt lat="35.314481" lon="135.623219"><ele>268</ele></trkpt>
<trkpt lat="35.314313" lon="135.622689"><ele>271</ele></trkpt>
<trkpt lat="35.314291" lon="135.622685"><ele>274</ele></trkpt>
</trkseg></trk>
</gpx>
