<?xml version="1.0" encoding="UTF-8"?>
<gpx version="1.1" creator="Japonya Bisiklet Turu" xmlns="http://www.topografix.com/GPX/1/1">
<wpt lat="35.314300" lon="135.622600"><name>Kita · Matabe</name></wpt>
<wpt lat="35.310700" lon="135.639500"><name>Kajika-sō (öğle)</name></wpt>
<wpt lat="35.310600" lon="135.714100"><name>Ashiu ofisi</name></wpt>
<wpt lat="35.314300" lon="135.622600"><name>Kita · Matabe</name></wpt>
<trk><name>Gün 10 · Ashiu</name><trkseg>
<trkpt lat="35.314291" lon="135.622685"><ele>266</ele></trkpt>
<trkpt lat="35.313878" lon="135.622828"><ele>266</ele></trkpt>
<trkpt lat="35.314023" lon="135.623490"><ele>265</ele></trkpt>
<trkpt lat="35.314041" lon="135.624130"><ele>262</ele></trkpt>
<trkpt lat="35.313581" lon="135.624506"><ele>261</ele></trkpt>
<trkpt lat="35.313123" lon="135.624894"><ele>261</ele></trkpt>
<trkpt lat="35.313041" lon="135.625742"><ele>262</ele></trkpt>
<trkpt lat="35.312908" lon="135.626494"><ele>263</ele></trkpt>
<trkpt lat="35.312680" lon="135.627232"><ele>265</ele></trkpt>
<trkpt lat="35.312087" lon="135.628460"><ele>266</ele></trkpt>
<trkpt lat="35.311748" lon="135.629023"><ele>265</ele></trkpt>
<trkpt lat="35.311239" lon="135.629625"><ele>264</ele></trkpt>
<trkpt lat="35.310891" lon="135.630211"><ele>266</ele></trkpt>
<trkpt lat="35.310899" lon="135.631502"><ele>264</ele></trkpt>
<trkpt lat="35.311254" lon="135.632382"><ele>263</ele></trkpt>
<trkpt lat="35.310642" lon="135.634147"><ele>262</ele></trkpt>
<trkpt lat="35.310406" lon="135.634849"><ele>261</ele></trkpt>
<trkpt lat="35.310432" lon="135.635518"><ele>260</ele></trkpt>
<trkpt lat="35.309746" lon="135.635880"><ele>262</ele></trkpt>
<trkpt lat="35.309017" lon="135.636240"><ele>267</ele></trkpt>
<trkpt lat="35.309087" lon="135.637422"><ele>272</ele></trkpt>
<trkpt lat="35.309162" lon="135.638668"><ele>276</ele></trkpt>
<trkpt lat="35.309482" lon="135.639267"><ele>275</ele></trkpt>
<trkpt lat="35.309877" lon="135.639757"><ele>276</ele></trkpt>
<trkpt lat="35.310418" lon="135.639839"><ele>276</ele></trkpt>
<trkpt lat="35.310760" lon="135.640475"><ele>273</ele></trkpt>
<trkpt lat="35.310933" lon="135.641193"><ele>269</ele></trkpt>
<trkpt lat="35.311405" lon="135.641816"><ele>268</ele></trkpt>
<trkpt lat="35.312337" lon="135.641526"><ele>266</ele></trkpt>
<trkpt lat="35.313319" lon="135.641634"><ele>264</ele></trkpt>
<trkpt lat="35.313309" lon="135.642186"><ele>263</ele></trkpt>
<trkpt lat="35.313071" lon="135.642857"><ele>265</ele></trkpt>
<trkpt lat="35.312912" lon="135.643763"><ele>268</ele></trkpt>
<trkpt lat="35.312904" lon="135.644695"><ele>271</ele></trkpt>
<trkpt lat="35.313097" lon="135.645482"><ele>275</ele></trkpt>
<trkpt lat="35.313437" lon="135.646235"><ele>283</ele></trkpt>
<trkpt lat="35.314242" lon="135.647353"><ele>291</ele></trkpt>
<trkpt lat="35.315012" lon="135.647662"><ele>296</ele></trkpt>
<trkpt lat="35.315563" lon="135.648041"><ele>297</ele></trkpt>
<trkpt lat="35.315922" lon="135.648603"><ele>298</ele></trkpt>
<trkpt lat="35.315770" lon="135.649345"><ele>295</ele></trkpt>
<trkpt lat="35.314962" lon="135.650536"><ele>291</ele></trkpt>
<trkpt lat="35.314859" lon="135.651278"><ele>288</ele></trkpt>
<trkpt lat="35.315083" lon="135.651937"><ele>289</ele></trkpt>
<trkpt lat="35.315653" lon="135.651901"><ele>289</ele></trkpt>
<trkpt lat="35.315997" lon="135.651361"><ele>291</ele></trkpt>
<trkpt lat="35.316582" lon="135.650805"><ele>293</ele></trkpt>
<trkpt lat="35.317890" lon="135.650510"><ele>297</ele></trkpt>
<trkpt lat="35.318487" lon="135.650519"><ele>298</ele></trkpt>
<trkpt lat="35.319172" lon="135.650167"><ele>294</ele></trkpt>
<trkpt lat="35.319761" lon="135.650434"><ele>288</ele></trkpt>
<trkpt lat="35.320110" lon="135.651621"><ele>284</ele></trkpt>
<trkpt lat="35.320120" lon="135.653573"><ele>280</ele></trkpt>
<trkpt lat="35.320660" lon="135.653751"><ele>278</ele></trkpt>
<trkpt lat="35.321091" lon="135.654460"><ele>279</ele></trkpt>
<trkpt lat="35.321111" lon="135.655400"><ele>281</ele></trkpt>
<trkpt lat="35.320784" lon="135.655995"><ele>281</ele></trkpt>
<trkpt lat="35.320469" lon="135.656542"><ele>283</ele></trkpt>
<trkpt lat="35.320025" lon="135.657574"><ele>283</ele></trkpt>
<trkpt lat="35.319584" lon="135.659013"><ele>284</ele></trkpt>
<trkpt lat="35.319549" lon="135.659682"><ele>285</ele></trkpt>
<trkpt lat="35.319682" lon="135.660351"><ele>288</ele></trkpt>
<trkpt lat="35.319508" lon="135.662527"><ele>291</ele></trkpt>
<trkpt lat="35.319321" lon="135.663552"><ele>295</ele></trkpt>
<trkpt lat="35.319307" lon="135.664335"><ele>299</ele></trkpt>
<trkpt lat="35.319380" lon="135.665082"><ele>304</ele></trkpt>
<trkpt lat="35.319362" lon="135.665888"><ele>305</ele></trkpt>
<trkpt lat="35.319947" lon="135.666712"><ele>303</ele></trkpt>
<trkpt lat="35.320417" lon="135.668432"><ele>302</ele></trkpt>
<trkpt lat="35.320919" lon="135.669047"><ele>302</ele></trkpt>
<trkpt lat="35.322070" lon="135.668699"><ele>300</ele></trkpt>
<trkpt lat="35.322688" lon="135.668590"><ele>298</ele></trkpt>
<trkpt lat="35.323370" lon="135.668750"><ele>297</ele></trkpt>
<trkpt lat="35.323929" lon="135.669061"><ele>294</ele></trkpt>
<trkpt lat="35.324402" lon="135.669654"><ele>292</ele></trkpt>
<trkpt lat="35.324692" lon="135.670525"><ele>291</ele></trkpt>
<trkpt lat="35.325183" lon="135.672020"><ele>292</ele></trkpt>
<trkpt lat="35.325393" lon="135.672931"><ele>293</ele></trkpt>
<trkpt lat="35.325202" lon="135.673784"><ele>293</ele></trkpt>
<trkpt lat="35.324716" lon="135.674766"><ele>293</ele></trkpt>
<trkpt lat="35.325366" lon="135.675820"><ele>294</ele></trkpt>
<trkpt lat="35.325375" lon="135.676691"><ele>295</ele></trkpt>
<trkpt lat="35.324715" lon="135.677041"><ele>296</ele></trkpt>
<trkpt lat="35.324118" lon="135.677082"><ele>297</ele></trkpt>
<trkpt lat="35.323246" lon="135.677073"><ele>297</ele></trkpt>
<trkpt lat="35.322752" lon="135.676974"><ele>297</ele></trkpt>
<trkpt lat="35.322050" lon="135.677055"><ele>299</ele></trkpt>
<trkpt lat="35.321512" lon="135.677795"><ele>302</ele></trkpt>
<trkpt lat="35.321266" lon="135.678454"><ele>306</ele></trkpt>
<trkpt lat="35.321345" lon="135.679105"><ele>308</ele></trkpt>
<trkpt lat="35.322128" lon="135.680283"><ele>309</ele></trkpt>
<trkpt lat="35.322393" lon="135.681079"><ele>308</ele></trkpt>
<trkpt lat="35.322351" lon="135.681741"><ele>306</ele></trkpt>
<trkpt lat="35.322192" lon="135.682555"><ele>303</ele></trkpt>
<trkpt lat="35.321827" lon="135.683525"><ele>301</ele></trkpt>
<trkpt lat="35.321827" lon="135.684399"><ele>301</ele></trkpt>
<trkpt lat="35.322030" lon="135.685131"><ele>302</ele></trkpt>
<trkpt lat="35.322066" lon="135.686752"><ele>308</ele></trkpt>
<trkpt lat="35.322035" lon="135.687631"><ele>315</ele></trkpt>
<trkpt lat="35.322202" lon="135.688806"><ele>321</ele></trkpt>
<trkpt lat="35.322143" lon="135.689467"><ele>325</ele></trkpt>
<trkpt lat="35.321016" lon="135.690368"><ele>330</ele></trkpt>
<trkpt lat="35.320489" lon="135.690501"><ele>330</ele></trkpt>
<trkpt lat="35.319804" lon="135.690687"><ele>329</ele></trkpt>
<trkpt lat="35.319006" lon="135.690533"><ele>329</ele></trkpt>
<trkpt lat="35.317964" lon="135.690080"><ele>329</ele></trkpt>
<trkpt lat="35.317485" lon="135.689623"><ele>328</ele></trkpt>
<trkpt lat="35.317254" lon="135.688963"><ele>329</ele></trkpt>
<trkpt lat="35.316677" lon="135.688716"><ele>331</ele></trkpt>
<trkpt lat="35.315866" lon="135.687760"><ele>332</ele></trkpt>
<trkpt lat="35.315327" lon="135.687112"><ele>334</ele></trkpt>
<trkpt lat="35.314930" lon="135.686435"><ele>333</ele></trkpt>
<trkpt lat="35.314391" lon="135.685691"><ele>333</ele></trkpt>
<trkpt lat="35.314005" lon="135.685231"><ele>333</ele></trkpt>
<trkpt lat="35.313398" lon="135.685811"><ele>334</ele></trkpt>
<trkpt lat="35.312938" lon="135.686261"><ele>334</ele></trkpt>
<trkpt lat="35.312364" lon="135.686441"><ele>333</ele></trkpt>
<trkpt lat="35.311732" lon="135.686291"><ele>334</ele></trkpt>
<trkpt lat="35.311237" lon="135.686561"><ele>332</ele></trkpt>
<trkpt lat="35.311112" lon="135.687232"><ele>333</ele></trkpt>
<trkpt lat="35.311672" lon="135.688566"><ele>335</ele></trkpt>
<trkpt lat="35.312260" lon="135.689490"><ele>337</ele></trkpt>
<trkpt lat="35.312636" lon="135.690033"><ele>338</ele></trkpt>
<trkpt lat="35.312725" lon="135.690733"><ele>342</ele></trkpt>
<trkpt lat="35.312456" lon="135.691647"><ele>343</ele></trkpt>
<trkpt lat="35.312260" lon="135.692361"><ele>344</ele></trkpt>
<trkpt lat="35.311702" lon="135.692865"><ele>344</ele></trkpt>
<trkpt lat="35.310668" lon="135.693192"><ele>347</ele></trkpt>
<trkpt lat="35.309903" lon="135.693372"><ele>348</ele></trkpt>
<trkpt lat="35.308864" lon="135.693482"><ele>348</ele></trkpt>
<trkpt lat="35.308224" lon="135.693625"><ele>347</ele></trkpt>
<trkpt lat="35.307669" lon="135.693545"><ele>349</ele></trkpt>
<trkpt lat="35.307078" lon="135.693532"><ele>350</ele></trkpt>
<trkpt lat="35.306243" lon="135.693722"><ele>352</ele></trkpt>
<trkpt lat="35.306365" lon="135.694305"><ele>355</ele></trkpt>
<trkpt lat="35.306297" lon="135.695012"><ele>359</ele></trkpt>
<trkpt lat="35.306406" lon="135.695669"><ele>361</ele></trkpt>
<trkpt lat="35.306417" lon="135.696327"><ele>362</ele></trkpt>
<trkpt lat="35.306866" lon="135.697187"><ele>361</ele></trkpt>
<trkpt lat="35.307525" lon="135.697644"><ele>358</ele></trkpt>
<trkpt lat="35.307927" lon="135.698161"><ele>356</ele></trkpt>
<trkpt lat="35.307835" lon="135.698998"><ele>355</ele></trkpt>
<trkpt lat="35.307280" lon="135.699378"><ele>357</ele></trkpt>
<trkpt lat="35.306618" lon="135.699265"><ele>358</ele></trkpt>
<trkpt lat="35.305546" lon="135.698704"><ele>360</ele></trkpt>
<trkpt lat="35.304895" lon="135.698804"><ele>361</ele></trkpt>
<trkpt lat="35.304593" lon="135.699425"><ele>362</ele></trkpt>
<trkpt lat="35.304288" lon="135.700069"><ele>358</ele></trkpt>
<trkpt lat="35.303774" lon="135.700312"><ele>357</ele></trkpt>
<trkpt lat="35.303405" lon="135.700769"><ele>355</ele></trkpt>
<trkpt lat="35.303510" lon="135.701518"><ele>356</ele></trkpt>
<trkpt lat="35.303349" lon="135.702446"><ele>359</ele></trkpt>
<trkpt lat="35.303946" lon="135.702383"><ele>362</ele></trkpt>
<trkpt lat="35.304762" lon="135.702376"><ele>358</ele></trkpt>
<trkpt lat="35.305446" lon="135.702507"><ele>358</ele></trkpt>
<trkpt lat="35.305647" lon="135.703213"><ele>356</ele></trkpt>
<trkpt lat="35.305540" lon="135.703871"><ele>353</ele></trkpt>
<trkpt lat="35.305252" lon="135.704504"><ele>352</ele></trkpt>
<trkpt lat="35.305044" lon="135.705155"><ele>354</ele></trkpt>
<trkpt lat="35.305212" lon="135.705993"><ele>358</ele></trkpt>
<trkpt lat="35.304953" lon="135.707062"><ele>362</ele></trkpt>
<trkpt lat="35.304855" lon="135.708104"><ele>367</ele></trkpt>
<trkpt lat="35.304634" lon="135.708851"><ele>370</ele></trkpt>
<trkpt lat="35.304480" lon="135.709570"><ele>373</ele></trkpt>
<trkpt lat="35.304181" lon="135.710153"><ele>375</ele></trkpt>
<trkpt lat="35.303800" lon="135.710719"><ele>380</ele></trkpt>
<trkpt lat="35.304216" lon="135.710977"><ele>383</ele></trkpt>
<trkpt lat="35.304765" lon="135.710961"><ele>385</ele></trkpt>
<trkpt lat="35.305162" lon="135.711539"><ele>388</ele></trkpt>
<trkpt lat="35.305480" lon="135.712555"><ele>392</ele></trkpt>
<trkpt lat="35.306030" lon="135.712309"><ele>396</ele></trkpt>
<trkpt lat="35.306130" lon="135.711670"><ele>401</ele></trkpt>
<trkpt lat="35.305767" lon="135.710946"><ele>407</ele></trkpt>
<trkpt lat="35.306027" lon="135.710294"><ele>410</ele></trkpt>
<trkpt lat="35.306571" lon="135.709923"><ele>408</ele></trkpt>
<trkpt lat="35.307137" lon="135.709987"><ele>402</ele></trkpt>
<trkpt lat="35.307633" lon="135.710314"><ele>396</ele></trkpt>
<trkpt lat="35.308409" lon="135.709953"><ele>392</ele></trkpt>
<trkpt lat="35.308945" lon="135.709836"><ele>388</ele></trkpt>
<trkpt lat="35.309580" lon="135.709856"><ele>384</ele></trkpt>
<trkpt lat="35.309977" lon="135.710532"><ele>380</ele></trkpt>
<trkpt lat="35.310094" lon="135.711385"><ele>375</ele></trkpt>
<trkpt lat="35.310160" lon="135.712056"><ele>368</ele></trkpt>
<trkpt lat="35.310140" lon="135.712715"><ele>368</ele></trkpt>
<trkpt lat="35.309924" lon="135.713715"><ele>368</ele></trkpt>
<trkpt lat="35.310332" lon="135.713997"><ele>367</ele></trkpt>
<trkpt lat="35.309896" lon="135.713895"><ele>368</ele></trkpt>
<trkpt lat="35.310071" lon="135.712995"><ele>368</ele></trkpt>
<trkpt lat="35.310188" lon="135.712254"><ele>368</ele></trkpt>
<trkpt lat="35.310100" lon="135.711441"><ele>374</ele></trkpt>
<trkpt lat="35.309977" lon="135.710532"><ele>380</ele></trkpt>
<trkpt lat="35.309580" lon="135.709856"><ele>384</ele></trkpt>
<trkpt lat="35.308945" lon="135.709836"><ele>388</ele></trkpt>
<trkpt lat="35.308409" lon="135.709953"><ele>391</ele></trkpt>
<trkpt lat="35.307801" lon="135.710215"><ele>393</ele></trkpt>
<trkpt lat="35.307292" lon="135.710194"><ele>398</ele></trkpt>
<trkpt lat="35.306834" lon="135.709953"><ele>405</ele></trkpt>
<trkpt lat="35.306280" lon="135.710053"><ele>410</ele></trkpt>
<trkpt lat="35.305880" lon="135.710547"><ele>409</ele></trkpt>
<trkpt lat="35.305891" lon="135.711303"><ele>406</ele></trkpt>
<trkpt lat="35.306267" lon="135.711980"><ele>401</ele></trkpt>
<trkpt lat="35.305883" lon="135.712330"><ele>396</ele></trkpt>
<trkpt lat="35.305238" lon="135.711708"><ele>392</ele></trkpt>
<trkpt lat="35.304910" lon="135.711088"><ele>389</ele></trkpt>
<trkpt lat="35.304445" lon="135.710827"><ele>385</ele></trkpt>
<trkpt lat="35.303860" lon="135.710951"><ele>383</ele></trkpt>
<trkpt lat="35.304181" lon="135.710153"><ele>378</ele></trkpt>
<trkpt lat="35.304480" lon="135.709570"><ele>373</ele></trkpt>
<trkpt lat="35.304634" lon="135.708851"><ele>370</ele></trkpt>
<trkpt lat="35.304855" lon="135.708104"><ele>368</ele></trkpt>
<trkpt lat="35.304968" lon="135.707386"><ele>362</ele></trkpt>
<trkpt lat="35.305125" lon="135.706586"><ele>358</ele></trkpt>
<trkpt lat="35.305044" lon="135.705155"><ele>354</ele></trkpt>
<trkpt lat="35.305252" lon="135.704504"><ele>352</ele></trkpt>
<trkpt lat="35.305540" lon="135.703871"><ele>353</ele></trkpt>
<trkpt lat="35.305647" lon="135.703213"><ele>356</ele></trkpt>
<trkpt lat="35.305446" lon="135.702507"><ele>358</ele></trkpt>
<trkpt lat="35.304762" lon="135.702376"><ele>358</ele></trkpt>
<trkpt lat="35.303946" lon="135.702383"><ele>362</ele></trkpt>
<trkpt lat="35.303390" lon="135.702558"><ele>359</ele></trkpt>
<trkpt lat="35.303510" lon="135.701518"><ele>356</ele></trkpt>
<trkpt lat="35.303405" lon="135.700769"><ele>355</ele></trkpt>
<trkpt lat="35.303774" lon="135.700312"><ele>357</ele></trkpt>
<trkpt lat="35.304288" lon="135.700069"><ele>358</ele></trkpt>
<trkpt lat="35.304593" lon="135.699425"><ele>362</ele></trkpt>
<trkpt lat="35.304895" lon="135.698804"><ele>361</ele></trkpt>
<trkpt lat="35.305546" lon="135.698704"><ele>361</ele></trkpt>
<trkpt lat="35.306343" lon="135.699141"><ele>358</ele></trkpt>
<trkpt lat="35.307056" lon="135.699388"><ele>356</ele></trkpt>
<trkpt lat="35.307715" lon="135.699151"><ele>356</ele></trkpt>
<trkpt lat="35.307968" lon="135.698574"><ele>356</ele></trkpt>
<trkpt lat="35.307745" lon="135.697824"><ele>357</ele></trkpt>
<trkpt lat="35.307209" lon="135.697500"><ele>361</ele></trkpt>
<trkpt lat="35.306463" lon="135.696560"><ele>362</ele></trkpt>
<trkpt lat="35.306390" lon="135.695856"><ele>360</ele></trkpt>
<trkpt lat="35.306297" lon="135.695012"><ele>358</ele></trkpt>
<trkpt lat="35.306365" lon="135.694305"><ele>355</ele></trkpt>
<trkpt lat="35.306243" lon="135.693722"><ele>352</ele></trkpt>
<trkpt lat="35.307078" lon="135.693532"><ele>350</ele></trkpt>
<trkpt lat="35.307669" lon="135.693545"><ele>349</ele></trkpt>
<trkpt lat="35.308224" lon="135.693625"><ele>349</ele></trkpt>
<trkpt lat="35.308864" lon="135.693482"><ele>349</ele></trkpt>
<trkpt lat="35.309696" lon="135.693525"><ele>349</ele></trkpt>
<trkpt lat="35.310442" lon="135.693268"><ele>349</ele></trkpt>
<trkpt lat="35.311335" lon="135.693025"><ele>348</ele></trkpt>
<trkpt lat="35.311969" lon="135.692708"><ele>346</ele></trkpt>
<trkpt lat="35.312396" lon="135.692121"><ele>346</ele></trkpt>
<trkpt lat="35.312679" lon="135.690970"><ele>345</ele></trkpt>
<trkpt lat="35.312701" lon="135.690236"><ele>341</ele></trkpt>
<trkpt lat="35.312260" lon="135.689490"><ele>339</ele></trkpt>
<trkpt lat="35.311672" lon="135.688566"><ele>337</ele></trkpt>
<trkpt lat="35.311269" lon="135.687632"><ele>334</ele></trkpt>
<trkpt lat="35.311090" lon="135.687008"><ele>332</ele></trkpt>
<trkpt lat="35.311338" lon="135.686435"><ele>334</ele></trkpt>
<trkpt lat="35.311920" lon="135.686291"><ele>333</ele></trkpt>
<trkpt lat="35.312589" lon="135.686445"><ele>334</ele></trkpt>
<trkpt lat="35.313172" lon="135.686054"><ele>334</ele></trkpt>
<trkpt lat="35.313632" lon="135.685504"><ele>335</ele></trkpt>
<trkpt lat="35.314122" lon="135.685271"><ele>334</ele></trkpt>
<trkpt lat="35.314611" lon="135.686088"><ele>333</ele></trkpt>
<trkpt lat="35.315150" lon="135.686891"><ele>334</ele></trkpt>
<trkpt lat="35.315670" lon="135.687448"><ele>334</ele></trkpt>
<trkpt lat="35.316427" lon="135.688506"><ele>331</ele></trkpt>
<trkpt lat="35.316998" lon="135.688772"><ele>330</ele></trkpt>
<trkpt lat="35.317417" lon="135.689349"><ele>330</ele></trkpt>
<trkpt lat="35.317673" lon="135.689940"><ele>329</ele></trkpt>
<trkpt lat="35.318615" lon="135.690500"><ele>330</ele></trkpt>
<trkpt lat="35.319276" lon="135.690683"><ele>331</ele></trkpt>
<trkpt lat="35.319981" lon="135.690653"><ele>330</ele></trkpt>
<trkpt lat="35.320737" lon="135.690494"><ele>330</ele></trkpt>
<trkpt lat="35.321835" lon="135.689869"><ele>328</ele></trkpt>
<trkpt lat="35.322205" lon="135.689254"><ele>323</ele></trkpt>
<trkpt lat="35.322091" lon="135.688281"><ele>317</ele></trkpt>
<trkpt lat="35.322066" lon="135.686752"><ele>311</ele></trkpt>
<trkpt lat="35.322081" lon="135.685585"><ele>304</ele></trkpt>
<trkpt lat="35.321886" lon="135.684579"><ele>301</ele></trkpt>
<trkpt lat="35.321737" lon="135.683872"><ele>301</ele></trkpt>
<trkpt lat="35.322030" lon="135.683020"><ele>302</ele></trkpt>
<trkpt lat="35.322274" lon="135.682208"><ele>305</ele></trkpt>
<trkpt lat="35.322386" lon="135.681418"><ele>308</ele></trkpt>
<trkpt lat="35.322271" lon="135.680533"><ele>309</ele></trkpt>
<trkpt lat="35.321494" lon="135.679373"><ele>308</ele></trkpt>
<trkpt lat="35.321250" lon="135.678614"><ele>306</ele></trkpt>
<trkpt lat="35.321512" lon="135.677795"><ele>303</ele></trkpt>
<trkpt lat="35.321833" lon="135.677219"><ele>300</ele></trkpt>
<trkpt lat="35.322752" lon="135.676974"><ele>298</ele></trkpt>
<trkpt lat="35.323246" lon="135.677073"><ele>297</ele></trkpt>
<trkpt lat="35.324118" lon="135.677082"><ele>297</ele></trkpt>
<trkpt lat="35.324715" lon="135.677041"><ele>296</ele></trkpt>
<trkpt lat="35.325375" lon="135.676691"><ele>293</ele></trkpt>
<trkpt lat="35.325366" lon="135.675820"><ele>293</ele></trkpt>
<trkpt lat="35.324897" lon="135.675116"><ele>292</ele></trkpt>
<trkpt lat="35.324963" lon="135.674285"><ele>291</ele></trkpt>
<trkpt lat="35.325362" lon="135.673374"><ele>292</ele></trkpt>
<trkpt lat="35.325291" lon="135.672446"><ele>292</ele></trkpt>
<trkpt lat="35.324873" lon="135.670979"><ele>291</ele></trkpt>
<trkpt lat="35.324622" lon="135.670188"><ele>290</ele></trkpt>
<trkpt lat="35.324295" lon="135.669486"><ele>292</ele></trkpt>
<trkpt lat="35.323768" lon="135.668948"><ele>295</ele></trkpt>
<trkpt lat="35.323049" lon="135.668661"><ele>296</ele></trkpt>
<trkpt lat="35.322432" lon="135.668595"><ele>298</ele></trkpt>
<trkpt lat="35.321393" lon="135.669079"><ele>302</ele></trkpt>
<trkpt lat="35.320578" lon="135.668730"><ele>303</ele></trkpt>
<trkpt lat="35.320044" lon="135.666922"><ele>302</ele></trkpt>
<trkpt lat="35.319543" lon="135.666261"><ele>305</ele></trkpt>
<trkpt lat="35.319341" lon="135.665536"><ele>305</ele></trkpt>
<trkpt lat="35.319357" lon="135.664711"><ele>301</ele></trkpt>
<trkpt lat="35.319290" lon="135.663917"><ele>296</ele></trkpt>
<trkpt lat="35.319379" lon="135.663125"><ele>293</ele></trkpt>
<trkpt lat="35.319703" lon="135.660913"><ele>289</ele></trkpt>
<trkpt lat="35.319549" lon="135.659682"><ele>285</ele></trkpt>
<trkpt lat="35.319584" lon="135.659013"><ele>283</ele></trkpt>
<trkpt lat="35.319733" lon="135.657784"><ele>283</ele></trkpt>
<trkpt lat="35.320221" lon="135.657003"><ele>282</ele></trkpt>
<trkpt lat="35.320725" lon="135.656358"><ele>282</ele></trkpt>
<trkpt lat="35.321001" lon="135.655681"><ele>282</ele></trkpt>
<trkpt lat="35.321193" lon="135.654850"><ele>281</ele></trkpt>
<trkpt lat="35.320899" lon="135.654027"><ele>279</ele></trkpt>
<trkpt lat="35.320436" lon="135.653646"><ele>280</ele></trkpt>
<trkpt lat="35.320178" lon="135.652224"><ele>283</ele></trkpt>
<trkpt lat="35.319854" lon="135.650665"><ele>288</ele></trkpt>
<trkpt lat="35.319479" lon="135.650135"><ele>293</ele></trkpt>
<trkpt lat="35.318912" lon="135.650351"><ele>297</ele></trkpt>
<trkpt lat="35.318115" lon="135.650508"><ele>299</ele></trkpt>
<trkpt lat="35.316938" lon="135.650686"><ele>294</ele></trkpt>
<trkpt lat="35.316337" lon="135.650958"><ele>292</ele></trkpt>
<trkpt lat="35.315653" lon="135.651901"><ele>290</ele></trkpt>
<trkpt lat="35.315083" lon="135.651937"><ele>289</ele></trkpt>
<trkpt lat="35.314859" lon="135.651278"><ele>288</ele></trkpt>
<trkpt lat="35.314962" lon="135.650536"><ele>291</ele></trkpt>
<trkpt lat="35.315770" lon="135.649345"><ele>295</ele></trkpt>
<trkpt lat="35.315922" lon="135.648603"><ele>298</ele></trkpt>
<trkpt lat="35.315563" lon="135.648041"><ele>298</ele></trkpt>
<trkpt lat="35.315012" lon="135.647662"><ele>297</ele></trkpt>
<trkpt lat="35.314378" lon="135.647479"><ele>292</ele></trkpt>
<trkpt lat="35.313587" lon="135.646504"><ele>284</ele></trkpt>
<trkpt lat="35.313097" lon="135.645482"><ele>276</ele></trkpt>
<trkpt lat="35.312904" lon="135.644695"><ele>272</ele></trkpt>
<trkpt lat="35.312912" lon="135.643763"><ele>268</ele></trkpt>
<trkpt lat="35.313071" lon="135.642857"><ele>265</ele></trkpt>
<trkpt lat="35.313309" lon="135.642186"><ele>263</ele></trkpt>
<trkpt lat="35.313437" lon="135.641412"><ele>262</ele></trkpt>
<trkpt lat="35.313122" lon="135.640567"><ele>263</ele></trkpt>
<trkpt lat="35.312953" lon="135.639994"><ele>265</ele></trkpt>
<trkpt lat="35.312623" lon="135.639346"><ele>267</ele></trkpt>
<trkpt lat="35.311916" lon="135.638801"><ele>270</ele></trkpt>
<trkpt lat="35.311350" lon="135.638316"><ele>271</ele></trkpt>
<trkpt lat="35.310978" lon="135.637580"><ele>269</ele></trkpt>
<trkpt lat="35.310892" lon="135.636252"><ele>266</ele></trkpt>
<trkpt lat="35.310535" lon="135.635218"><ele>266</ele></trkpt>
<trkpt lat="35.310528" lon="135.634452"><ele>266</ele></trkpt>
<trkpt lat="35.311212" lon="135.632798"><ele>264</ele></trkpt>
<trkpt lat="35.311152" lon="135.631995"><ele>266</ele></trkpt>
<trkpt lat="35.310836" lon="135.630472"><ele>267</ele></trkpt>
<trkpt lat="35.311239" lon="135.629625"><ele>266</ele></trkpt>
<trkpt lat="35.311748" lon="135.629023"><ele>264</ele></trkpt>
<trkpt lat="35.312087" lon="135.628460"><ele>266</ele></trkpt>
<trkpt lat="35.312464" lon="135.627723"><ele>266</ele></trkpt>
<trkpt lat="35.312812" lon="135.626870"><ele>264</ele></trkpt>
<trkpt lat="35.312990" lon="135.626099"><ele>262</ele></trkpt>
<trkpt lat="35.313077" lon="135.625440"><ele>261</ele></trkpt>
<trkpt lat="35.313273" lon="135.624811"><ele>260</ele></trkpt>
<trkpt lat="35.313646" lon="135.624294"><ele>264</ele></trkpt>
<trkpt lat="35.314083" lon="135.623624"><ele>267</ele></trkpt>
<trkpt lat="35.314481" lon="135.623219"><ele>269</ele></trkpt>
<trkpt lat="35.314313" lon="135.622689"><ele>272</ele></trkpt>
<trkpt lat="35.314291" lon="135.622685"><ele>274</ele></trkpt>
</trkseg></trk>
</gpx>
