<?xml version="1.0" encoding="UTF-8"?>
<gpx version="1.1" creator="Japonya Bisiklet Turu" xmlns="http://www.topografix.com/GPX/1/1">
<wpt lat="35.314300" lon="135.622600"><name>Kita · Matabe</name></wpt>
<wpt lat="35.277100" lon="135.588000"><name>Fureai Hiroba</name></wpt>
<wpt lat="35.264500" lon="135.489200"><name>Miyama Heimat YH</name></wpt>
<trk><name>Gün 11 · Miyama köyleri</name><trkseg>
<trkpt lat="35.314291" lon="135.622685"><ele>265</ele></trkpt>
<trkpt lat="35.313878" lon="135.622828"><ele>262</ele></trkpt>
<trkpt lat="35.313767" lon="135.623425"><ele>259</ele></trkpt>
<trkpt lat="35.313133" lon="135.623302"><ele>253</ele></trkpt>
<trkpt lat="35.312490" lon="135.623510"><ele>250</ele></trkpt>
<trkpt lat="35.312144" lon="135.623238"><ele>249</ele></trkpt>
<trkpt lat="35.311374" lon="135.623390"><ele>250</ele></trkpt>
<trkpt lat="35.310516" lon="135.623666"><ele>252</ele></trkpt>
<trkpt lat="35.309731" lon="135.623568"><ele>254</ele></trkpt>
<trkpt lat="35.309100" lon="135.623631"><ele>256</ele></trkpt>
<trkpt lat="35.308526" lon="135.624305"><ele>257</ele></trkpt>
<trkpt lat="35.307508" lon="135.625105"><ele>256</ele></trkpt>
<trkpt lat="35.307083" lon="135.625738"><ele>254</ele></trkpt>
<trkpt lat="35.306431" lon="135.625990"><ele>252</ele></trkpt>
<trkpt lat="35.305787" lon="135.625866"><ele>250</ele></trkpt>
<trkpt lat="35.305404" lon="135.625267"><ele>249</ele></trkpt>
<trkpt lat="35.305209" lon="135.624349"><ele>249</ele></trkpt>
<trkpt lat="35.305186" lon="135.623362"><ele>249</ele></trkpt>
<trkpt lat="35.304994" lon="135.622708"><ele>249</ele></trkpt>
<trkpt lat="35.303766" lon="135.622425"><ele>249</ele></trkpt>
<trkpt lat="35.303674" lon="135.620610"><ele>246</ele></trkpt>
<trkpt lat="35.303646" lon="135.619440"><ele>243</ele></trkpt>
<trkpt lat="35.302995" lon="135.619367"><ele>240</ele></trkpt>
<trkpt lat="35.302455" lon="135.619165"><ele>240</ele></trkpt>
<trkpt lat="35.302588" lon="135.615792"><ele>245</ele></trkpt>
<trkpt lat="35.302400" lon="135.615149"><ele>251</ele></trkpt>
<trkpt lat="35.302078" lon="135.614548"><ele>256</ele></trkpt>
<trkpt lat="35.301157" lon="135.614381"><ele>261</ele></trkpt>
<trkpt lat="35.299661" lon="135.614426"><ele>262</ele></trkpt>
<trkpt lat="35.298591" lon="135.614899"><ele>258</ele></trkpt>
<trkpt lat="35.297637" lon="135.615469"><ele>253</ele></trkpt>
<trkpt lat="35.296710" lon="135.615031"><ele>251</ele></trkpt>
<trkpt lat="35.296288" lon="135.614033"><ele>249</ele></trkpt>
<trkpt lat="35.296797" lon="135.613705"><ele>247</ele></trkpt>
<trkpt lat="35.297040" lon="135.612569"><ele>246</ele></trkpt>
<trkpt lat="35.297171" lon="135.611921"><ele>246</ele></trkpt>
<trkpt lat="35.297565" lon="135.611400"><ele>243</ele></trkpt>
<trkpt lat="35.297971" lon="135.610932"><ele>239</ele></trkpt>
<trkpt lat="35.298212" lon="135.610222"><ele>237</ele></trkpt>
<trkpt lat="35.298118" lon="135.609434"><ele>235</ele></trkpt>
<trkpt lat="35.298007" lon="135.608328"><ele>234</ele></trkpt>
<trkpt lat="35.297977" lon="135.607645"><ele>234</ele></trkpt>
<trkpt lat="35.297937" lon="135.606883"><ele>236</ele></trkpt>
<trkpt lat="35.297486" lon="135.606685"><ele>238</ele></trkpt>
<trkpt lat="35.297155" lon="135.605979"><ele>239</ele></trkpt>
<trkpt lat="35.296917" lon="135.605265"><ele>239</ele></trkpt>
<trkpt lat="35.296667" lon="135.604661"><ele>240</ele></trkpt>
<trkpt lat="35.296413" lon="135.603311"><ele>241</ele></trkpt>
<trkpt lat="35.295295" lon="135.602625"><ele>242</ele></trkpt>
<trkpt lat="35.294806" lon="135.602282"><ele>242</ele></trkpt>
<trkpt lat="35.294263" lon="135.601743"><ele>241</ele></trkpt>
<trkpt lat="35.293691" lon="135.601287"><ele>237</ele></trkpt>
<trkpt lat="35.292722" lon="135.600932"><ele>232</ele></trkpt>
<trkpt lat="35.291569" lon="135.600792"><ele>230</ele></trkpt>
<trkpt lat="35.290993" lon="135.600574"><ele>228</ele></trkpt>
<trkpt lat="35.290404" lon="135.600070"><ele>228</ele></trkpt>
<trkpt lat="35.289770" lon="135.599828"><ele>231</ele></trkpt>
<trkpt lat="35.289149" lon="135.599774"><ele>236</ele></trkpt>
<trkpt lat="35.288185" lon="135.599324"><ele>239</ele></trkpt>
<trkpt lat="35.287108" lon="135.597742"><ele>242</ele></trkpt>
<trkpt lat="35.286831" lon="135.596939"><ele>245</ele></trkpt>
<trkpt lat="35.285950" lon="135.594940"><ele>247</ele></trkpt>
<trkpt lat="35.285524" lon="135.594442"><ele>247</ele></trkpt>
<trkpt lat="35.284865" lon="135.594295"><ele>247</ele></trkpt>
<trkpt lat="35.284287" lon="135.594321"><ele>247</ele></trkpt>
<trkpt lat="35.283694" lon="135.593961"><ele>245</ele></trkpt>
<trkpt lat="35.283251" lon="135.593347"><ele>241</ele></trkpt>
<trkpt lat="35.281811" lon="135.592184"><ele>239</ele></trkpt>
<trkpt lat="35.281132" lon="135.591675"><ele>237</ele></trkpt>
<trkpt lat="35.280516" lon="135.590690"><ele>234</ele></trkpt>
<trkpt lat="35.279878" lon="135.590181"><ele>232</ele></trkpt>
<trkpt lat="35.279231" lon="135.589892"><ele>230</ele></trkpt>
<trkpt lat="35.278856" lon="135.590410"><ele>227</ele></trkpt>
<trkpt lat="35.278237" lon="135.589830"><ele>225</ele></trkpt>
<trkpt lat="35.278009" lon="135.588689"><ele>221</ele></trkpt>
<trkpt lat="35.277971" lon="135.587918"><ele>219</ele></trkpt>
<trkpt lat="35.277263" lon="135.588258"><ele>218</ele></trkpt>
<trkpt lat="35.276764" lon="135.587954"><ele>216</ele></trkpt>
<trkpt lat="35.276630" lon="135.587171"><ele>213</ele></trkpt>
<trkpt lat="35.275818" lon="135.587414"><ele>212</ele></trkpt>
<trkpt lat="35.275476" lon="135.586721"><ele>212</ele></trkpt>
<trkpt lat="35.275080" lon="135.586127"><ele>211</ele></trkpt>
<trkpt lat="35.274442" lon="135.585401"><ele>212</ele></trkpt>
<trkpt lat="35.273801" lon="135.585301"><ele>212</ele></trkpt>
<trkpt lat="35.273241" lon="135.584850"><ele>213</ele></trkpt>
<trkpt lat="35.273190" lon="135.584273"><ele>214</ele></trkpt>
<trkpt lat="35.273842" lon="135.583917"><ele>216</ele></trkpt>
<trkpt lat="35.273478" lon="135.582207"><ele>219</ele></trkpt>
<trkpt lat="35.274336" lon="135.582169"><ele>222</ele></trkpt>
<trkpt lat="35.274811" lon="135.581650"><ele>226</ele></trkpt>
<trkpt lat="35.275473" lon="135.581338"><ele>229</ele></trkpt>
<trkpt lat="35.275394" lon="135.580752"><ele>231</ele></trkpt>
<trkpt lat="35.275431" lon="135.579804"><ele>232</ele></trkpt>
<trkpt lat="35.275001" lon="135.579389"><ele>233</ele></trkpt>
<trkpt lat="35.274875" lon="135.578761"><ele>232</ele></trkpt>
<trkpt lat="35.274538" lon="135.578019"><ele>230</ele></trkpt>
<trkpt lat="35.274058" lon="135.577624"><ele>228</ele></trkpt>
<trkpt lat="35.273355" lon="135.577461"><ele>224</ele></trkpt>
<trkpt lat="35.272963" lon="135.577101"><ele>221</ele></trkpt>
<trkpt lat="35.272615" lon="135.576367"><ele>218</ele></trkpt>
<trkpt lat="35.272469" lon="135.575659"><ele>216</ele></trkpt>
<trkpt lat="35.272220" lon="135.575058"><ele>213</ele></trkpt>
<trkpt lat="35.271936" lon="135.574449"><ele>211</ele></trkpt>
<trkpt lat="35.270609" lon="135.574927"><ele>212</ele></trkpt>
<trkpt lat="35.270101" lon="135.575504"><ele>213</ele></trkpt>
<trkpt lat="35.269671" lon="135.575044"><ele>216</ele></trkpt>
<trkpt lat="35.269079" lon="135.573061"><ele>218</ele></trkpt>
<trkpt lat="35.268818" lon="135.572367"><ele>220</ele></trkpt>
<trkpt lat="35.268164" lon="135.571597"><ele>220</ele></trkpt>
<trkpt lat="35.266364" lon="135.571870"><ele>218</ele></trkpt>
<trkpt lat="35.265503" lon="135.573023"><ele>215</ele></trkpt>
<trkpt lat="35.264793" lon="135.572857"><ele>214</ele></trkpt>
<trkpt lat="35.264305" lon="135.572486"><ele>213</ele></trkpt>
<trkpt lat="35.263861" lon="135.573016"><ele>211</ele></trkpt>
<trkpt lat="35.263302" lon="135.572823"><ele>211</ele></trkpt>
<trkpt lat="35.262822" lon="135.572314"><ele>211</ele></trkpt>
<trkpt lat="35.262307" lon="135.572098"><ele>210</ele></trkpt>
<trkpt lat="35.261737" lon="135.571952"><ele>210</ele></trkpt>
<trkpt lat="35.260443" lon="135.571722"><ele>208</ele></trkpt>
<trkpt lat="35.259710" lon="135.571416"><ele>207</ele></trkpt>
<trkpt lat="35.258668" lon="135.570191"><ele>208</ele></trkpt>
<trkpt lat="35.257669" lon="135.569489"><ele>211</ele></trkpt>
<trkpt lat="35.257226" lon="135.568967"><ele>212</ele></trkpt>
<trkpt lat="35.256906" lon="135.568386"><ele>213</ele></trkpt>
<trkpt lat="35.256691" lon="135.567175"><ele>215</ele></trkpt>
<trkpt lat="35.256474" lon="135.566218"><ele>213</ele></trkpt>
<trkpt lat="35.256158" lon="135.565542"><ele>211</ele></trkpt>
<trkpt lat="35.256307" lon="135.565015"><ele>210</ele></trkpt>
<trkpt lat="35.256850" lon="135.564356"><ele>209</ele></trkpt>
<trkpt lat="35.257593" lon="135.563523"><ele>209</ele></trkpt>
<trkpt lat="35.257998" lon="135.563059"><ele>209</ele></trkpt>
<trkpt lat="35.258423" lon="135.562538"><ele>210</ele></trkpt>
<trkpt lat="35.259507" lon="135.561116"><ele>210</ele></trkpt>
<trkpt lat="35.259951" lon="135.560363"><ele>212</ele></trkpt>
<trkpt lat="35.260294" lon="135.559724"><ele>214</ele></trkpt>
<trkpt lat="35.260506" lon="135.559092"><ele>216</ele></trkpt>
<trkpt lat="35.260577" lon="135.558377"><ele>217</ele></trkpt>
<trkpt lat="35.260489" lon="135.557642"><ele>217</ele></trkpt>
<trkpt lat="35.260257" lon="135.556961"><ele>215</ele></trkpt>
<trkpt lat="35.259865" lon="135.556040"><ele>212</ele></trkpt>
<trkpt lat="35.259676" lon="135.555073"><ele>208</ele></trkpt>
<trkpt lat="35.259555" lon="135.554346"><ele>204</ele></trkpt>
<trkpt lat="35.259529" lon="135.553534"><ele>200</ele></trkpt>
<trkpt lat="35.259688" lon="135.552729"><ele>196</ele></trkpt>
<trkpt lat="35.260231" lon="135.551880"><ele>193</ele></trkpt>
<trkpt lat="35.260696" lon="135.551459"><ele>189</ele></trkpt>
<trkpt lat="35.261259" lon="135.551266"><ele>188</ele></trkpt>
<trkpt lat="35.261917" lon="135.550976"><ele>189</ele></trkpt>
<trkpt lat="35.262901" lon="135.550695"><ele>192</ele></trkpt>
<trkpt lat="35.263469" lon="135.550513"><ele>192</ele></trkpt>
<trkpt lat="35.264182" lon="135.550202"><ele>192</ele></trkpt>
<trkpt lat="35.264842" lon="135.550230"><ele>190</ele></trkpt>
<trkpt lat="35.265446" lon="135.550504"><ele>187</ele></trkpt>
<trkpt lat="35.266172" lon="135.550462"><ele>182</ele></trkpt>
<trkpt lat="35.267604" lon="135.549537"><ele>181</ele></trkpt>
<trkpt lat="35.268072" lon="135.549264"><ele>183</ele></trkpt>
<trkpt lat="35.269083" lon="135.548342"><ele>185</ele></trkpt>
<trkpt lat="35.269834" lon="135.547020"><ele>186</ele></trkpt>
<trkpt lat="35.270356" lon="135.546390"><ele>188</ele></trkpt>
<trkpt lat="35.270813" lon="135.545751"><ele>188</ele></trkpt>
<trkpt lat="35.271213" lon="135.545140"><ele>187</ele></trkpt>
<trkpt lat="35.271647" lon="135.544425"><ele>185</ele></trkpt>
<trkpt lat="35.272081" lon="135.543937"><ele>185</ele></trkpt>
<trkpt lat="35.272357" lon="135.543367"><ele>185</ele></trkpt>
<trkpt lat="35.272478" lon="135.542587"><ele>184</ele></trkpt>
<trkpt lat="35.272892" lon="135.542018"><ele>185</ele></trkpt>
<trkpt lat="35.273288" lon="135.541572"><ele>185</ele></trkpt>
<trkpt lat="35.274028" lon="135.540680"><ele>186</ele></trkpt>
<trkpt lat="35.274618" lon="135.539711"><ele>187</ele></trkpt>
<trkpt lat="35.275312" lon="135.538587"><ele>188</ele></trkpt>
<trkpt lat="35.275720" lon="135.538111"><ele>189</ele></trkpt>
<trkpt lat="35.276033" lon="135.537556"><ele>190</ele></trkpt>
<trkpt lat="35.276472" lon="135.537122"><ele>191</ele></trkpt>
<trkpt lat="35.276924" lon="135.536305"><ele>192</ele></trkpt>
<trkpt lat="35.277057" lon="135.535354"><ele>192</ele></trkpt>
<trkpt lat="35.277293" lon="135.534559"><ele>193</ele></trkpt>
<trkpt lat="35.277530" lon="135.533939"><ele>197</ele></trkpt>
<trkpt lat="35.277623" lon="135.533322"><ele>201</ele></trkpt>
<trkpt lat="35.277955" lon="135.532702"><ele>208</ele></trkpt>
<trkpt lat="35.278059" lon="135.531995"><ele>214</ele></trkpt>
<trkpt lat="35.277889" lon="135.531211"><ele>216</ele></trkpt>
<trkpt lat="35.277771" lon="135.530421"><ele>216</ele></trkpt>
<trkpt lat="35.277420" lon="135.529673"><ele>212</ele></trkpt>
<trkpt lat="35.277012" lon="135.529226"><ele>207</ele></trkpt>
<trkpt lat="35.277390" lon="135.528263"><ele>201</ele></trkpt>
<trkpt lat="35.277767" lon="135.527740"><ele>196</ele></trkpt>
<trkpt lat="35.278253" lon="135.526874"><ele>189</ele></trkpt>
<trkpt lat="35.279246" lon="135.525427"><ele>185</ele></trkpt>
<trkpt lat="35.279628" lon="135.524758"><ele>185</ele></trkpt>
<trkpt lat="35.280170" lon="135.524171"><ele>182</ele></trkpt>
<trkpt lat="35.279033" lon="135.522206"><ele>182</ele></trkpt>
<trkpt lat="35.277466" lon="135.520155"><ele>184</ele></trkpt>
<trkpt lat="35.277508" lon="135.518758"><ele>185</ele></trkpt>
<trkpt lat="35.277278" lon="135.518032"><ele>182</ele></trkpt>
<trkpt lat="35.277383" lon="135.517451"><ele>184</ele></trkpt>
<trkpt lat="35.277671" lon="135.516862"><ele>184</ele></trkpt>
<trkpt lat="35.277823" lon="135.516154"><ele>186</ele></trkpt>
<trkpt lat="35.278043" lon="135.514622"><ele>188</ele></trkpt>
<trkpt lat="35.278043" lon="135.513809"><ele>190</ele></trkpt>
<trkpt lat="35.277944" lon="135.512768"><ele>191</ele></trkpt>
<trkpt lat="35.277800" lon="135.512107"><ele>190</ele></trkpt>
<trkpt lat="35.277867" lon="135.511359"><ele>190</ele></trkpt>
<trkpt lat="35.278352" lon="135.511029"><ele>188</ele></trkpt>
<trkpt lat="35.278451" lon="135.510430"><ele>186</ele></trkpt>
<trkpt lat="35.277771" lon="135.510163"><ele>186</ele></trkpt>
<trkpt lat="35.277381" lon="135.509650"><ele>185</ele></trkpt>
<trkpt lat="35.277549" lon="135.508968"><ele>184</ele></trkpt>
<trkpt lat="35.277489" lon="135.508270"><ele>186</ele></trkpt>
<trkpt lat="35.277139" lon="135.507734"><ele>188</ele></trkpt>
<trkpt lat="35.274827" lon="135.506110"><ele>188</ele></trkpt>
<trkpt lat="35.273540" lon="135.505198"><ele>187</ele></trkpt>
<trkpt lat="35.273114" lon="135.505622"><ele>188</ele></trkpt>
<trkpt lat="35.272667" lon="135.505677"><ele>187</ele></trkpt>
<trkpt lat="35.272347" lon="135.504972"><ele>184</ele></trkpt>
<trkpt lat="35.272174" lon="135.504284"><ele>182</ele></trkpt>
<trkpt lat="35.271602" lon="135.503319"><ele>182</ele></trkpt>
<trkpt lat="35.271244" lon="135.502808"><ele>183</ele></trkpt>
<trkpt lat="35.271441" lon="135.502305"><ele>183</ele></trkpt>
<trkpt lat="35.270973" lon="135.501208"><ele>184</ele></trkpt>
<trkpt lat="35.270780" lon="135.500585"><ele>188</ele></trkpt>
<trkpt lat="35.270818" lon="135.499895"><ele>192</ele></trkpt>
<trkpt lat="35.271612" lon="135.498153"><ele>198</ele></trkpt>
<trkpt lat="35.271561" lon="135.497057"><ele>204</ele></trkpt>
<trkpt lat="35.271286" lon="135.496442"><ele>205</ele></trkpt>
<trkpt lat="35.270172" lon="135.495541"><ele>202</ele></trkpt>
<trkpt lat="35.268685" lon="135.495031"><ele>197</ele></trkpt>
<trkpt lat="35.268357" lon="135.494387"><ele>191</ele></trkpt>
<trkpt lat="35.267547" lon="135.494010"><ele>184</ele></trkpt>
<trkpt lat="35.266813" lon="135.493753"><ele>183</ele></trkpt>
<trkpt lat="35.266108" lon="135.493396"><ele>182</ele></trkpt>
<trkpt lat="35.265423" lon="135.492732"><ele>184</ele></trkpt>
<trkpt lat="35.265042" lon="135.492104"><ele>187</ele></trkpt>
<trkpt lat="35.264723" lon="135.491174"><ele>189</ele></trkpt>
<trkpt lat="35.264457" lon="135.489918"><ele>190</ele></trkpt>
<trkpt lat="35.264331" lon="135.489226"><ele>191</ele></trkpt>
</trkseg></trk>
</gpx>
