<?xml version="1.0" encoding="UTF-8"?>
<gpx version="1.1" creator="Japonya Bisiklet Turu" xmlns="http://www.topografix.com/GPX/1/1">
<wpt lat="35.264500" lon="135.489200"><name>Miyama Heimat YH</name></wpt>
<wpt lat="35.262500" lon="135.460800"><name>Ōno Barajı</name></wpt>
<wpt lat="35.270200" lon="135.397600"><name>Michi-no-eki Wa</name></wpt>
<wpt lat="35.261200" lon="135.399000"><name>Kadoya (Wachi)</name></wpt>
<trk><name>Gün 12 · Miyama – Kyōtamba (Wachi)</name><trkseg>
<trkpt lat="35.264331" lon="135.489226"><ele>188</ele></trkpt>
<trkpt lat="35.264461" lon="135.488534"><ele>188</ele></trkpt>
<trkpt lat="35.264737" lon="135.487910"><ele>187</ele></trkpt>
<trkpt lat="35.265001" lon="135.487189"><ele>185</ele></trkpt>
<trkpt lat="35.265174" lon="135.486262"><ele>183</ele></trkpt>
<trkpt lat="35.265423" lon="135.485551"><ele>181</ele></trkpt>
<trkpt lat="35.265738" lon="135.484655"><ele>179</ele></trkpt>
<trkpt lat="35.266224" lon="135.483820"><ele>179</ele></trkpt>
<trkpt lat="35.266680" lon="135.483463"><ele>180</ele></trkpt>
<trkpt lat="35.267194" lon="135.483236"><ele>183</ele></trkpt>
<trkpt lat="35.267588" lon="135.482538"><ele>186</ele></trkpt>
<trkpt lat="35.267808" lon="135.481843"><ele>191</ele></trkpt>
<trkpt lat="35.268060" lon="135.481103"><ele>192</ele></trkpt>
<trkpt lat="35.268164" lon="135.480069"><ele>191</ele></trkpt>
<trkpt lat="35.267663" lon="135.477769"><ele>189</ele></trkpt>
<trkpt lat="35.267630" lon="135.477016"><ele>186</ele></trkpt>
<trkpt lat="35.267586" lon="135.476251"><ele>184</ele></trkpt>
<trkpt lat="35.267704" lon="135.475388"><ele>183</ele></trkpt>
<trkpt lat="35.268894" lon="135.473389"><ele>184</ele></trkpt>
<trkpt lat="35.269820" lon="135.472265"><ele>184</ele></trkpt>
<trkpt lat="35.270549" lon="135.471909"><ele>183</ele></trkpt>
<trkpt lat="35.271162" lon="135.471532"><ele>184</ele></trkpt>
<trkpt lat="35.271587" lon="135.470904"><ele>185</ele></trkpt>
<trkpt lat="35.272011" lon="135.468704"><ele>186</ele></trkpt>
<trkpt lat="35.272084" lon="135.467698"><ele>187</ele></trkpt>
<trkpt lat="35.272220" lon="135.467006"><ele>190</ele></trkpt>
<trkpt lat="35.271575" lon="135.466576"><ele>190</ele></trkpt>
<trkpt lat="35.271071" lon="135.466009"><ele>194</ele></trkpt>
<trkpt lat="35.270606" lon="135.465353"><ele>201</ele></trkpt>
<trkpt lat="35.270227" lon="135.464674"><ele>210</ele></trkpt>
<trkpt lat="35.269774" lon="135.464237"><ele>219</ele></trkpt>
<trkpt lat="35.269051" lon="135.464202"><ele>223</ele></trkpt>
<trkpt lat="35.268458" lon="135.464210"><ele>221</ele></trkpt>
<trkpt lat="35.267866" lon="135.464459"><ele>216</ele></trkpt>
<trkpt lat="35.267272" lon="135.464440"><ele>209</ele></trkpt>
<trkpt lat="35.266643" lon="135.463575"><ele>197</ele></trkpt>
<trkpt lat="35.266092" lon="135.462037"><ele>192</ele></trkpt>
<trkpt lat="35.265365" lon="135.460911"><ele>190</ele></trkpt>
<trkpt lat="35.264932" lon="135.460302"><ele>185</ele></trkpt>
<trkpt lat="35.264659" lon="135.459432"><ele>181</ele></trkpt>
<trkpt lat="35.263878" lon="135.459222"><ele>181</ele></trkpt>
<trkpt lat="35.263217" lon="135.459270"><ele>178</ele></trkpt>
<trkpt lat="35.262786" lon="135.458965"><ele>171</ele></trkpt>
<trkpt lat="35.262642" lon="135.459823"><ele>168</ele></trkpt>
<trkpt lat="35.262324" lon="135.460635"><ele>169</ele></trkpt>
<trkpt lat="35.262629" lon="135.460049"><ele>167</ele></trkpt>
<trkpt lat="35.262687" lon="135.459015"><ele>170</ele></trkpt>
<trkpt lat="35.263069" lon="135.459231"><ele>177</ele></trkpt>
<trkpt lat="35.263878" lon="135.459222"><ele>184</ele></trkpt>
<trkpt lat="35.264536" lon="135.459194"><ele>187</ele></trkpt>
<trkpt lat="35.263742" lon="135.458808"><ele>190</ele></trkpt>
<trkpt lat="35.263010" lon="135.458644"><ele>195</ele></trkpt>
<trkpt lat="35.262428" lon="135.458508"><ele>201</ele></trkpt>
<trkpt lat="35.261878" lon="135.458229"><ele>202</ele></trkpt>
<trkpt lat="35.261398" lon="135.457763"><ele>206</ele></trkpt>
<trkpt lat="35.260843" lon="135.457568"><ele>207</ele></trkpt>
<trkpt lat="35.260354" lon="135.456983"><ele>205</ele></trkpt>
<trkpt lat="35.259681" lon="135.456482"><ele>198</ele></trkpt>
<trkpt lat="35.259212" lon="135.454619"><ele>193</ele></trkpt>
<trkpt lat="35.259253" lon="135.453939"><ele>186</ele></trkpt>
<trkpt lat="35.259827" lon="135.452403"><ele>184</ele></trkpt>
<trkpt lat="35.260189" lon="135.451884"><ele>182</ele></trkpt>
<trkpt lat="35.260446" lon="135.451238"><ele>178</ele></trkpt>
<trkpt lat="35.260233" lon="135.450669"><ele>177</ele></trkpt>
<trkpt lat="35.259661" lon="135.450054"><ele>178</ele></trkpt>
<trkpt lat="35.258669" lon="135.448315"><ele>177</ele></trkpt>
<trkpt lat="35.258411" lon="135.447737"><ele>177</ele></trkpt>
<trkpt lat="35.258738" lon="135.447114"><ele>182</ele></trkpt>
<trkpt lat="35.258599" lon="135.445458"><ele>186</ele></trkpt>
<trkpt lat="35.258073" lon="135.445319"><ele>187</ele></trkpt>
<trkpt lat="35.257701" lon="135.445027"><ele>187</ele></trkpt>
<trkpt lat="35.258266" lon="135.444571"><ele>184</ele></trkpt>
<trkpt lat="35.258707" lon="135.444032"><ele>183</ele></trkpt>
<trkpt lat="35.259143" lon="135.443598"><ele>180</ele></trkpt>
<trkpt lat="35.258695" lon="135.443236"><ele>180</ele></trkpt>
<trkpt lat="35.258922" lon="135.442825"><ele>181</ele></trkpt>
<trkpt lat="35.258928" lon="135.442175"><ele>184</ele></trkpt>
<trkpt lat="35.259075" lon="135.441500"><ele>183</ele></trkpt>
<trkpt lat="35.259362" lon="135.440870"><ele>182</ele></trkpt>
<trkpt lat="35.259652" lon="135.440168"><ele>182</ele></trkpt>
<trkpt lat="35.260137" lon="135.439430"><ele>177</ele></trkpt>
<trkpt lat="35.260145" lon="135.438788"><ele>177</ele></trkpt>
<trkpt lat="35.260694" lon="135.438614"><ele>175</ele></trkpt>
<trkpt lat="35.260499" lon="135.438130"><ele>175</ele></trkpt>
<trkpt lat="35.260801" lon="135.437790"><ele>172</ele></trkpt>
<trkpt lat="35.260923" lon="135.437103"><ele>173</ele></trkpt>
<trkpt lat="35.261352" lon="135.436574"><ele>172</ele></trkpt>
<trkpt lat="35.261635" lon="135.435721"><ele>173</ele></trkpt>
<trkpt lat="35.261491" lon="135.434862"><ele>172</ele></trkpt>
<trkpt lat="35.261434" lon="135.434192"><ele>172</ele></trkpt>
<trkpt lat="35.261522" lon="135.433290"><ele>173</ele></trkpt>
<trkpt lat="35.261416" lon="135.432608"><ele>171</ele></trkpt>
<trkpt lat="35.260927" lon="135.432213"><ele>170</ele></trkpt>
<trkpt lat="35.259508" lon="135.431041"><ele>170</ele></trkpt>
<trkpt lat="35.258942" lon="135.430962"><ele>169</ele></trkpt>
<trkpt lat="35.258383" lon="135.430729"><ele>165</ele></trkpt>
<trkpt lat="35.258399" lon="135.430198"><ele>162</ele></trkpt>
<trkpt lat="35.258144" lon="135.429715"><ele>157</ele></trkpt>
<trkpt lat="35.257520" lon="135.429339"><ele>151</ele></trkpt>
<trkpt lat="35.257012" lon="135.429046"><ele>147</ele></trkpt>
<trkpt lat="35.256422" lon="135.428575"><ele>145</ele></trkpt>
<trkpt lat="35.255926" lon="135.428274"><ele>144</ele></trkpt>
<trkpt lat="35.255349" lon="135.428409"><ele>145</ele></trkpt>
<trkpt lat="35.254646" lon="135.428235"><ele>145</ele></trkpt>
<trkpt lat="35.253828" lon="135.427633"><ele>145</ele></trkpt>
<trkpt lat="35.253857" lon="135.426968"><ele>145</ele></trkpt>
<trkpt lat="35.253249" lon="135.425859"><ele>146</ele></trkpt>
<trkpt lat="35.252689" lon="135.425614"><ele>145</ele></trkpt>
<trkpt lat="35.252444" lon="135.426188"><ele>145</ele></trkpt>
<trkpt lat="35.251937" lon="135.425919"><ele>145</ele></trkpt>
<trkpt lat="35.251701" lon="135.425254"><ele>146</ele></trkpt>
<trkpt lat="35.251034" lon="135.425200"><ele>144</ele></trkpt>
<trkpt lat="35.250456" lon="135.425170"><ele>142</ele></trkpt>
<trkpt lat="35.250372" lon="135.424505"><ele>141</ele></trkpt>
<trkpt lat="35.250036" lon="135.423832"><ele>141</ele></trkpt>
<trkpt lat="35.249774" lon="135.423223"><ele>140</ele></trkpt>
<trkpt lat="35.250449" lon="135.421919"><ele>142</ele></trkpt>
<trkpt lat="35.250915" lon="135.421248"><ele>142</ele></trkpt>
<trkpt lat="35.251704" lon="135.420115"><ele>143</ele></trkpt>
<trkpt lat="35.252734" lon="135.418661"><ele>142</ele></trkpt>
<trkpt lat="35.253196" lon="135.418172"><ele>140</ele></trkpt>
<trkpt lat="35.253602" lon="135.417430"><ele>138</ele></trkpt>
<trkpt lat="35.253951" lon="135.416853"><ele>136</ele></trkpt>
<trkpt lat="35.254385" lon="135.416456"><ele>134</ele></trkpt>
<trkpt lat="35.254925" lon="135.416177"><ele>132</ele></trkpt>
<trkpt lat="35.255366" lon="135.415744"><ele>131</ele></trkpt>
<trkpt lat="35.255888" lon="135.415160"><ele>130</ele></trkpt>
<trkpt lat="35.256329" lon="135.414730"><ele>129</ele></trkpt>
<trkpt lat="35.256763" lon="135.414194"><ele>130</ele></trkpt>
<trkpt lat="35.257292" lon="135.413170"><ele>131</ele></trkpt>
<trkpt lat="35.257923" lon="135.412765"><ele>132</ele></trkpt>
<trkpt lat="35.258661" lon="135.413054"><ele>132</ele></trkpt>
<trkpt lat="35.259637" lon="135.412655"><ele>131</ele></trkpt>
<trkpt lat="35.260178" lon="135.411947"><ele>128</ele></trkpt>
<trkpt lat="35.260584" lon="135.411377"><ele>125</ele></trkpt>
<trkpt lat="35.260751" lon="135.410264"><ele>124</ele></trkpt>
<trkpt lat="35.260809" lon="135.408522"><ele>121</ele></trkpt>
<trkpt lat="35.261165" lon="135.407623"><ele>119</ele></trkpt>
<trkpt lat="35.260935" lon="135.406986"><ele>117</ele></trkpt>
<trkpt lat="35.260735" lon="135.404766"><ele>114</ele></trkpt>
<trkpt lat="35.260508" lon="135.403963"><ele>112</ele></trkpt>
<trkpt lat="35.260234" lon="135.403132"><ele>111</ele></trkpt>
<trkpt lat="35.260324" lon="135.401460"><ele>111</ele></trkpt>
<trkpt lat="35.260385" lon="135.400622"><ele>111</ele></trkpt>
<trkpt lat="35.260681" lon="135.399966"><ele>113</ele></trkpt>
<trkpt lat="35.260997" lon="135.399396"><ele>115</ele></trkpt>
<trkpt lat="35.261749" lon="135.398719"><ele>115</ele></trkpt>
<trkpt lat="35.262361" lon="135.398263"><ele>115</ele></trkpt>
<trkpt lat="35.262878" lon="135.398383"><ele>114</ele></trkpt>
<trkpt lat="35.263270" lon="135.399276"><ele>112</ele></trkpt>
<trkpt lat="35.263757" lon="135.399651"><ele>108</ele></trkpt>
<trkpt lat="35.264441" lon="135.399601"><ele>106</ele></trkpt>
<trkpt lat="35.265054" lon="135.399718"><ele>104</ele></trkpt>
<trkpt lat="35.265600" lon="135.399915"><ele>101</ele></trkpt>
<trkpt lat="35.266142" lon="135.400376"><ele>100</ele></trkpt>
<trkpt lat="35.267012" lon="135.400322"><ele>99</ele></trkpt>
<trkpt lat="35.267877" lon="135.399940"><ele>98</ele></trkpt>
<trkpt lat="35.270207" lon="135.399110"><ele>98</ele></trkpt>
<trkpt lat="35.270871" lon="135.398784"><ele>98</ele></trkpt>
<trkpt lat="35.271211" lon="135.398264"><ele>98</ele></trkpt>
<trkpt lat="35.270959" lon="135.397467"><ele>98</ele></trkpt>
<trkpt lat="35.270385" lon="135.396980"><ele>98</ele></trkpt>
<trkpt lat="35.270168" lon="135.397147"><ele>97</ele></trkpt>
<trkpt lat="35.270148" lon="135.397064"><ele>98</ele></trkpt>
<trkpt lat="35.270606" lon="135.397117"><ele>98</ele></trkpt>
<trkpt lat="35.271232" lon="135.397800"><ele>98</ele></trkpt>
<trkpt lat="35.270871" lon="135.398784"><ele>97</ele></trkpt>
<trkpt lat="35.270207" lon="135.399110"><ele>98</ele></trkpt>
<trkpt lat="35.268119" lon="135.399584"><ele>98</ele></trkpt>
<trkpt lat="35.267446" lon="135.400170"><ele>98</ele></trkpt>
<trkpt lat="35.266647" lon="135.400370"><ele>99</ele></trkpt>
<trkpt lat="35.265633" lon="135.400130"><ele>101</ele></trkpt>
<trkpt lat="35.265054" lon="135.399718"><ele>104</ele></trkpt>
<trkpt lat="35.264441" lon="135.399601"><ele>106</ele></trkpt>
<trkpt lat="35.263757" lon="135.399651"><ele>108</ele></trkpt>
<trkpt lat="35.263270" lon="135.399276"><ele>112</ele></trkpt>
<trkpt lat="35.262878" lon="135.398383"><ele>114</ele></trkpt>
<trkpt lat="35.262361" lon="135.398263"><ele>115</ele></trkpt>
<trkpt lat="35.261749" lon="135.398719"><ele>116</ele></trkpt>
<trkpt lat="35.261295" lon="135.399149"><ele>117</ele></trkpt>
</trkseg></trk>
</gpx>
