<?xml version="1.0" encoding="UTF-8"?>
<gpx version="1.1" creator="Japonya Bisiklet Turu" xmlns="http://www.topografix.com/GPX/1/1">
<wpt lat="35.261200" lon="135.399000"><name>Kadoya (Wachi)</name></wpt>
<wpt lat="35.164000" lon="135.419000"><name>Shuchi</name></wpt>
<wpt lat="35.155800" lon="135.416300"><name>Ajimu no Sato</name></wpt>
<wpt lat="35.138900" lon="135.439400"><name>Kotodaki</name></wpt>
<wpt lat="35.006700" lon="135.549200"><name>Anao-ji</name></wpt>
<wpt lat="35.015100" lon="135.566500"><name>Galleria Kameoka</name></wpt>
<wpt lat="35.025400" lon="135.593800"><name>Farmhouse NaNa (Hozu)</name></wpt>
<trk><name>Gün 13 · Kyōtamba – Kameoka</name><trkseg>
<trkpt lat="35.261295" lon="135.399149"><ele>113</ele></trkpt>
<trkpt lat="35.260681" lon="135.399966"><ele>113</ele></trkpt>
<trkpt lat="35.260385" lon="135.400622"><ele>112</ele></trkpt>
<trkpt lat="35.260324" lon="135.401460"><ele>111</ele></trkpt>
<trkpt lat="35.260228" lon="135.402788"><ele>109</ele></trkpt>
<trkpt lat="35.260413" lon="135.403688"><ele>108</ele></trkpt>
<trkpt lat="35.259560" lon="135.404149"><ele>108</ele></trkpt>
<trkpt lat="35.259457" lon="135.404802"><ele>108</ele></trkpt>
<trkpt lat="35.259355" lon="135.405510"><ele>108</ele></trkpt>
<trkpt lat="35.259077" lon="135.406118"><ele>108</ele></trkpt>
<trkpt lat="35.258742" lon="135.406771"><ele>109</ele></trkpt>
<trkpt lat="35.258330" lon="135.407397"><ele>109</ele></trkpt>
<trkpt lat="35.257842" lon="135.407974"><ele>112</ele></trkpt>
<trkpt lat="35.257359" lon="135.408319"><ele>116</ele></trkpt>
<trkpt lat="35.256621" lon="135.408683"><ele>121</ele></trkpt>
<trkpt lat="35.256166" lon="135.410057"><ele>125</ele></trkpt>
<trkpt lat="35.255884" lon="135.410917"><ele>127</ele></trkpt>
<trkpt lat="35.255540" lon="135.411522"><ele>127</ele></trkpt>
<trkpt lat="35.254802" lon="135.412119"><ele>127</ele></trkpt>
<trkpt lat="35.254250" lon="135.412387"><ele>126</ele></trkpt>
<trkpt lat="35.253440" lon="135.412777"><ele>127</ele></trkpt>
<trkpt lat="35.252824" lon="135.413267"><ele>129</ele></trkpt>
<trkpt lat="35.251905" lon="135.414132"><ele>130</ele></trkpt>
<trkpt lat="35.251442" lon="135.414475"><ele>133</ele></trkpt>
<trkpt lat="35.250925" lon="135.414702"><ele>136</ele></trkpt>
<trkpt lat="35.250384" lon="135.414709"><ele>141</ele></trkpt>
<trkpt lat="35.249825" lon="135.414282"><ele>146</ele></trkpt>
<trkpt lat="35.249222" lon="135.413287"><ele>151</ele></trkpt>
<trkpt lat="35.248923" lon="135.412629"><ele>158</ele></trkpt>
<trkpt lat="35.248597" lon="135.411955"><ele>164</ele></trkpt>
<trkpt lat="35.248202" lon="135.411386"><ele>170</ele></trkpt>
<trkpt lat="35.247685" lon="135.410981"><ele>176</ele></trkpt>
<trkpt lat="35.247330" lon="135.410446"><ele>181</ele></trkpt>
<trkpt lat="35.246811" lon="135.409965"><ele>185</ele></trkpt>
<trkpt lat="35.246315" lon="135.409403"><ele>187</ele></trkpt>
<trkpt lat="35.245752" lon="135.409204"><ele>187</ele></trkpt>
<trkpt lat="35.245002" lon="135.409417"><ele>185</ele></trkpt>
<trkpt lat="35.244456" lon="135.410062"><ele>183</ele></trkpt>
<trkpt lat="35.243909" lon="135.410344"><ele>183</ele></trkpt>
<trkpt lat="35.243379" lon="135.410165"><ele>182</ele></trkpt>
<trkpt lat="35.242983" lon="135.409654"><ele>180</ele></trkpt>
<trkpt lat="35.242664" lon="135.409691"><ele>178</ele></trkpt>
<trkpt lat="35.241585" lon="135.410131"><ele>175</ele></trkpt>
<trkpt lat="35.241199" lon="135.410872"><ele>169</ele></trkpt>
<trkpt lat="35.240759" lon="135.411283"><ele>163</ele></trkpt>
<trkpt lat="35.240633" lon="135.412144"><ele>161</ele></trkpt>
<trkpt lat="35.240967" lon="135.412660"><ele>158</ele></trkpt>
<trkpt lat="35.241089" lon="135.413202"><ele>155</ele></trkpt>
<trkpt lat="35.240304" lon="135.413005"><ele>152</ele></trkpt>
<trkpt lat="35.239705" lon="135.413484"><ele>149</ele></trkpt>
<trkpt lat="35.239787" lon="135.412948"><ele>145</ele></trkpt>
<trkpt lat="35.240080" lon="135.412394"><ele>140</ele></trkpt>
<trkpt lat="35.239632" lon="135.412842"><ele>138</ele></trkpt>
<trkpt lat="35.238685" lon="135.413019"><ele>136</ele></trkpt>
<trkpt lat="35.238165" lon="135.412854"><ele>135</ele></trkpt>
<trkpt lat="35.237803" lon="135.413403"><ele>135</ele></trkpt>
<trkpt lat="35.236959" lon="135.413090"><ele>137</ele></trkpt>
<trkpt lat="35.236467" lon="135.412845"><ele>139</ele></trkpt>
<trkpt lat="35.235952" lon="135.412645"><ele>141</ele></trkpt>
<trkpt lat="35.235542" lon="135.412958"><ele>142</ele></trkpt>
<trkpt lat="35.234298" lon="135.413254"><ele>142</ele></trkpt>
<trkpt lat="35.232996" lon="135.413731"><ele>144</ele></trkpt>
<trkpt lat="35.232426" lon="135.414026"><ele>145</ele></trkpt>
<trkpt lat="35.231879" lon="135.414309"><ele>147</ele></trkpt>
<trkpt lat="35.231217" lon="135.414651"><ele>148</ele></trkpt>
<trkpt lat="35.229330" lon="135.415528"><ele>149</ele></trkpt>
<trkpt lat="35.228298" lon="135.415861"><ele>150</ele></trkpt>
<trkpt lat="35.227675" lon="135.416066"><ele>152</ele></trkpt>
<trkpt lat="35.226932" lon="135.416388"><ele>154</ele></trkpt>
<trkpt lat="35.226819" lon="135.417037"><ele>158</ele></trkpt>
<trkpt lat="35.226572" lon="135.417664"><ele>162</ele></trkpt>
<trkpt lat="35.226123" lon="135.418355"><ele>164</ele></trkpt>
<trkpt lat="35.225707" lon="135.418771"><ele>165</ele></trkpt>
<trkpt lat="35.225177" lon="135.418969"><ele>165</ele></trkpt>
<trkpt lat="35.224478" lon="135.419289"><ele>164</ele></trkpt>
<trkpt lat="35.223752" lon="135.419574"><ele>162</ele></trkpt>
<trkpt lat="35.223147" lon="135.419807"><ele>159</ele></trkpt>
<trkpt lat="35.222522" lon="135.419768"><ele>155</ele></trkpt>
<trkpt lat="35.221652" lon="135.420177"><ele>152</ele></trkpt>
<trkpt lat="35.221123" lon="135.420260"><ele>148</ele></trkpt>
<trkpt lat="35.220565" lon="135.420347"><ele>145</ele></trkpt>
<trkpt lat="35.219971" lon="135.420010"><ele>142</ele></trkpt>
<trkpt lat="35.219187" lon="135.419921"><ele>141</ele></trkpt>
<trkpt lat="35.218078" lon="135.419746"><ele>140</ele></trkpt>
<trkpt lat="35.217186" lon="135.419706"><ele>140</ele></trkpt>
<trkpt lat="35.216581" lon="135.419777"><ele>141</ele></trkpt>
<trkpt lat="35.216004" lon="135.420174"><ele>142</ele></trkpt>
<trkpt lat="35.214903" lon="135.422512"><ele>141</ele></trkpt>
<trkpt lat="35.214310" lon="135.423665"><ele>140</ele></trkpt>
<trkpt lat="35.213951" lon="135.424244"><ele>139</ele></trkpt>
<trkpt lat="35.213273" lon="135.424777"><ele>140</ele></trkpt>
<trkpt lat="35.212853" lon="135.425213"><ele>143</ele></trkpt>
<trkpt lat="35.212605" lon="135.426209"><ele>145</ele></trkpt>
<trkpt lat="35.212233" lon="135.426892"><ele>146</ele></trkpt>
<trkpt lat="35.211512" lon="135.427464"><ele>148</ele></trkpt>
<trkpt lat="35.210994" lon="135.427855"><ele>146</ele></trkpt>
<trkpt lat="35.210510" lon="135.428326"><ele>146</ele></trkpt>
<trkpt lat="35.209994" lon="135.428754"><ele>147</ele></trkpt>
<trkpt lat="35.209788" lon="135.429405"><ele>147</ele></trkpt>
<trkpt lat="35.209372" lon="135.429939"><ele>148</ele></trkpt>
<trkpt lat="35.209104" lon="135.430692"><ele>149</ele></trkpt>
<trkpt lat="35.208897" lon="135.431317"><ele>149</ele></trkpt>
<trkpt lat="35.208893" lon="135.432129"><ele>152</ele></trkpt>
<trkpt lat="35.208820" lon="135.432958"><ele>156</ele></trkpt>
<trkpt lat="35.208687" lon="135.433708"><ele>161</ele></trkpt>
<trkpt lat="35.208106" lon="135.434018"><ele>167</ele></trkpt>
<trkpt lat="35.207342" lon="135.434081"><ele>172</ele></trkpt>
<trkpt lat="35.207047" lon="135.435967"><ele>175</ele></trkpt>
<trkpt lat="35.207299" lon="135.436418"><ele>177</ele></trkpt>
<trkpt lat="35.207079" lon="135.436975"><ele>178</ele></trkpt>
<trkpt lat="35.206360" lon="135.436978"><ele>180</ele></trkpt>
<trkpt lat="35.205650" lon="135.436990"><ele>182</ele></trkpt>
<trkpt lat="35.205058" lon="135.436751"><ele>184</ele></trkpt>
<trkpt lat="35.205627" lon="135.435579"><ele>185</ele></trkpt>
<trkpt lat="35.205546" lon="135.434700"><ele>186</ele></trkpt>
<trkpt lat="35.205160" lon="135.433950"><ele>186</ele></trkpt>
<trkpt lat="35.203771" lon="135.432490"><ele>185</ele></trkpt>
<trkpt lat="35.203348" lon="135.432048"><ele>185</ele></trkpt>
<trkpt lat="35.202581" lon="135.431769"><ele>185</ele></trkpt>
<trkpt lat="35.201970" lon="135.431305"><ele>185</ele></trkpt>
<trkpt lat="35.201621" lon="135.430783"><ele>184</ele></trkpt>
<trkpt lat="35.201342" lon="135.430028"><ele>181</ele></trkpt>
<trkpt lat="35.201075" lon="135.429394"><ele>177</ele></trkpt>
<trkpt lat="35.200556" lon="135.429203"><ele>174</ele></trkpt>
<trkpt lat="35.200325" lon="135.429705"><ele>171</ele></trkpt>
<trkpt lat="35.200412" lon="135.430405"><ele>171</ele></trkpt>
<trkpt lat="35.199954" lon="135.430632"><ele>172</ele></trkpt>
<trkpt lat="35.199621" lon="135.431168"><ele>174</ele></trkpt>
<trkpt lat="35.199430" lon="135.430564"><ele>173</ele></trkpt>
<trkpt lat="35.199362" lon="135.429824"><ele>173</ele></trkpt>
<trkpt lat="35.199655" lon="135.429254"><ele>170</ele></trkpt>
<trkpt lat="35.199661" lon="135.428547"><ele>168</ele></trkpt>
<trkpt lat="35.199541" lon="135.427902"><ele>163</ele></trkpt>
<trkpt lat="35.199193" lon="135.427270"><ele>159</ele></trkpt>
<trkpt lat="35.199131" lon="135.426172"><ele>156</ele></trkpt>
<trkpt lat="35.198739" lon="135.425189"><ele>153</ele></trkpt>
<trkpt lat="35.198293" lon="135.424776"><ele>152</ele></trkpt>
<trkpt lat="35.198038" lon="135.424166"><ele>153</ele></trkpt>
<trkpt lat="35.197450" lon="135.423548"><ele>155</ele></trkpt>
<trkpt lat="35.196964" lon="135.423136"><ele>156</ele></trkpt>
<trkpt lat="35.196501" lon="135.422730"><ele>157</ele></trkpt>
<trkpt lat="35.196434" lon="135.421922"><ele>157</ele></trkpt>
<trkpt lat="35.196275" lon="135.421201"><ele>158</ele></trkpt>
<trkpt lat="35.195746" lon="135.420918"><ele>158</ele></trkpt>
<trkpt lat="35.195202" lon="135.421196"><ele>158</ele></trkpt>
<trkpt lat="35.194474" lon="135.421066"><ele>157</ele></trkpt>
<trkpt lat="35.193798" lon="135.420811"><ele>156</ele></trkpt>
<trkpt lat="35.193249" lon="135.420083"><ele>155</ele></trkpt>
<trkpt lat="35.192606" lon="135.420380"><ele>156</ele></trkpt>
<trkpt lat="35.192089" lon="135.420793"><ele>156</ele></trkpt>
<trkpt lat="35.191492" lon="135.421181"><ele>157</ele></trkpt>
<trkpt lat="35.190772" lon="135.421165"><ele>156</ele></trkpt>
<trkpt lat="35.190299" lon="135.420809"><ele>154</ele></trkpt>
<trkpt lat="35.190141" lon="135.420123"><ele>152</ele></trkpt>
<trkpt lat="35.189947" lon="135.419529"><ele>150</ele></trkpt>
<trkpt lat="35.190540" lon="135.418888"><ele>149</ele></trkpt>
<trkpt lat="35.190624" lon="135.418218"><ele>149</ele></trkpt>
<trkpt lat="35.190297" lon="135.417636"><ele>149</ele></trkpt>
<trkpt lat="35.189612" lon="135.417211"><ele>149</ele></trkpt>
<trkpt lat="35.189080" lon="135.417029"><ele>149</ele></trkpt>
<trkpt lat="35.188494" lon="135.416678"><ele>149</ele></trkpt>
<trkpt lat="35.187913" lon="135.416600"><ele>149</ele></trkpt>
<trkpt lat="35.187542" lon="135.416150"><ele>148</ele></trkpt>
<trkpt lat="35.187059" lon="135.415747"><ele>148</ele></trkpt>
<trkpt lat="35.186346" lon="135.415142"><ele>149</ele></trkpt>
<trkpt lat="35.186029" lon="135.414474"><ele>150</ele></trkpt>
<trkpt lat="35.186319" lon="135.413949"><ele>150</ele></trkpt>
<trkpt lat="35.186119" lon="135.413527"><ele>151</ele></trkpt>
<trkpt lat="35.185412" lon="135.413345"><ele>150</ele></trkpt>
<trkpt lat="35.184091" lon="135.412603"><ele>150</ele></trkpt>
<trkpt lat="35.183165" lon="135.413548"><ele>149</ele></trkpt>
<trkpt lat="35.182608" lon="135.414404"><ele>150</ele></trkpt>
<trkpt lat="35.182333" lon="135.415508"><ele>152</ele></trkpt>
<trkpt lat="35.181690" lon="135.415353"><ele>154</ele></trkpt>
<trkpt lat="35.181376" lon="135.414762"><ele>159</ele></trkpt>
<trkpt lat="35.180959" lon="135.414292"><ele>162</ele></trkpt>
<trkpt lat="35.180306" lon="135.413730"><ele>165</ele></trkpt>
<trkpt lat="35.179432" lon="135.413387"><ele>166</ele></trkpt>
<trkpt lat="35.178826" lon="135.412958"><ele>168</ele></trkpt>
<trkpt lat="35.178707" lon="135.412217"><ele>167</ele></trkpt>
<trkpt lat="35.178697" lon="135.411237"><ele>165</ele></trkpt>
<trkpt lat="35.178515" lon="135.410414"><ele>164</ele></trkpt>
<trkpt lat="35.178156" lon="135.409952"><ele>163</ele></trkpt>
<trkpt lat="35.177585" lon="135.409860"><ele>162</ele></trkpt>
<trkpt lat="35.177039" lon="135.408897"><ele>159</ele></trkpt>
<trkpt lat="35.176495" lon="135.408200"><ele>159</ele></trkpt>
<trkpt lat="35.175618" lon="135.407726"><ele>158</ele></trkpt>
<trkpt lat="35.175395" lon="135.408354"><ele>157</ele></trkpt>
<trkpt lat="35.174820" lon="135.407948"><ele>157</ele></trkpt>
<trkpt lat="35.174402" lon="135.408643"><ele>159</ele></trkpt>
<trkpt lat="35.174099" lon="135.409181"><ele>160</ele></trkpt>
<trkpt lat="35.173023" lon="135.409376"><ele>160</ele></trkpt>
<trkpt lat="35.172395" lon="135.409537"><ele>160</ele></trkpt>
<trkpt lat="35.171877" lon="135.409889"><ele>162</ele></trkpt>
<trkpt lat="35.171309" lon="135.409915"><ele>163</ele></trkpt>
<trkpt lat="35.170784" lon="135.410208"><ele>164</ele></trkpt>
<trkpt lat="35.170071" lon="135.410370"><ele>166</ele></trkpt>
<trkpt lat="35.169252" lon="135.410690"><ele>167</ele></trkpt>
<trkpt lat="35.168660" lon="135.410841"><ele>168</ele></trkpt>
<trkpt lat="35.166946" lon="135.411135"><ele>168</ele></trkpt>
<trkpt lat="35.166022" lon="135.411314"><ele>168</ele></trkpt>
<trkpt lat="35.165261" lon="135.411458"><ele>169</ele></trkpt>
<trkpt lat="35.164642" lon="135.411451"><ele>171</ele></trkpt>
<trkpt lat="35.164386" lon="135.412215"><ele>173</ele></trkpt>
<trkpt lat="35.163886" lon="135.412726"><ele>175</ele></trkpt>
<trkpt lat="35.163475" lon="135.413168"><ele>178</ele></trkpt>
<trkpt lat="35.163316" lon="135.414135"><ele>182</ele></trkpt>
<trkpt lat="35.163529" lon="135.414902"><ele>186</ele></trkpt>
<trkpt lat="35.163765" lon="135.415663"><ele>190</ele></trkpt>
<trkpt lat="35.163734" lon="135.416428"><ele>194</ele></trkpt>
<trkpt lat="35.163578" lon="135.417080"><ele>197</ele></trkpt>
<trkpt lat="35.163390" lon="135.417739"><ele>198</ele></trkpt>
<trkpt lat="35.163721" lon="135.418751"><ele>199</ele></trkpt>
<trkpt lat="35.163721" lon="135.418751"><ele>199</ele></trkpt>
<trkpt lat="35.163384" lon="135.418056"><ele>199</ele></trkpt>
<trkpt lat="35.163491" lon="135.417352"><ele>197</ele></trkpt>
<trkpt lat="35.163734" lon="135.416428"><ele>194</ele></trkpt>
<trkpt lat="35.163765" lon="135.415663"><ele>190</ele></trkpt>
<trkpt lat="35.163529" lon="135.414902"><ele>186</ele></trkpt>
<trkpt lat="35.163316" lon="135.414135"><ele>182</ele></trkpt>
<trkpt lat="35.163406" lon="135.413354"><ele>178</ele></trkpt>
<trkpt lat="35.163830" lon="135.412774"><ele>176</ele></trkpt>
<trkpt lat="35.162952" lon="135.412381"><ele>174</ele></trkpt>
<trkpt lat="35.161074" lon="135.411547"><ele>175</ele></trkpt>
<trkpt lat="35.160370" lon="135.411403"><ele>176</ele></trkpt>
<trkpt lat="35.159552" lon="135.412960"><ele>178</ele></trkpt>
<trkpt lat="35.159184" lon="135.414191"><ele>179</ele></trkpt>
<trkpt lat="35.158849" lon="135.415302"><ele>181</ele></trkpt>
<trkpt lat="35.158243" lon="135.415160"><ele>181</ele></trkpt>
<trkpt lat="35.157673" lon="135.416036"><ele>182</ele></trkpt>
<trkpt lat="35.157205" lon="135.416658"><ele>185</ele></trkpt>
<trkpt lat="35.156490" lon="135.417104"><ele>187</ele></trkpt>
<trkpt lat="35.155589" lon="135.417030"><ele>188</ele></trkpt>
<trkpt lat="35.155693" lon="135.416583"><ele>189</ele></trkpt>
<trkpt lat="35.155589" lon="135.417030"><ele>188</ele></trkpt>
<trkpt lat="35.156185" lon="135.417163"><ele>187</ele></trkpt>
<trkpt lat="35.157071" lon="135.416751"><ele>185</ele></trkpt>
<trkpt lat="35.157564" lon="135.416240"><ele>183</ele></trkpt>
<trkpt lat="35.157928" lon="135.415457"><ele>182</ele></trkpt>
<trkpt lat="35.158443" lon="135.415160"><ele>184</ele></trkpt>
<trkpt lat="35.158456" lon="135.416704"><ele>188</ele></trkpt>
<trkpt lat="35.157375" lon="135.420317"><ele>194</ele></trkpt>
<trkpt lat="35.157140" lon="135.421069"><ele>199</ele></trkpt>
<trkpt lat="35.157042" lon="135.421975"><ele>200</ele></trkpt>
<trkpt lat="35.157031" lon="135.422719"><ele>198</ele></trkpt>
<trkpt lat="35.156555" lon="135.423608"><ele>194</ele></trkpt>
<trkpt lat="35.155810" lon="135.423909"><ele>188</ele></trkpt>
<trkpt lat="35.155013" lon="135.424357"><ele>183</ele></trkpt>
<trkpt lat="35.154601" lon="135.424932"><ele>181</ele></trkpt>
<trkpt lat="35.154213" lon="135.425474"><ele>179</ele></trkpt>
<trkpt lat="35.153317" lon="135.425912"><ele>179</ele></trkpt>
<trkpt lat="35.152430" lon="135.426361"><ele>178</ele></trkpt>
<trkpt lat="35.151415" lon="135.426788"><ele>178</ele></trkpt>
<trkpt lat="35.150953" lon="135.427476"><ele>178</ele></trkpt>
<trkpt lat="35.150263" lon="135.427482"><ele>180</ele></trkpt>
<trkpt lat="35.149716" lon="135.427276"><ele>180</ele></trkpt>
<trkpt lat="35.148747" lon="135.426873"><ele>182</ele></trkpt>
<trkpt lat="35.148145" lon="135.428116"><ele>184</ele></trkpt>
<trkpt lat="35.147929" lon="135.428722"><ele>187</ele></trkpt>
<trkpt lat="35.147586" lon="135.429997"><ele>190</ele></trkpt>
<trkpt lat="35.147008" lon="135.430142"><ele>195</ele></trkpt>
<trkpt lat="35.146264" lon="135.430473"><ele>200</ele></trkpt>
<trkpt lat="35.145433" lon="135.430889"><ele>204</ele></trkpt>
<trkpt lat="35.144410" lon="135.431213"><ele>207</ele></trkpt>
<trkpt lat="35.143887" lon="135.431468"><ele>210</ele></trkpt>
<trkpt lat="35.143391" lon="135.431743"><ele>212</ele></trkpt>
<trkpt lat="35.143082" lon="135.432295"><ele>214</ele></trkpt>
<trkpt lat="35.142390" lon="135.433295"><ele>217</ele></trkpt>
<trkpt lat="35.141271" lon="135.434001"><ele>221</ele></trkpt>
<trkpt lat="35.140634" lon="135.434536"><ele>224</ele></trkpt>
<trkpt lat="35.140218" lon="135.435064"><ele>229</ele></trkpt>
<trkpt lat="35.139816" lon="135.435585"><ele>236</ele></trkpt>
<trkpt lat="35.139471" lon="135.436226"><ele>244</ele></trkpt>
<trkpt lat="35.138576" lon="135.435941"><ele>250</ele></trkpt>
<trkpt lat="35.138076" lon="135.436140"><ele>256</ele></trkpt>
<trkpt lat="35.138765" lon="135.436540"><ele>262</ele></trkpt>
<trkpt lat="35.138977" lon="135.437127"><ele>268</ele></trkpt>
<trkpt lat="35.139009" lon="135.437795"><ele>274</ele></trkpt>
<trkpt lat="35.138895" lon="135.438443"><ele>281</ele></trkpt>
<trkpt lat="35.138582" lon="135.439259"><ele>289</ele></trkpt>
<trkpt lat="35.138812" lon="135.439419"><ele>292</ele></trkpt>
<trkpt lat="35.138520" lon="135.439419"><ele>290</ele></trkpt>
<trkpt lat="35.138816" lon="135.438644"><ele>283</ele></trkpt>
<trkpt lat="35.138999" lon="135.437933"><ele>275</ele></trkpt>
<trkpt lat="35.138977" lon="135.437127"><ele>269</ele></trkpt>
<trkpt lat="35.138765" lon="135.436540"><ele>263</ele></trkpt>
<trkpt lat="35.138113" lon="135.436238"><ele>256</ele></trkpt>
<trkpt lat="35.138576" lon="135.435941"><ele>250</ele></trkpt>
<trkpt lat="35.139411" lon="135.436233"><ele>245</ele></trkpt>
<trkpt lat="35.139816" lon="135.435585"><ele>236</ele></trkpt>
<trkpt lat="35.140218" lon="135.435064"><ele>229</ele></trkpt>
<trkpt lat="35.140634" lon="135.434536"><ele>225</ele></trkpt>
<trkpt lat="35.141087" lon="135.434134"><ele>222</ele></trkpt>
<trkpt lat="35.141599" lon="135.434493"><ele>219</ele></trkpt>
<trkpt lat="35.142257" lon="135.434208"><ele>215</ele></trkpt>
<trkpt lat="35.142852" lon="135.434026"><ele>213</ele></trkpt>
<trkpt lat="35.143307" lon="135.433549"><ele>209</ele></trkpt>
<trkpt lat="35.143923" lon="135.433022"><ele>205</ele></trkpt>
<trkpt lat="35.144408" lon="135.432690"><ele>203</ele></trkpt>
<trkpt lat="35.145135" lon="135.432431"><ele>202</ele></trkpt>
<trkpt lat="35.145216" lon="135.432979"><ele>202</ele></trkpt>
<trkpt lat="35.145151" lon="135.433705"><ele>203</ele></trkpt>
<trkpt lat="35.145043" lon="135.434360"><ele>203</ele></trkpt>
<trkpt lat="35.144786" lon="135.434962"><ele>203</ele></trkpt>
<trkpt lat="35.145161" lon="135.435320"><ele>203</ele></trkpt>
<trkpt lat="35.144759" lon="135.436569"><ele>203</ele></trkpt>
<trkpt lat="35.144633" lon="135.437245"><ele>203</ele></trkpt>
<trkpt lat="35.144696" lon="135.438070"><ele>206</ele></trkpt>
<trkpt lat="35.144755" lon="135.438780"><ele>208</ele></trkpt>
<trkpt lat="35.144629" lon="135.439750"><ele>210</ele></trkpt>
<trkpt lat="35.144567" lon="135.440899"><ele>211</ele></trkpt>
<trkpt lat="35.144309" lon="135.441564"><ele>214</ele></trkpt>
<trkpt lat="35.144444" lon="135.442531"><ele>217</ele></trkpt>
<trkpt lat="35.144675" lon="135.443265"><ele>219</ele></trkpt>
<trkpt lat="35.145187" lon="135.443992"><ele>221</ele></trkpt>
<trkpt lat="35.145656" lon="135.444314"><ele>225</ele></trkpt>
<trkpt lat="35.145909" lon="135.444856"><ele>228</ele></trkpt>
<trkpt lat="35.146212" lon="135.445568"><ele>231</ele></trkpt>
<trkpt lat="35.146501" lon="135.446172"><ele>238</ele></trkpt>
<trkpt lat="35.146681" lon="135.447029"><ele>248</ele></trkpt>
<trkpt lat="35.146529" lon="135.447811"><ele>258</ele></trkpt>
<trkpt lat="35.146472" lon="135.448517"><ele>272</ele></trkpt>
<trkpt lat="35.146095" lon="135.449174"><ele>284</ele></trkpt>
<trkpt lat="35.146135" lon="135.449964"><ele>296</ele></trkpt>
<trkpt lat="35.145587" lon="135.449894"><ele>310</ele></trkpt>
<trkpt lat="35.145023" lon="135.450216"><ele>323</ele></trkpt>
<trkpt lat="35.144353" lon="135.450552"><ele>332</ele></trkpt>
<trkpt lat="35.144214" lon="135.451325"><ele>340</ele></trkpt>
<trkpt lat="35.144088" lon="135.452170"><ele>340</ele></trkpt>
<trkpt lat="35.143864" lon="135.452705"><ele>334</ele></trkpt>
<trkpt lat="35.143362" lon="135.453172"><ele>323</ele></trkpt>
<trkpt lat="35.142849" lon="135.453570"><ele>310</ele></trkpt>
<trkpt lat="35.142139" lon="135.454399"><ele>298</ele></trkpt>
<trkpt lat="35.141647" lon="135.455148"><ele>287</ele></trkpt>
<trkpt lat="35.141236" lon="135.455819"><ele>277</ele></trkpt>
<trkpt lat="35.141156" lon="135.456494"><ele>269</ele></trkpt>
<trkpt lat="35.140798" lon="135.457021"><ele>261</ele></trkpt>
<trkpt lat="35.140281" lon="135.457236"><ele>251</ele></trkpt>
<trkpt lat="35.140103" lon="135.458153"><ele>242</ele></trkpt>
<trkpt lat="35.140234" lon="135.458930"><ele>234</ele></trkpt>
<trkpt lat="35.139761" lon="135.459554"><ele>225</ele></trkpt>
<trkpt lat="35.139040" lon="135.460151"><ele>217</ele></trkpt>
<trkpt lat="35.138555" lon="135.460581"><ele>212</ele></trkpt>
<trkpt lat="35.137878" lon="135.460951"><ele>207</ele></trkpt>
<trkpt lat="35.137291" lon="135.460986"><ele>203</ele></trkpt>
<trkpt lat="35.136643" lon="135.461096"><ele>200</ele></trkpt>
<trkpt lat="35.135992" lon="135.461096"><ele>198</ele></trkpt>
<trkpt lat="35.135242" lon="135.461537"><ele>196</ele></trkpt>
<trkpt lat="35.134721" lon="135.461880"><ele>194</ele></trkpt>
<trkpt lat="35.134290" lon="135.462391"><ele>191</ele></trkpt>
<trkpt lat="35.133690" lon="135.462794"><ele>187</ele></trkpt>
<trkpt lat="35.133100" lon="135.462930"><ele>182</ele></trkpt>
<trkpt lat="35.132746" lon="135.463418"><ele>176</ele></trkpt>
<trkpt lat="35.132462" lon="135.464175"><ele>169</ele></trkpt>
<trkpt lat="35.131922" lon="135.464794"><ele>164</ele></trkpt>
<trkpt lat="35.131284" lon="135.465686"><ele>159</ele></trkpt>
<trkpt lat="35.130698" lon="135.466133"><ele>156</ele></trkpt>
<trkpt lat="35.129790" lon="135.466143"><ele>155</ele></trkpt>
<trkpt lat="35.129037" lon="135.466570"><ele>156</ele></trkpt>
<trkpt lat="35.128847" lon="135.467406"><ele>156</ele></trkpt>
<trkpt lat="35.128569" lon="135.468108"><ele>156</ele></trkpt>
<trkpt lat="35.128367" lon="135.469267"><ele>154</ele></trkpt>
<trkpt lat="35.128014" lon="135.470104"><ele>152</ele></trkpt>
<trkpt lat="35.127558" lon="135.470807"><ele>149</ele></trkpt>
<trkpt lat="35.126890" lon="135.470964"><ele>148</ele></trkpt>
<trkpt lat="35.126019" lon="135.471148"><ele>147</ele></trkpt>
<trkpt lat="35.125160" lon="135.471529"><ele>147</ele></trkpt>
<trkpt lat="35.124544" lon="135.471813"><ele>148</ele></trkpt>
<trkpt lat="35.123952" lon="135.471982"><ele>149</ele></trkpt>
<trkpt lat="35.123150" lon="135.472195"><ele>150</ele></trkpt>
<trkpt lat="35.122426" lon="135.472534"><ele>150</ele></trkpt>
<trkpt lat="35.121554" lon="135.473155"><ele>148</ele></trkpt>
<trkpt lat="35.121026" lon="135.473549"><ele>145</ele></trkpt>
<trkpt lat="35.120538" lon="135.473984"><ele>140</ele></trkpt>
<trkpt lat="35.119805" lon="135.474679"><ele>136</ele></trkpt>
<trkpt lat="35.119251" lon="135.475204"><ele>133</ele></trkpt>
<trkpt lat="35.118770" lon="135.475670"><ele>131</ele></trkpt>
<trkpt lat="35.117997" lon="135.476419"><ele>130</ele></trkpt>
<trkpt lat="35.117251" lon="135.477082"><ele>129</ele></trkpt>
<trkpt lat="35.116466" lon="135.477284"><ele>128</ele></trkpt>
<trkpt lat="35.115053" lon="135.477764"><ele>127</ele></trkpt>
<trkpt lat="35.113995" lon="135.478138"><ele>127</ele></trkpt>
<trkpt lat="35.112984" lon="135.478595"><ele>127</ele></trkpt>
<trkpt lat="35.112062" lon="135.479082"><ele>127</ele></trkpt>
<trkpt lat="35.111358" lon="135.479415"><ele>126</ele></trkpt>
<trkpt lat="35.109981" lon="135.480125"><ele>126</ele></trkpt>
<trkpt lat="35.109068" lon="135.480604"><ele>126</ele></trkpt>
<trkpt lat="35.108560" lon="135.480864"><ele>126</ele></trkpt>
<trkpt lat="35.107520" lon="135.481042"><ele>125</ele></trkpt>
<trkpt lat="35.106404" lon="135.481063"><ele>125</ele></trkpt>
<trkpt lat="35.105484" lon="135.482169"><ele>125</ele></trkpt>
<trkpt lat="35.104860" lon="135.483066"><ele>125</ele></trkpt>
<trkpt lat="35.104094" lon="135.483555"><ele>124</ele></trkpt>
<trkpt lat="35.103636" lon="135.483972"><ele>124</ele></trkpt>
<trkpt lat="35.102805" lon="135.484761"><ele>124</ele></trkpt>
<trkpt lat="35.102380" lon="135.485209"><ele>123</ele></trkpt>
<trkpt lat="35.101550" lon="135.486153"><ele>123</ele></trkpt>
<trkpt lat="35.101267" lon="135.486973"><ele>123</ele></trkpt>
<trkpt lat="35.100773" lon="135.486601"><ele>122</ele></trkpt>
<trkpt lat="35.101029" lon="135.487563"><ele>122</ele></trkpt>
<trkpt lat="35.101095" lon="135.488334"><ele>121</ele></trkpt>
<trkpt lat="35.100854" lon="135.489210"><ele>120</ele></trkpt>
<trkpt lat="35.100272" lon="135.490723"><ele>120</ele></trkpt>
<trkpt lat="35.099848" lon="135.491581"><ele>120</ele></trkpt>
<trkpt lat="35.099411" lon="135.492432"><ele>120</ele></trkpt>
<trkpt lat="35.098835" lon="135.493189"><ele>119</ele></trkpt>
<trkpt lat="35.098273" lon="135.493814"><ele>119</ele></trkpt>
<trkpt lat="35.097361" lon="135.494750"><ele>119</ele></trkpt>
<trkpt lat="35.096841" lon="135.495273"><ele>119</ele></trkpt>
<trkpt lat="35.096483" lon="135.495717"><ele>120</ele></trkpt>
<trkpt lat="35.095669" lon="135.496603"><ele>120</ele></trkpt>
<trkpt lat="35.095228" lon="135.497236"><ele>119</ele></trkpt>
<trkpt lat="35.094815" lon="135.497789"><ele>119</ele></trkpt>
<trkpt lat="35.094516" lon="135.498792"><ele>119</ele></trkpt>
<trkpt lat="35.094405" lon="135.499456"><ele>118</ele></trkpt>
<trkpt lat="35.094329" lon="135.500176"><ele>117</ele></trkpt>
<trkpt lat="35.093997" lon="135.501210"><ele>117</ele></trkpt>
<trkpt lat="35.093745" lon="135.502615"><ele>117</ele></trkpt>
<trkpt lat="35.093462" lon="135.503279"><ele>117</ele></trkpt>
<trkpt lat="35.092700" lon="135.503133"><ele>117</ele></trkpt>
<trkpt lat="35.092625" lon="135.504191"><ele>117</ele></trkpt>
<trkpt lat="35.092733" lon="135.504916"><ele>118</ele></trkpt>
<trkpt lat="35.092600" lon="135.505837"><ele>119</ele></trkpt>
<trkpt lat="35.092527" lon="135.507120"><ele>119</ele></trkpt>
<trkpt lat="35.092620" lon="135.507924"><ele>119</ele></trkpt>
<trkpt lat="35.092444" lon="135.508675"><ele>118</ele></trkpt>
<trkpt lat="35.092319" lon="135.509355"><ele>117</ele></trkpt>
<trkpt lat="35.090819" lon="135.510622"><ele>115</ele></trkpt>
<trkpt lat="35.090059" lon="135.511131"><ele>114</ele></trkpt>
<trkpt lat="35.088678" lon="135.511986"><ele>114</ele></trkpt>
<trkpt lat="35.088136" lon="135.512464"><ele>116</ele></trkpt>
<trkpt lat="35.087680" lon="135.513046"><ele>117</ele></trkpt>
<trkpt lat="35.087245" lon="135.513529"><ele>118</ele></trkpt>
<trkpt lat="35.086580" lon="135.514039"><ele>120</ele></trkpt>
<trkpt lat="35.085825" lon="135.514436"><ele>122</ele></trkpt>
<trkpt lat="35.085465" lon="135.514973"><ele>123</ele></trkpt>
<trkpt lat="35.084991" lon="135.515810"><ele>123</ele></trkpt>
<trkpt lat="35.083419" lon="135.516495"><ele>122</ele></trkpt>
<trkpt lat="35.082386" lon="135.516706"><ele>120</ele></trkpt>
<trkpt lat="35.081730" lon="135.516731"><ele>117</ele></trkpt>
<trkpt lat="35.081154" lon="135.516945"><ele>114</ele></trkpt>
<trkpt lat="35.080247" lon="135.518178"><ele>111</ele></trkpt>
<trkpt lat="35.079795" lon="135.519164"><ele>110</ele></trkpt>
<trkpt lat="35.079529" lon="135.519831"><ele>109</ele></trkpt>
<trkpt lat="35.079225" lon="135.521250"><ele>110</ele></trkpt>
<trkpt lat="35.079247" lon="135.522231"><ele>111</ele></trkpt>
<trkpt lat="35.079053" lon="135.523275"><ele>112</ele></trkpt>
<trkpt lat="35.079295" lon="135.524479"><ele>113</ele></trkpt>
<trkpt lat="35.078902" lon="135.525768"><ele>113</ele></trkpt>
<trkpt lat="35.078422" lon="135.527221"><ele>112</ele></trkpt>
<trkpt lat="35.077921" lon="135.527980"><ele>112</ele></trkpt>
<trkpt lat="35.077450" lon="135.528755"><ele>111</ele></trkpt>
<trkpt lat="35.077262" lon="135.529505"><ele>110</ele></trkpt>
<trkpt lat="35.076914" lon="135.530223"><ele>110</ele></trkpt>
<trkpt lat="35.076441" lon="135.530809"><ele>110</ele></trkpt>
<trkpt lat="35.075771" lon="135.531344"><ele>109</ele></trkpt>
<trkpt lat="35.075100" lon="135.531715"><ele>109</ele></trkpt>
<trkpt lat="35.073791" lon="135.532583"><ele>109</ele></trkpt>
<trkpt lat="35.073249" lon="135.532993"><ele>109</ele></trkpt>
<trkpt lat="35.072666" lon="135.533513"><ele>108</ele></trkpt>
<trkpt lat="35.072052" lon="135.534315"><ele>107</ele></trkpt>
<trkpt lat="35.071391" lon="135.534625"><ele>106</ele></trkpt>
<trkpt lat="35.070701" lon="135.534831"><ele>106</ele></trkpt>
<trkpt lat="35.070042" lon="135.535150"><ele>106</ele></trkpt>
<trkpt lat="35.069152" lon="135.535686"><ele>106</ele></trkpt>
<trkpt lat="35.068294" lon="135.536284"><ele>106</ele></trkpt>
<trkpt lat="35.067463" lon="135.536864"><ele>110</ele></trkpt>
<trkpt lat="35.066991" lon="135.537197"><ele>113</ele></trkpt>
<trkpt lat="35.066326" lon="135.537389"><ele>115</ele></trkpt>
<trkpt lat="35.066292" lon="135.538149"><ele>115</ele></trkpt>
<trkpt lat="35.066292" lon="135.539286"><ele>115</ele></trkpt>
<trkpt lat="35.065735" lon="135.540190"><ele>111</ele></trkpt>
<trkpt lat="35.065212" lon="135.540251"><ele>107</ele></trkpt>
<trkpt lat="35.064595" lon="135.540466"><ele>106</ele></trkpt>
<trkpt lat="35.063982" lon="135.540784"><ele>106</ele></trkpt>
<trkpt lat="35.063488" lon="135.541212"><ele>106</ele></trkpt>
<trkpt lat="35.063688" lon="135.541907"><ele>109</ele></trkpt>
<trkpt lat="35.063764" lon="135.542541"><ele>110</ele></trkpt>
<trkpt lat="35.062823" lon="135.543610"><ele>111</ele></trkpt>
<trkpt lat="35.062140" lon="135.544289"><ele>112</ele></trkpt>
<trkpt lat="35.061465" lon="135.544814"><ele>112</ele></trkpt>
<trkpt lat="35.060798" lon="135.545169"><ele>110</ele></trkpt>
<trkpt lat="35.060285" lon="135.545407"><ele>108</ele></trkpt>
<trkpt lat="35.059111" lon="135.545150"><ele>106</ele></trkpt>
<trkpt lat="35.057544" lon="135.544958"><ele>105</ele></trkpt>
<trkpt lat="35.056905" lon="135.544828"><ele>106</ele></trkpt>
<trkpt lat="35.056295" lon="135.544929"><ele>106</ele></trkpt>
<trkpt lat="35.055782" lon="135.545321"><ele>106</ele></trkpt>
<trkpt lat="35.055289" lon="135.545669"><ele>106</ele></trkpt>
<trkpt lat="35.054670" lon="135.545647"><ele>104</ele></trkpt>
<trkpt lat="35.054122" lon="135.545368"><ele>103</ele></trkpt>
<trkpt lat="35.053601" lon="135.545193"><ele>102</ele></trkpt>
<trkpt lat="35.052465" lon="135.544837"><ele>102</ele></trkpt>
<trkpt lat="35.051416" lon="135.544691"><ele>101</ele></trkpt>
<trkpt lat="35.050594" lon="135.544585"><ele>101</ele></trkpt>
<trkpt lat="35.049261" lon="135.544302"><ele>101</ele></trkpt>
<trkpt lat="35.048507" lon="135.544273"><ele>101</ele></trkpt>
<trkpt lat="35.047409" lon="135.544292"><ele>101</ele></trkpt>
<trkpt lat="35.046496" lon="135.544555"><ele>101</ele></trkpt>
<trkpt lat="35.045865" lon="135.544717"><ele>101</ele></trkpt>
<trkpt lat="35.045222" lon="135.544823"><ele>101</ele></trkpt>
<trkpt lat="35.044567" lon="135.544835"><ele>101</ele></trkpt>
<trkpt lat="35.043649" lon="135.545081"><ele>101</ele></trkpt>
<trkpt lat="35.042938" lon="135.545381"><ele>101</ele></trkpt>
<trkpt lat="35.042233" lon="135.545357"><ele>102</ele></trkpt>
<trkpt lat="35.041599" lon="135.545364"><ele>102</ele></trkpt>
<trkpt lat="35.040700" lon="135.545472"><ele>102</ele></trkpt>
<trkpt lat="35.039601" lon="135.545591"><ele>103</ele></trkpt>
<trkpt lat="35.039006" lon="135.545221"><ele>104</ele></trkpt>
<trkpt lat="35.038497" lon="135.544590"><ele>105</ele></trkpt>
<trkpt lat="35.037898" lon="135.543784"><ele>106</ele></trkpt>
<trkpt lat="35.037480" lon="135.543253"><ele>108</ele></trkpt>
<trkpt lat="35.036959" lon="135.542938"><ele>109</ele></trkpt>
<trkpt lat="35.036398" lon="135.542765"><ele>110</ele></trkpt>
<trkpt lat="35.035794" lon="135.542709"><ele>112</ele></trkpt>
<trkpt lat="35.034996" lon="135.542655"><ele>113</ele></trkpt>
<trkpt lat="35.034141" lon="135.542527"><ele>113</ele></trkpt>
<trkpt lat="35.033503" lon="135.542399"><ele>113</ele></trkpt>
<trkpt lat="35.032721" lon="135.542533"><ele>112</ele></trkpt>
<trkpt lat="35.031006" lon="135.542707"><ele>111</ele></trkpt>
<trkpt lat="35.030387" lon="135.542793"><ele>108</ele></trkpt>
<trkpt lat="35.029904" lon="135.545345"><ele>106</ele></trkpt>
<trkpt lat="35.028904" lon="135.545978"><ele>104</ele></trkpt>
<trkpt lat="35.028199" lon="135.546434"><ele>102</ele></trkpt>
<trkpt lat="35.027711" lon="135.546723"><ele>101</ele></trkpt>
<trkpt lat="35.027026" lon="135.547139"><ele>100</ele></trkpt>
<trkpt lat="35.026056" lon="135.547716"><ele>100</ele></trkpt>
<trkpt lat="35.025021" lon="135.548297"><ele>99</ele></trkpt>
<trkpt lat="35.024466" lon="135.548605"><ele>98</ele></trkpt>
<trkpt lat="35.023997" lon="135.548989"><ele>98</ele></trkpt>
<trkpt lat="35.023111" lon="135.549612"><ele>98</ele></trkpt>
<trkpt lat="35.020872" lon="135.551324"><ele>98</ele></trkpt>
<trkpt lat="35.020046" lon="135.551580"><ele>98</ele></trkpt>
<trkpt lat="35.018887" lon="135.551582"><ele>98</ele></trkpt>
<trkpt lat="35.018091" lon="135.551571"><ele>99</ele></trkpt>
<trkpt lat="35.017497" lon="135.551604"><ele>99</ele></trkpt>
<trkpt lat="35.016662" lon="135.551651"><ele>100</ele></trkpt>
<trkpt lat="35.016094" lon="135.551687"><ele>101</ele></trkpt>
<trkpt lat="35.015109" lon="135.551715"><ele>102</ele></trkpt>
<trkpt lat="35.014329" lon="135.551696"><ele>103</ele></trkpt>
<trkpt lat="35.013496" lon="135.551661"><ele>105</ele></trkpt>
<trkpt lat="35.012277" lon="135.551710"><ele>106</ele></trkpt>
<trkpt lat="35.011171" lon="135.551793"><ele>106</ele></trkpt>
<trkpt lat="35.010312" lon="135.551740"><ele>107</ele></trkpt>
<trkpt lat="35.010240" lon="135.551065"><ele>107</ele></trkpt>
<trkpt lat="35.009929" lon="135.550595"><ele>107</ele></trkpt>
<trkpt lat="35.009192" lon="135.550529"><ele>108</ele></trkpt>
<trkpt lat="35.008921" lon="135.549733"><ele>108</ele></trkpt>
<trkpt lat="35.008354" lon="135.549558"><ele>109</ele></trkpt>
<trkpt lat="35.007925" lon="135.549141"><ele>111</ele></trkpt>
<trkpt lat="35.007040" lon="135.549072"><ele>111</ele></trkpt>
<trkpt lat="35.007040" lon="135.549072"><ele>112</ele></trkpt>
<trkpt lat="35.007035" lon="135.550348"><ele>111</ele></trkpt>
<trkpt lat="35.007260" lon="135.551120"><ele>110</ele></trkpt>
<trkpt lat="35.007209" lon="135.552068"><ele>109</ele></trkpt>
<trkpt lat="35.007223" lon="135.552959"><ele>108</ele></trkpt>
<trkpt lat="35.007240" lon="135.553899"><ele>107</ele></trkpt>
<trkpt lat="35.007285" lon="135.555343"><ele>107</ele></trkpt>
<trkpt lat="35.007343" lon="135.556067"><ele>108</ele></trkpt>
<trkpt lat="35.007865" lon="135.556290"><ele>109</ele></trkpt>
<trkpt lat="35.008525" lon="135.556536"><ele>109</ele></trkpt>
<trkpt lat="35.009180" lon="135.556622"><ele>109</ele></trkpt>
<trkpt lat="35.009776" lon="135.556819"><ele>108</ele></trkpt>
<trkpt lat="35.010321" lon="135.557373"><ele>107</ele></trkpt>
<trkpt lat="35.011314" lon="135.558681"><ele>105</ele></trkpt>
<trkpt lat="35.011688" lon="135.559158"><ele>103</ele></trkpt>
<trkpt lat="35.012272" lon="135.560098"><ele>102</ele></trkpt>
<trkpt lat="35.012665" lon="135.560557"><ele>101</ele></trkpt>
<trkpt lat="35.013227" lon="135.561032"><ele>101</ele></trkpt>
<trkpt lat="35.014070" lon="135.562529"><ele>101</ele></trkpt>
<trkpt lat="35.014960" lon="135.563283"><ele>101</ele></trkpt>
<trkpt lat="35.015794" lon="135.563829"><ele>102</ele></trkpt>
<trkpt lat="35.016276" lon="135.564216"><ele>102</ele></trkpt>
<trkpt lat="35.016913" lon="135.564323"><ele>102</ele></trkpt>
<trkpt lat="35.017458" lon="135.564460"><ele>102</ele></trkpt>
<trkpt lat="35.017896" lon="135.564829"><ele>102</ele></trkpt>
<trkpt lat="35.018190" lon="135.565549"><ele>102</ele></trkpt>
<trkpt lat="35.018176" lon="135.566284"><ele>102</ele></trkpt>
<trkpt lat="35.018151" lon="135.566950"><ele>102</ele></trkpt>
<trkpt lat="35.017144" lon="135.567165"><ele>102</ele></trkpt>
<trkpt lat="35.016574" lon="135.567244"><ele>102</ele></trkpt>
<trkpt lat="35.015979" lon="135.567184"><ele>102</ele></trkpt>
<trkpt lat="35.015326" lon="135.567183"><ele>102</ele></trkpt>
<trkpt lat="35.015326" lon="135.567183"><ele>102</ele></trkpt>
<trkpt lat="35.015979" lon="135.567184"><ele>102</ele></trkpt>
<trkpt lat="35.016574" lon="135.567244"><ele>102</ele></trkpt>
<trkpt lat="35.017144" lon="135.567165"><ele>102</ele></trkpt>
<trkpt lat="35.018153" lon="135.567172"><ele>101</ele></trkpt>
<trkpt lat="35.018155" lon="135.568459"><ele>100</ele></trkpt>
<trkpt lat="35.018153" lon="135.569593"><ele>99</ele></trkpt>
<trkpt lat="35.018250" lon="135.570450"><ele>97</ele></trkpt>
<trkpt lat="35.018456" lon="135.571193"><ele>96</ele></trkpt>
<trkpt lat="35.018653" lon="135.571984"><ele>96</ele></trkpt>
<trkpt lat="35.018298" lon="135.572954"><ele>95</ele></trkpt>
<trkpt lat="35.018073" lon="135.573597"><ele>96</ele></trkpt>
<trkpt lat="35.017804" lon="135.574380"><ele>96</ele></trkpt>
<trkpt lat="35.017300" lon="135.574629"><ele>95</ele></trkpt>
<trkpt lat="35.017096" lon="135.575541"><ele>95</ele></trkpt>
<trkpt lat="35.017389" lon="135.576756"><ele>94</ele></trkpt>
<trkpt lat="35.017488" lon="135.577529"><ele>92</ele></trkpt>
<trkpt lat="35.017422" lon="135.578235"><ele>90</ele></trkpt>
<trkpt lat="35.017832" lon="135.579072"><ele>90</ele></trkpt>
<trkpt lat="35.018122" lon="135.579652"><ele>89</ele></trkpt>
<trkpt lat="35.018303" lon="135.580643"><ele>89</ele></trkpt>
<trkpt lat="35.018352" lon="135.581813"><ele>88</ele></trkpt>
<trkpt lat="35.018347" lon="135.582797"><ele>89</ele></trkpt>
<trkpt lat="35.018366" lon="135.583520"><ele>89</ele></trkpt>
<trkpt lat="35.018370" lon="135.584199"><ele>89</ele></trkpt>
<trkpt lat="35.018322" lon="135.584891"><ele>89</ele></trkpt>
<trkpt lat="35.018000" lon="135.585430"><ele>90</ele></trkpt>
<trkpt lat="35.017525" lon="135.586185"><ele>90</ele></trkpt>
<trkpt lat="35.017012" lon="135.586897"><ele>89</ele></trkpt>
<trkpt lat="35.018243" lon="135.588349"><ele>89</ele></trkpt>
<trkpt lat="35.018787" lon="135.588887"><ele>89</ele></trkpt>
<trkpt lat="35.019439" lon="135.589327"><ele>89</ele></trkpt>
<trkpt lat="35.020015" lon="135.589213"><ele>89</ele></trkpt>
<trkpt lat="35.020701" lon="135.588281"><ele>91</ele></trkpt>
<trkpt lat="35.021368" lon="135.588312"><ele>92</ele></trkpt>
<trkpt lat="35.021797" lon="135.588963"><ele>94</ele></trkpt>
<trkpt lat="35.022094" lon="135.589629"><ele>95</ele></trkpt>
<trkpt lat="35.022456" lon="135.590142"><ele>97</ele></trkpt>
<trkpt lat="35.023011" lon="135.589977"><ele>98</ele></trkpt>
<trkpt lat="35.023871" lon="135.589813"><ele>99</ele></trkpt>
<trkpt lat="35.024225" lon="135.590632"><ele>100</ele></trkpt>
<trkpt lat="35.024162" lon="135.591504"><ele>102</ele></trkpt>
<trkpt lat="35.023848" lon="135.592143"><ele>104</ele></trkpt>
<trkpt lat="35.024170" lon="135.592947"><ele>106</ele></trkpt>
<trkpt lat="35.024701" lon="135.593167"><ele>109</ele></trkpt>
<trkpt lat="35.025231" lon="135.593037"><ele>110</ele></trkpt>
<trkpt lat="35.025402" lon="135.593057"><ele>112</ele></trkpt>
</trkseg></trk>
</gpx>
