<?xml version="1.0" encoding="UTF-8"?>
<gpx version="1.1" creator="Japonya Bisiklet Turu" xmlns="http://www.topografix.com/GPX/1/1">
<wpt lat="35.025400" lon="135.593800"><name>Hozu</name></wpt>
<wpt lat="35.045000" lon="135.624800"><name>Mizuo</name></wpt>
<wpt lat="35.023200" lon="135.638900"><name>Hozukyō</name></wpt>
<wpt lat="35.033000" lon="135.660000"><name>Kiyotaki</name></wpt>
<wpt lat="35.012900" lon="135.677800"><name>Togetsukyō</name></wpt>
<wpt lat="35.000000" lon="135.685300"><name>Matsuo Taisha</name></wpt>
<wpt lat="34.976700" lon="135.773800"><name>Tōfuku-ji</name></wpt>
<wpt lat="34.984600" lon="135.772600"><name>RBRJ Kyoto (iade)</name></wpt>
<trk><name>Gün 14 · Kameoka – Kyoto</name><trkseg>
<trkpt lat="35.024795" lon="135.594111"><ele>111</ele></trkpt>
<trkpt lat="35.024757" lon="135.594983"><ele>112</ele></trkpt>
<trkpt lat="35.024405" lon="135.595374"><ele>115</ele></trkpt>
<trkpt lat="35.024196" lon="135.595815"><ele>121</ele></trkpt>
<trkpt lat="35.024645" lon="135.596585"><ele>130</ele></trkpt>
<trkpt lat="35.025389" lon="135.596865"><ele>138</ele></trkpt>
<trkpt lat="35.025836" lon="135.597253"><ele>144</ele></trkpt>
<trkpt lat="35.026480" lon="135.597899"><ele>152</ele></trkpt>
<trkpt lat="35.026965" lon="135.598354"><ele>157</ele></trkpt>
<trkpt lat="35.027099" lon="135.599213"><ele>159</ele></trkpt>
<trkpt lat="35.027925" lon="135.599656"><ele>162</ele></trkpt>
<trkpt lat="35.028623" lon="135.599787"><ele>169</ele></trkpt>
<trkpt lat="35.029260" lon="135.600177"><ele>173</ele></trkpt>
<trkpt lat="35.029025" lon="135.600976"><ele>179</ele></trkpt>
<trkpt lat="35.029745" lon="135.601489"><ele>185</ele></trkpt>
<trkpt lat="35.030015" lon="135.602312"><ele>190</ele></trkpt>
<trkpt lat="35.030581" lon="135.602361"><ele>194</ele></trkpt>
<trkpt lat="35.031138" lon="135.603351"><ele>200</ele></trkpt>
<trkpt lat="35.031652" lon="135.604240"><ele>205</ele></trkpt>
<trkpt lat="35.032025" lon="135.604954"><ele>209</ele></trkpt>
<trkpt lat="35.032250" lon="135.605658"><ele>213</ele></trkpt>
<trkpt lat="35.032648" lon="135.606144"><ele>219</ele></trkpt>
<trkpt lat="35.033224" lon="135.606658"><ele>222</ele></trkpt>
<trkpt lat="35.033944" lon="135.607225"><ele>224</ele></trkpt>
<trkpt lat="35.034354" lon="135.607760"><ele>228</ele></trkpt>
<trkpt lat="35.034991" lon="135.608118"><ele>232</ele></trkpt>
<trkpt lat="35.035615" lon="135.608220"><ele>236</ele></trkpt>
<trkpt lat="35.036289" lon="135.608806"><ele>242</ele></trkpt>
<trkpt lat="35.036814" lon="135.608488"><ele>249</ele></trkpt>
<trkpt lat="35.037468" lon="135.608830"><ele>256</ele></trkpt>
<trkpt lat="35.037916" lon="135.609233"><ele>263</ele></trkpt>
<trkpt lat="35.038564" lon="135.609735"><ele>267</ele></trkpt>
<trkpt lat="35.039054" lon="135.610392"><ele>272</ele></trkpt>
<trkpt lat="35.039822" lon="135.610153"><ele>276</ele></trkpt>
<trkpt lat="35.040469" lon="135.610235"><ele>279</ele></trkpt>
<trkpt lat="35.041036" lon="135.610577"><ele>284</ele></trkpt>
<trkpt lat="35.041733" lon="135.610591"><ele>288</ele></trkpt>
<trkpt lat="35.042476" lon="135.610721"><ele>291</ele></trkpt>
<trkpt lat="35.043018" lon="135.610940"><ele>296</ele></trkpt>
<trkpt lat="35.043833" lon="135.610915"><ele>300</ele></trkpt>
<trkpt lat="35.044541" lon="135.610771"><ele>303</ele></trkpt>
<trkpt lat="35.045287" lon="135.610945"><ele>306</ele></trkpt>
<trkpt lat="35.045809" lon="135.611138"><ele>309</ele></trkpt>
<trkpt lat="35.046642" lon="135.611898"><ele>310</ele></trkpt>
<trkpt lat="35.047114" lon="135.612254"><ele>314</ele></trkpt>
<trkpt lat="35.048045" lon="135.612591"><ele>314</ele></trkpt>
<trkpt lat="35.049291" lon="135.613218"><ele>316</ele></trkpt>
<trkpt lat="35.050136" lon="135.613863"><ele>322</ele></trkpt>
<trkpt lat="35.051209" lon="135.613918"><ele>326</ele></trkpt>
<trkpt lat="35.051900" lon="135.614225"><ele>334</ele></trkpt>
<trkpt lat="35.051402" lon="135.614376"><ele>349</ele></trkpt>
<trkpt lat="35.051482" lon="135.615567"><ele>361</ele></trkpt>
<trkpt lat="35.051662" lon="135.616367"><ele>366</ele></trkpt>
<trkpt lat="35.051212" lon="135.616344"><ele>377</ele></trkpt>
<trkpt lat="35.050629" lon="135.615984"><ele>383</ele></trkpt>
<trkpt lat="35.050725" lon="135.616765"><ele>384</ele></trkpt>
<trkpt lat="35.050662" lon="135.617676"><ele>387</ele></trkpt>
<trkpt lat="35.050248" lon="135.618369"><ele>392</ele></trkpt>
<trkpt lat="35.050680" lon="135.618349"><ele>392</ele></trkpt>
<trkpt lat="35.051297" lon="135.618876"><ele>385</ele></trkpt>
<trkpt lat="35.051559" lon="135.619386"><ele>377</ele></trkpt>
<trkpt lat="35.051178" lon="135.619960"><ele>370</ele></trkpt>
<trkpt lat="35.051519" lon="135.620559"><ele>366</ele></trkpt>
<trkpt lat="35.052101" lon="135.620688"><ele>363</ele></trkpt>
<trkpt lat="35.052884" lon="135.620605"><ele>361</ele></trkpt>
<trkpt lat="35.053248" lon="135.620754"><ele>362</ele></trkpt>
<trkpt lat="35.053181" lon="135.621548"><ele>359</ele></trkpt>
<trkpt lat="35.053484" lon="135.622288"><ele>351</ele></trkpt>
<trkpt lat="35.052005" lon="135.622333"><ele>340</ele></trkpt>
<trkpt lat="35.051370" lon="135.622421"><ele>330</ele></trkpt>
<trkpt lat="35.050446" lon="135.622437"><ele>318</ele></trkpt>
<trkpt lat="35.049931" lon="135.622309"><ele>308</ele></trkpt>
<trkpt lat="35.049328" lon="135.622740"><ele>298</ele></trkpt>
<trkpt lat="35.048674" lon="135.623003"><ele>289</ele></trkpt>
<trkpt lat="35.047904" lon="135.623305"><ele>282</ele></trkpt>
<trkpt lat="35.047236" lon="135.623590"><ele>275</ele></trkpt>
<trkpt lat="35.046648" lon="135.623982"><ele>267</ele></trkpt>
<trkpt lat="35.046223" lon="135.624433"><ele>261</ele></trkpt>
<trkpt lat="35.045722" lon="135.624235"><ele>255</ele></trkpt>
<trkpt lat="35.045248" lon="135.624556"><ele>252</ele></trkpt>
<trkpt lat="35.044669" lon="135.624990"><ele>248</ele></trkpt>
<trkpt lat="35.044454" lon="135.625809"><ele>245</ele></trkpt>
<trkpt lat="35.043736" lon="135.625976"><ele>245</ele></trkpt>
<trkpt lat="35.043161" lon="135.626337"><ele>243</ele></trkpt>
<trkpt lat="35.043060" lon="135.626989"><ele>238</ele></trkpt>
<trkpt lat="35.042521" lon="135.626921"><ele>233</ele></trkpt>
<trkpt lat="35.041605" lon="135.627224"><ele>228</ele></trkpt>
<trkpt lat="35.040712" lon="135.627672"><ele>221</ele></trkpt>
<trkpt lat="35.040173" lon="135.627746"><ele>220</ele></trkpt>
<trkpt lat="35.040326" lon="135.628399"><ele>219</ele></trkpt>
<trkpt lat="35.040741" lon="135.628852"><ele>217</ele></trkpt>
<trkpt lat="35.040289" lon="135.629116"><ele>215</ele></trkpt>
<trkpt lat="35.039676" lon="135.628950"><ele>208</ele></trkpt>
<trkpt lat="35.039068" lon="135.628709"><ele>199</ele></trkpt>
<trkpt lat="35.038552" lon="135.628794"><ele>193</ele></trkpt>
<trkpt lat="35.038437" lon="135.629412"><ele>191</ele></trkpt>
<trkpt lat="35.038815" lon="135.629958"><ele>190</ele></trkpt>
<trkpt lat="35.039204" lon="135.630518"><ele>191</ele></trkpt>
<trkpt lat="35.038741" lon="135.630831"><ele>189</ele></trkpt>
<trkpt lat="35.038407" lon="135.630571"><ele>185</ele></trkpt>
<trkpt lat="35.037843" lon="135.629983"><ele>180</ele></trkpt>
<trkpt lat="35.037331" lon="135.629681"><ele>176</ele></trkpt>
<trkpt lat="35.036732" lon="135.629864"><ele>171</ele></trkpt>
<trkpt lat="35.036189" lon="135.629851"><ele>168</ele></trkpt>
<trkpt lat="35.035164" lon="135.629831"><ele>164</ele></trkpt>
<trkpt lat="35.034619" lon="135.630326"><ele>158</ele></trkpt>
<trkpt lat="35.034383" lon="135.631673"><ele>151</ele></trkpt>
<trkpt lat="35.033752" lon="135.632126"><ele>146</ele></trkpt>
<trkpt lat="35.033384" lon="135.632756"><ele>141</ele></trkpt>
<trkpt lat="35.032709" lon="135.633198"><ele>137</ele></trkpt>
<trkpt lat="35.032475" lon="135.633974"><ele>135</ele></trkpt>
<trkpt lat="35.032007" lon="135.634065"><ele>135</ele></trkpt>
<trkpt lat="35.031496" lon="135.634343"><ele>134</ele></trkpt>
<trkpt lat="35.030997" lon="135.635194"><ele>133</ele></trkpt>
<trkpt lat="35.030309" lon="135.635179"><ele>131</ele></trkpt>
<trkpt lat="35.029829" lon="135.635582"><ele>129</ele></trkpt>
<trkpt lat="35.029314" lon="135.635896"><ele>127</ele></trkpt>
<trkpt lat="35.029062" lon="135.636524"><ele>126</ele></trkpt>
<trkpt lat="35.028447" lon="135.636657"><ele>125</ele></trkpt>
<trkpt lat="35.028180" lon="135.637271"><ele>124</ele></trkpt>
<trkpt lat="35.027659" lon="135.638305"><ele>122</ele></trkpt>
<trkpt lat="35.027132" lon="135.638307"><ele>117</ele></trkpt>
<trkpt lat="35.026642" lon="135.638599"><ele>112</ele></trkpt>
<trkpt lat="35.026103" lon="135.638563"><ele>110</ele></trkpt>
<trkpt lat="35.025823" lon="135.639169"><ele>106</ele></trkpt>
<trkpt lat="35.025581" lon="135.639671"><ele>102</ele></trkpt>
<trkpt lat="35.024954" lon="135.639374"><ele>102</ele></trkpt>
<trkpt lat="35.024667" lon="135.638704"><ele>99</ele></trkpt>
<trkpt lat="35.024094" lon="135.638486"><ele>95</ele></trkpt>
<trkpt lat="35.023530" lon="135.638891"><ele>96</ele></trkpt>
<trkpt lat="35.023446" lon="135.638856"><ele>96</ele></trkpt>
<trkpt lat="35.023941" lon="135.638532"><ele>94</ele></trkpt>
<trkpt lat="35.024533" lon="135.638499"><ele>92</ele></trkpt>
<trkpt lat="35.024826" lon="135.639134"><ele>93</ele></trkpt>
<trkpt lat="35.024398" lon="135.639299"><ele>91</ele></trkpt>
<trkpt lat="35.024340" lon="135.639920"><ele>90</ele></trkpt>
<trkpt lat="35.024043" lon="135.640736"><ele>91</ele></trkpt>
<trkpt lat="35.024172" lon="135.641558"><ele>98</ele></trkpt>
<trkpt lat="35.024447" lon="135.642169"><ele>99</ele></trkpt>
<trkpt lat="35.025013" lon="135.642376"><ele>97</ele></trkpt>
<trkpt lat="35.025106" lon="135.642857"><ele>95</ele></trkpt>
<trkpt lat="35.025849" lon="135.644387"><ele>93</ele></trkpt>
<trkpt lat="35.026220" lon="135.644998"><ele>86</ele></trkpt>
<trkpt lat="35.026541" lon="135.645619"><ele>82</ele></trkpt>
<trkpt lat="35.026897" lon="135.646155"><ele>82</ele></trkpt>
<trkpt lat="35.027405" lon="135.646830"><ele>82</ele></trkpt>
<trkpt lat="35.027727" lon="135.647439"><ele>82</ele></trkpt>
<trkpt lat="35.028089" lon="135.648142"><ele>82</ele></trkpt>
<trkpt lat="35.028817" lon="135.648912"><ele>83</ele></trkpt>
<trkpt lat="35.029487" lon="135.649335"><ele>83</ele></trkpt>
<trkpt lat="35.030047" lon="135.649621"><ele>83</ele></trkpt>
<trkpt lat="35.030678" lon="135.649995"><ele>80</ele></trkpt>
<trkpt lat="35.031609" lon="135.650650"><ele>78</ele></trkpt>
<trkpt lat="35.032167" lon="135.650838"><ele>77</ele></trkpt>
<trkpt lat="35.031965" lon="135.650989"><ele>77</ele></trkpt>
<trkpt lat="35.031561" lon="135.651359"><ele>81</ele></trkpt>
<trkpt lat="35.031949" lon="135.651367"><ele>91</ele></trkpt>
<trkpt lat="35.031593" lon="135.651698"><ele>99</ele></trkpt>
<trkpt lat="35.031609" lon="135.652370"><ele>100</ele></trkpt>
<trkpt lat="35.031482" lon="135.652322"><ele>106</ele></trkpt>
<trkpt lat="35.031167" lon="135.651853"><ele>111</ele></trkpt>
<trkpt lat="35.030871" lon="135.652545"><ele>108</ele></trkpt>
<trkpt lat="35.031085" lon="135.652740"><ele>112</ele></trkpt>
<trkpt lat="35.031205" lon="135.652221"><ele>121</ele></trkpt>
<trkpt lat="35.031167" lon="135.652901"><ele>136</ele></trkpt>
<trkpt lat="35.030855" lon="135.653410"><ele>145</ele></trkpt>
<trkpt lat="35.031238" lon="135.654639"><ele>158</ele></trkpt>
<trkpt lat="35.030769" lon="135.654644"><ele>166</ele></trkpt>
<trkpt lat="35.030299" lon="135.654902"><ele>176</ele></trkpt>
<trkpt lat="35.029942" lon="135.655313"><ele>175</ele></trkpt>
<trkpt lat="35.029783" lon="135.656014"><ele>174</ele></trkpt>
<trkpt lat="35.029545" lon="135.656754"><ele>172</ele></trkpt>
<trkpt lat="35.029388" lon="135.657485"><ele>167</ele></trkpt>
<trkpt lat="35.029434" lon="135.657927"><ele>158</ele></trkpt>
<trkpt lat="35.028812" lon="135.658517"><ele>148</ele></trkpt>
<trkpt lat="35.028491" lon="135.659107"><ele>142</ele></trkpt>
<trkpt lat="35.028354" lon="135.659875"><ele>135</ele></trkpt>
<trkpt lat="35.028366" lon="135.660587"><ele>128</ele></trkpt>
<trkpt lat="35.028276" lon="135.661305"><ele>123</ele></trkpt>
<trkpt lat="35.028383" lon="135.662274"><ele>123</ele></trkpt>
<trkpt lat="35.028523" lon="135.662478"><ele>126</ele></trkpt>
<trkpt lat="35.029226" lon="135.662319"><ele>129</ele></trkpt>
<trkpt lat="35.030123" lon="135.661989"><ele>134</ele></trkpt>
<trkpt lat="35.030855" lon="135.661828"><ele>142</ele></trkpt>
<trkpt lat="35.031464" lon="135.661600"><ele>146</ele></trkpt>
<trkpt lat="35.032013" lon="135.661406"><ele>153</ele></trkpt>
<trkpt lat="35.032425" lon="135.660978"><ele>155</ele></trkpt>
<trkpt lat="35.033120" lon="135.660422"><ele>157</ele></trkpt>
<trkpt lat="35.032543" lon="135.660841"><ele>155</ele></trkpt>
<trkpt lat="35.032128" lon="135.661356"><ele>153</ele></trkpt>
<trkpt lat="35.031464" lon="135.661600"><ele>146</ele></trkpt>
<trkpt lat="35.030962" lon="135.661857"><ele>143</ele></trkpt>
<trkpt lat="35.030181" lon="135.662051"><ele>138</ele></trkpt>
<trkpt lat="35.029602" lon="135.662313"><ele>132</ele></trkpt>
<trkpt lat="35.028988" lon="135.662445"><ele>126</ele></trkpt>
<trkpt lat="35.028446" lon="135.662772"><ele>117</ele></trkpt>
<trkpt lat="35.028213" lon="135.663507"><ele>108</ele></trkpt>
<trkpt lat="35.028255" lon="135.664296"><ele>102</ele></trkpt>
<trkpt lat="35.028221" lon="135.665098"><ele>98</ele></trkpt>
<trkpt lat="35.027922" lon="135.665759"><ele>94</ele></trkpt>
<trkpt lat="35.027399" lon="135.666211"><ele>91</ele></trkpt>
<trkpt lat="35.026919" lon="135.666977"><ele>88</ele></trkpt>
<trkpt lat="35.026757" lon="135.668061"><ele>84</ele></trkpt>
<trkpt lat="35.026696" lon="135.668921"><ele>79</ele></trkpt>
<trkpt lat="35.026601" lon="135.669844"><ele>74</ele></trkpt>
<trkpt lat="35.026531" lon="135.670718"><ele>69</ele></trkpt>
<trkpt lat="35.026347" lon="135.671742"><ele>65</ele></trkpt>
<trkpt lat="35.026121" lon="135.672471"><ele>62</ele></trkpt>
<trkpt lat="35.025781" lon="135.673255"><ele>59</ele></trkpt>
<trkpt lat="35.025224" lon="135.674170"><ele>57</ele></trkpt>
<trkpt lat="35.024587" lon="135.674925"><ele>54</ele></trkpt>
<trkpt lat="35.024115" lon="135.675336"><ele>53</ele></trkpt>
<trkpt lat="35.023423" lon="135.675811"><ele>51</ele></trkpt>
<trkpt lat="35.022943" lon="135.676161"><ele>50</ele></trkpt>
<trkpt lat="35.022357" lon="135.676592"><ele>49</ele></trkpt>
<trkpt lat="35.021648" lon="135.676893"><ele>48</ele></trkpt>
<trkpt lat="35.020831" lon="135.677093"><ele>47</ele></trkpt>
<trkpt lat="35.020093" lon="135.677384"><ele>46</ele></trkpt>
<trkpt lat="35.019591" lon="135.677794"><ele>45</ele></trkpt>
<trkpt lat="35.019391" lon="135.678445"><ele>45</ele></trkpt>
<trkpt lat="35.019529" lon="135.679172"><ele>44</ele></trkpt>
<trkpt lat="35.019002" lon="135.679375"><ele>43</ele></trkpt>
<trkpt lat="35.018260" lon="135.679633"><ele>42</ele></trkpt>
<trkpt lat="35.017667" lon="135.679842"><ele>41</ele></trkpt>
<trkpt lat="35.016610" lon="135.680249"><ele>40</ele></trkpt>
<trkpt lat="35.016082" lon="135.680181"><ele>38</ele></trkpt>
<trkpt lat="35.015173" lon="135.680429"><ele>37</ele></trkpt>
<trkpt lat="35.014637" lon="135.680629"><ele>35</ele></trkpt>
<trkpt lat="35.013809" lon="135.680721"><ele>34</ele></trkpt>
<trkpt lat="35.013764" lon="135.679913"><ele>33</ele></trkpt>
<trkpt lat="35.013712" lon="135.679011"><ele>32</ele></trkpt>
<trkpt lat="35.013694" lon="135.677994"><ele>32</ele></trkpt>
<trkpt lat="35.012898" lon="135.677814"><ele>32</ele></trkpt>
<trkpt lat="35.012193" lon="135.677727"><ele>34</ele></trkpt>
<trkpt lat="35.011536" lon="135.677495"><ele>36</ele></trkpt>
<trkpt lat="35.010940" lon="135.677804"><ele>38</ele></trkpt>
<trkpt lat="35.010400" lon="135.678417"><ele>40</ele></trkpt>
<trkpt lat="35.010062" lon="135.679039"><ele>40</ele></trkpt>
<trkpt lat="35.009629" lon="135.679605"><ele>39</ele></trkpt>
<trkpt lat="35.009071" lon="135.680270"><ele>38</ele></trkpt>
<trkpt lat="35.008424" lon="135.680581"><ele>37</ele></trkpt>
<trkpt lat="35.007736" lon="135.680814"><ele>38</ele></trkpt>
<trkpt lat="35.007133" lon="135.681149"><ele>38</ele></trkpt>
<trkpt lat="35.006484" lon="135.681271"><ele>38</ele></trkpt>
<trkpt lat="35.005962" lon="135.681735"><ele>38</ele></trkpt>
<trkpt lat="35.005429" lon="135.681844"><ele>38</ele></trkpt>
<trkpt lat="35.004820" lon="135.682291"><ele>37</ele></trkpt>
<trkpt lat="35.004386" lon="135.682752"><ele>39</ele></trkpt>
<trkpt lat="35.003788" lon="135.682976"><ele>41</ele></trkpt>
<trkpt lat="35.003127" lon="135.683025"><ele>41</ele></trkpt>
<trkpt lat="35.002583" lon="135.683158"><ele>43</ele></trkpt>
<trkpt lat="35.002172" lon="135.683573"><ele>43</ele></trkpt>
<trkpt lat="35.001577" lon="135.683727"><ele>42</ele></trkpt>
<trkpt lat="35.001208" lon="135.684264"><ele>40</ele></trkpt>
<trkpt lat="35.000811" lon="135.684726"><ele>39</ele></trkpt>
<trkpt lat="35.000866" lon="135.685397"><ele>38</ele></trkpt>
<trkpt lat="35.000329" lon="135.685578"><ele>38</ele></trkpt>
<trkpt lat="34.999981" lon="135.685339"><ele>36</ele></trkpt>
<trkpt lat="35.000204" lon="135.685825"><ele>35</ele></trkpt>
<trkpt lat="35.000255" lon="135.687187"><ele>34</ele></trkpt>
<trkpt lat="35.000574" lon="135.687693"><ele>31</ele></trkpt>
<trkpt lat="35.001022" lon="135.688140"><ele>30</ele></trkpt>
<trkpt lat="35.000845" lon="135.688648"><ele>29</ele></trkpt>
<trkpt lat="35.000301" lon="135.689077"><ele>28</ele></trkpt>
<trkpt lat="34.999585" lon="135.689523"><ele>28</ele></trkpt>
<trkpt lat="34.999098" lon="135.689827"><ele>28</ele></trkpt>
<trkpt lat="34.998523" lon="135.690216"><ele>27</ele></trkpt>
<trkpt lat="34.997895" lon="135.690690"><ele>26</ele></trkpt>
<trkpt lat="34.997439" lon="135.691138"><ele>25</ele></trkpt>
<trkpt lat="34.997244" lon="135.691776"><ele>24</ele></trkpt>
<trkpt lat="34.997069" lon="135.692984"><ele>24</ele></trkpt>
<trkpt lat="34.996955" lon="135.693621"><ele>24</ele></trkpt>
<trkpt lat="34.996476" lon="135.693653"><ele>25</ele></trkpt>
<trkpt lat="34.996816" lon="135.694343"><ele>25</ele></trkpt>
<trkpt lat="34.996981" lon="135.695365"><ele>25</ele></trkpt>
<trkpt lat="34.997082" lon="135.696332"><ele>25</ele></trkpt>
<trkpt lat="34.997594" lon="135.699286"><ele>24</ele></trkpt>
<trkpt lat="34.997769" lon="135.700271"><ele>24</ele></trkpt>
<trkpt lat="34.998191" lon="135.701363"><ele>23</ele></trkpt>
<trkpt lat="34.998242" lon="135.702514"><ele>22</ele></trkpt>
<trkpt lat="34.998223" lon="135.703253"><ele>22</ele></trkpt>
<trkpt lat="34.998077" lon="135.704298"><ele>22</ele></trkpt>
<trkpt lat="34.997556" lon="135.704292"><ele>22</ele></trkpt>
<trkpt lat="34.997369" lon="135.705013"><ele>23</ele></trkpt>
<trkpt lat="34.996981" lon="135.705612"><ele>23</ele></trkpt>
<trkpt lat="34.996561" lon="135.706129"><ele>22</ele></trkpt>
<trkpt lat="34.996145" lon="135.706550"><ele>22</ele></trkpt>
<trkpt lat="34.995511" lon="135.706978"><ele>22</ele></trkpt>
<trkpt lat="34.994803" lon="135.707172"><ele>22</ele></trkpt>
<trkpt lat="34.994196" lon="135.707014"><ele>23</ele></trkpt>
<trkpt lat="34.993575" lon="135.706997"><ele>23</ele></trkpt>
<trkpt lat="34.993037" lon="135.707089"><ele>24</ele></trkpt>
<trkpt lat="34.992521" lon="135.707267"><ele>24</ele></trkpt>
<trkpt lat="34.992477" lon="135.706412"><ele>24</ele></trkpt>
<trkpt lat="34.992937" lon="135.707355"><ele>24</ele></trkpt>
<trkpt lat="34.993262" lon="135.708081"><ele>24</ele></trkpt>
<trkpt lat="34.994326" lon="135.710507"><ele>22</ele></trkpt>
<trkpt lat="34.993825" lon="135.710758"><ele>21</ele></trkpt>
<trkpt lat="34.993295" lon="135.710929"><ele>20</ele></trkpt>
<trkpt lat="34.992732" lon="135.711250"><ele>18</ele></trkpt>
<trkpt lat="34.991556" lon="135.711498"><ele>18</ele></trkpt>
<trkpt lat="34.990342" lon="135.711659"><ele>18</ele></trkpt>
<trkpt lat="34.989311" lon="135.711689"><ele>18</ele></trkpt>
<trkpt lat="34.988687" lon="135.711903"><ele>18</ele></trkpt>
<trkpt lat="34.987962" lon="135.712299"><ele>19</ele></trkpt>
<trkpt lat="34.987190" lon="135.712773"><ele>18</ele></trkpt>
<trkpt lat="34.986590" lon="135.713159"><ele>19</ele></trkpt>
<trkpt lat="34.983711" lon="135.713865"><ele>19</ele></trkpt>
<trkpt lat="34.983949" lon="135.714735"><ele>20</ele></trkpt>
<trkpt lat="34.983497" lon="135.715013"><ele>20</ele></trkpt>
<trkpt lat="34.983179" lon="135.715392"><ele>21</ele></trkpt>
<trkpt lat="34.982524" lon="135.715612"><ele>20</ele></trkpt>
<trkpt lat="34.981883" lon="135.715881"><ele>20</ele></trkpt>
<trkpt lat="34.980985" lon="135.716454"><ele>19</ele></trkpt>
<trkpt lat="34.980517" lon="135.716823"><ele>18</ele></trkpt>
<trkpt lat="34.979868" lon="135.717430"><ele>17</ele></trkpt>
<trkpt lat="34.979171" lon="135.718256"><ele>16</ele></trkpt>
<trkpt lat="34.978384" lon="135.719250"><ele>16</ele></trkpt>
<trkpt lat="34.977965" lon="135.719772"><ele>17</ele></trkpt>
<trkpt lat="34.978183" lon="135.720445"><ele>18</ele></trkpt>
<trkpt lat="34.977698" lon="135.720833"><ele>20</ele></trkpt>
<trkpt lat="34.976628" lon="135.721834"><ele>21</ele></trkpt>
<trkpt lat="34.976081" lon="135.722024"><ele>21</ele></trkpt>
<trkpt lat="34.975563" lon="135.722455"><ele>21</ele></trkpt>
<trkpt lat="34.975083" lon="135.722870"><ele>20</ele></trkpt>
<trkpt lat="34.974587" lon="135.723220"><ele>19</ele></trkpt>
<trkpt lat="34.973868" lon="135.723542"><ele>18</ele></trkpt>
<trkpt lat="34.972878" lon="135.723833"><ele>17</ele></trkpt>
<trkpt lat="34.972548" lon="135.725061"><ele>17</ele></trkpt>
<trkpt lat="34.971871" lon="135.725196"><ele>17</ele></trkpt>
<trkpt lat="34.971430" lon="135.725554"><ele>17</ele></trkpt>
<trkpt lat="34.970874" lon="135.725216"><ele>18</ele></trkpt>
<trkpt lat="34.970205" lon="135.725034"><ele>19</ele></trkpt>
<trkpt lat="34.969740" lon="135.725140"><ele>19</ele></trkpt>
<trkpt lat="34.969724" lon="135.726411"><ele>20</ele></trkpt>
<trkpt lat="34.969680" lon="135.728330"><ele>20</ele></trkpt>
<trkpt lat="34.969632" lon="135.730360"><ele>20</ele></trkpt>
<trkpt lat="34.969610" lon="135.731385"><ele>20</ele></trkpt>
<trkpt lat="34.969580" lon="135.732732"><ele>20</ele></trkpt>
<trkpt lat="34.969548" lon="135.734158"><ele>19</ele></trkpt>
<trkpt lat="34.969532" lon="135.734907"><ele>19</ele></trkpt>
<trkpt lat="34.969515" lon="135.735642"><ele>19</ele></trkpt>
<trkpt lat="34.969478" lon="135.737300"><ele>19</ele></trkpt>
<trkpt lat="34.969452" lon="135.738471"><ele>19</ele></trkpt>
<trkpt lat="34.969437" lon="135.739162"><ele>20</ele></trkpt>
<trkpt lat="34.969429" lon="135.739963"><ele>20</ele></trkpt>
<trkpt lat="34.969423" lon="135.741070"><ele>20</ele></trkpt>
<trkpt lat="34.969408" lon="135.742527"><ele>21</ele></trkpt>
<trkpt lat="34.969385" lon="135.744200"><ele>21</ele></trkpt>
<trkpt lat="34.969367" lon="135.745959"><ele>22</ele></trkpt>
<trkpt lat="34.969349" lon="135.747480"><ele>22</ele></trkpt>
<trkpt lat="34.969339" lon="135.748507"><ele>22</ele></trkpt>
<trkpt lat="34.969301" lon="135.750512"><ele>21</ele></trkpt>
<trkpt lat="34.969267" lon="135.752167"><ele>21</ele></trkpt>
<trkpt lat="34.969267" lon="135.752999"><ele>22</ele></trkpt>
<trkpt lat="34.969252" lon="135.754583"><ele>22</ele></trkpt>
<trkpt lat="34.969239" lon="135.756179"><ele>23</ele></trkpt>
<trkpt lat="34.969229" lon="135.757028"><ele>23</ele></trkpt>
<trkpt lat="34.970161" lon="135.758803"><ele>23</ele></trkpt>
<trkpt lat="34.970553" lon="135.759545"><ele>23</ele></trkpt>
<trkpt lat="34.970868" lon="135.760583"><ele>23</ele></trkpt>
<trkpt lat="34.971058" lon="135.761410"><ele>23</ele></trkpt>
<trkpt lat="34.971344" lon="135.762138"><ele>24</ele></trkpt>
<trkpt lat="34.972374" lon="135.763075"><ele>25</ele></trkpt>
<trkpt lat="34.972853" lon="135.763421"><ele>24</ele></trkpt>
<trkpt lat="34.973275" lon="135.763749"><ele>24</ele></trkpt>
<trkpt lat="34.973269" lon="135.764411"><ele>24</ele></trkpt>
<trkpt lat="34.973257" lon="135.765430"><ele>25</ele></trkpt>
<trkpt lat="34.973210" lon="135.767450"><ele>25</ele></trkpt>
<trkpt lat="34.973106" lon="135.768364"><ele>27</ele></trkpt>
<trkpt lat="34.973053" lon="135.769083"><ele>30</ele></trkpt>
<trkpt lat="34.973040" lon="135.769767"><ele>31</ele></trkpt>
<trkpt lat="34.973027" lon="135.770814"><ele>33</ele></trkpt>
<trkpt lat="34.973907" lon="135.770810"><ele>35</ele></trkpt>
<trkpt lat="34.974747" lon="135.770798"><ele>36</ele></trkpt>
<trkpt lat="34.975384" lon="135.770809"><ele>37</ele></trkpt>
<trkpt lat="34.976104" lon="135.770819"><ele>38</ele></trkpt>
<trkpt lat="34.976580" lon="135.771126"><ele>40</ele></trkpt>
<trkpt lat="34.976549" lon="135.771853"><ele>44</ele></trkpt>
<trkpt lat="34.976509" lon="135.772806"><ele>47</ele></trkpt>
<trkpt lat="34.976486" lon="135.773475"><ele>49</ele></trkpt>
<trkpt lat="34.976600" lon="135.773505"><ele>49</ele></trkpt>
<trkpt lat="34.976505" lon="135.772927"><ele>47</ele></trkpt>
<trkpt lat="34.976549" lon="135.771853"><ele>44</ele></trkpt>
<trkpt lat="34.976579" lon="135.771188"><ele>41</ele></trkpt>
<trkpt lat="34.977637" lon="135.770726"><ele>38</ele></trkpt>
<trkpt lat="34.978559" lon="135.770668"><ele>37</ele></trkpt>
<trkpt lat="34.979168" lon="135.770580"><ele>36</ele></trkpt>
<trkpt lat="34.979766" lon="135.770537"><ele>36</ele></trkpt>
<trkpt lat="34.980512" lon="135.770445"><ele>36</ele></trkpt>
<trkpt lat="34.981266" lon="135.770418"><ele>36</ele></trkpt>
<trkpt lat="34.982016" lon="135.770421"><ele>36</ele></trkpt>
<trkpt lat="34.982582" lon="135.770398"><ele>36</ele></trkpt>
<trkpt lat="34.983270" lon="135.770368"><ele>36</ele></trkpt>
<trkpt lat="34.984233" lon="135.770307"><ele>36</ele></trkpt>
<trkpt lat="34.984897" lon="135.770199"><ele>36</ele></trkpt>
<trkpt lat="34.985358" lon="135.770662"><ele>37</ele></trkpt>
<trkpt lat="34.985528" lon="135.771947"><ele>38</ele></trkpt>
<trkpt lat="34.985547" lon="135.772838"><ele>40</ele></trkpt>
<trkpt lat="34.984742" lon="135.772730"><ele>41</ele></trkpt>
<trkpt lat="34.984750" lon="135.772616"><ele>41</ele></trkpt>
</trkseg></trk>
</gpx>
